{
"type": "FeatureCollection",
"name": "state_69_tracts_simplified",
"crs": { "type": "name", "properties": { "name": "urn:ogc:def:crs:OGC:1.3:CRS84" } },
"features": [
{ "type": "Feature", "properties": { "GEOIDFQ": "1400000US69085950100", "NAME": "9501", "NAMELSAD": "Census Tract 9501" }, "geometry": { "type": "MultiPolygon", "coordinates": [ [ [ [ 146.0143, 16.0574 ], [ 146.0508, 16.0934 ], [ 146.094, 16.0973 ], [ 146.1382, 16.0747 ], [ 146.1519, 16.0519 ], [ 146.1544, 16.0228 ], [ 146.1332, 15.981 ], [ 146.0882, 15.953 ], [ 146.0444, 15.9479 ], [ 146.0107, 15.9707 ], [ 146.002, 16.0288 ], [ 146.0143, 16.0574 ] ] ], [ [ [ 145.8016, 17.387 ], [ 145.8505, 17.4012 ], [ 145.8964, 17.3884 ], [ 145.9045, 17.375 ], [ 145.9215, 17.3667 ], [ 145.9366, 17.3404 ], [ 145.926, 17.3333 ], [ 145.9258, 17.2971 ], [ 145.9121, 17.2708 ], [ 145.8907, 17.2433 ], [ 145.8468, 17.2253 ], [ 145.8055, 17.2411 ], [ 145.7742, 17.2731 ], [ 145.7634, 17.3059 ], [ 145.7644, 17.3444 ], [ 145.8016, 17.387 ] ] ], [ [ [ 145.8001, 17.6841 ], [ 145.8569, 17.6905 ], [ 145.8939, 17.6803 ], [ 145.9177, 17.6546 ], [ 145.9244, 17.5991 ], [ 145.9183, 17.5672 ], [ 145.8967, 17.5335 ], [ 145.8677, 17.5177 ], [ 145.8178, 17.5145 ], [ 145.7767, 17.536 ], [ 145.75, 17.5643 ], [ 145.7467, 17.5994 ], [ 145.8001, 17.6841 ] ] ], [ [ [ 145.7083, 16.75 ], [ 145.7222, 16.764 ], [ 145.7698, 16.7877 ], [ 145.7924, 16.792 ], [ 145.8232, 16.7821 ], [ 145.8679, 16.7418 ], [ 145.8676, 16.6905 ], [ 145.8549, 16.6601 ], [ 145.8421, 16.6479 ], [ 145.8027, 16.6324 ], [ 145.763, 16.6322 ], [ 145.7383, 16.641 ], [ 145.7117, 16.6657 ], [ 145.7012, 16.7241 ], [ 145.7083, 16.75 ] ] ], [ [ [ 145.6603, 18.1192 ], [ 145.6855, 18.1536 ], [ 145.6889, 18.1844 ], [ 145.7164, 18.2127 ], [ 145.767, 18.2422 ], [ 145.8249, 18.2382 ], [ 145.856, 18.2232 ], [ 145.8803, 18.1864 ], [ 145.8907, 18.1551 ], [ 145.875, 18.0866 ], [ 145.8442, 18.0455 ], [ 145.7441, 17.986 ], [ 145.7216, 17.986 ], [ 145.6954, 17.9898 ], [ 145.664, 18.0093 ], [ 145.6438, 18.0579 ], [ 145.6603, 18.1192 ] ] ], [ [ [ 145.5754, 18.8204 ], [ 145.6078, 18.8659 ], [ 145.6397, 18.8784 ], [ 145.6761, 18.8805 ], [ 145.71, 18.8724 ], [ 145.75, 18.8271 ], [ 145.7649, 18.7956 ], [ 145.7698, 18.75 ], [ 145.7366, 18.6879 ], [ 145.6846, 18.6578 ], [ 145.6612, 18.6592 ], [ 145.6086, 18.6823 ], [ 145.5769, 18.7297 ], [ 145.5631, 18.7788 ], [ 145.5754, 18.8204 ] ] ], [ [ [ 145.5713, 16.402 ], [ 145.625, 16.4425 ], [ 145.6757, 16.4523 ], [ 145.7208, 16.4483 ], [ 145.75, 16.4377 ], [ 145.7709, 16.4123 ], [ 145.7828, 16.3599 ], [ 145.7676, 16.324 ], [ 145.7329, 16.2933 ], [ 145.6932, 16.274 ], [ 145.6499, 16.2738 ], [ 145.5751, 16.3058 ], [ 145.5601, 16.3412 ], [ 145.5588, 16.3742 ], [ 145.5713, 16.402 ] ] ], [ [ [ 145.3597, 19.7564 ], [ 145.3969, 19.7647 ], [ 145.4353, 19.7556 ], [ 145.4727, 19.7267 ], [ 145.4898, 19.7036 ], [ 145.4956, 19.6799 ], [ 145.4884, 19.657 ], [ 145.455, 19.6049 ], [ 145.4275, 19.591 ], [ 145.4, 19.5884 ], [ 145.3303, 19.615 ], [ 145.313, 19.6537 ], [ 145.3063, 19.6984 ], [ 145.3597, 19.7564 ] ] ], [ [ [ 145.1462, 20.0764 ], [ 145.1609, 20.0862 ], [ 145.1787, 20.0965 ], [ 145.2336, 20.1027 ], [ 145.2651, 20.0954 ], [ 145.2856, 20.0819 ], [ 145.315, 20.033 ], [ 145.3022, 19.9928 ], [ 145.2822, 19.9688 ], [ 145.25, 19.9485 ], [ 145.2121, 19.9473 ], [ 145.1831, 19.9519 ], [ 145.1426, 19.9863 ], [ 145.1319, 20.0396 ], [ 145.1462, 20.0764 ] ] ], [ [ [ 144.8211, 20.5781 ], [ 144.8461, 20.6052 ], [ 144.875, 20.6145 ], [ 144.923, 20.6144 ], [ 144.9414, 20.6083 ], [ 144.9711, 20.5812 ], [ 144.9791, 20.5259 ], [ 144.9638, 20.5 ], [ 144.9264, 20.4701 ], [ 144.8871, 20.4629 ], [ 144.8625, 20.4671 ], [ 144.8268, 20.4918 ], [ 144.816, 20.5233 ], [ 144.8211, 20.5781 ] ] ] ] } },
{ "type": "Feature", "properties": { "GEOIDFQ": "1400000US69110000500", "NAME": "5", "NAMELSAD": "Census Tract 5" }, "geometry": { "type": "Polygon", "coordinates": [ [ [ 145.7243, 15.2125 ], [ 145.747, 15.2127 ], [ 145.7417, 15.1855 ], [ 145.7285, 15.1853 ], [ 145.7332, 15.2007 ], [ 145.7198, 15.2013 ], [ 145.7243, 15.2125 ] ] ] } },
{ "type": "Feature", "properties": { "GEOIDFQ": "1400000US69100950100", "NAME": "9501", "NAMELSAD": "Census Tract 9501" }, "geometry": { "type": "MultiPolygon", "coordinates": [ [ [ [ 145.1426, 14.1471 ], [ 145.1433, 14.1475 ], [ 145.1431, 14.1464 ], [ 145.1426, 14.1471 ] ] ], [ [ [ 145.1231, 14.1272 ], [ 145.1423, 14.1442 ], [ 145.1598, 14.1682 ], [ 145.1965, 14.1741 ], [ 145.2413, 14.2003 ], [ 145.2903, 14.1894 ], [ 145.2823, 14.16 ], [ 145.2682, 14.1518 ], [ 145.241, 14.1514 ], [ 145.2146, 14.1161 ], [ 145.1699, 14.1105 ], [ 145.1663, 14.129 ], [ 145.1442, 14.1396 ], [ 145.1214, 14.119 ], [ 145.1231, 14.1272 ] ] ] ] } },
{ "type": "Feature", "properties": { "GEOIDFQ": "1400000US69120990000", "NAME": "9900", "NAMELSAD": "Census Tract 9900" }, "geometry": { "type": "Polygon", "coordinates": [ [ [ 145.4894, 14.8987 ], [ 145.5629, 14.9343 ], [ 145.5248, 14.9715 ], [ 145.5132, 15.0 ], [ 145.5136, 15.0268 ], [ 145.5183, 15.0563 ], [ 145.535, 15.0892 ], [ 145.5726, 15.125 ], [ 145.6426, 15.1069 ], [ 145.7442, 15.0229 ], [ 145.7477, 14.9712 ], [ 145.7308, 14.9173 ], [ 145.6837, 14.8642 ], [ 145.6531, 14.8574 ], [ 145.6327, 14.8191 ], [ 145.5917, 14.7814 ], [ 145.5326, 14.7727 ], [ 145.5077, 14.7794 ], [ 145.4827, 14.7992 ], [ 145.4726, 14.8191 ], [ 145.4682, 14.8533 ], [ 145.4894, 14.8987 ] ], [ [ 145.5329, 14.8348 ], [ 145.5327, 14.8338 ], [ 145.5337, 14.835 ], [ 145.5329, 14.8348 ] ], [ [ 145.5455, 14.8404 ], [ 145.5647, 14.8447 ], [ 145.5775, 14.8549 ], [ 145.5781, 14.8637 ], [ 145.5451, 14.8552 ], [ 145.5373, 14.8456 ], [ 145.5455, 14.8404 ] ], [ [ 145.5886, 15.0094 ], [ 145.5852, 14.9947 ], [ 145.6086, 14.9904 ], [ 145.6135, 14.9667 ], [ 145.6316, 14.9532 ], [ 145.6306, 14.9279 ], [ 145.6413, 14.9235 ], [ 145.6546, 14.9459 ], [ 145.6655, 14.9482 ], [ 145.6616, 14.9652 ], [ 145.6738, 15.0059 ], [ 145.6486, 15.0339 ], [ 145.6477, 15.0466 ], [ 145.659, 15.0588 ], [ 145.6563, 15.0865 ], [ 145.6453, 15.1011 ], [ 145.5964, 15.0533 ], [ 145.5968, 15.0408 ], [ 145.5887, 15.0381 ], [ 145.5822, 15.0175 ], [ 145.5886, 15.0094 ] ] ] } },
{ "type": "Feature", "properties": { "GEOIDFQ": "1400000US69100990000", "NAME": "9900", "NAMELSAD": "Census Tract 9900" }, "geometry": { "type": "Polygon", "coordinates": [ [ [ 145.0752, 14.1591 ], [ 145.0915, 14.1687 ], [ 145.0919, 14.1936 ], [ 145.1143, 14.2169 ], [ 145.1431, 14.2313 ], [ 145.1783, 14.235 ], [ 145.2014, 14.2538 ], [ 145.2356, 14.2666 ], [ 145.2638, 14.2662 ], [ 145.2766, 14.2543 ], [ 145.3045, 14.2563 ], [ 145.3517, 14.2444 ], [ 145.3745, 14.2008 ], [ 145.3714, 14.1701 ], [ 145.3396, 14.1083 ], [ 145.2991, 14.0919 ], [ 145.2739, 14.064 ], [ 145.233, 14.0525 ], [ 145.2196, 14.056 ], [ 145.178, 14.0366 ], [ 145.0969, 14.0471 ], [ 145.0777, 14.0604 ], [ 145.0645, 14.0817 ], [ 145.059, 14.125 ], [ 145.0752, 14.1591 ] ], [ [ 145.1442, 14.1396 ], [ 145.1663, 14.129 ], [ 145.1699, 14.1105 ], [ 145.2146, 14.1161 ], [ 145.241, 14.1514 ], [ 145.2682, 14.1518 ], [ 145.2823, 14.16 ], [ 145.2903, 14.1894 ], [ 145.2413, 14.2003 ], [ 145.1965, 14.1741 ], [ 145.1598, 14.1682 ], [ 145.1423, 14.1442 ], [ 145.1231, 14.1272 ], [ 145.1213, 14.1189 ], [ 145.1442, 14.1396 ] ], [ [ 145.1431, 14.1464 ], [ 145.1433, 14.1475 ], [ 145.1426, 14.1471 ], [ 145.1431, 14.1464 ] ] ] } },
{ "type": "Feature", "properties": { "GEOIDFQ": "1400000US69110000100", "NAME": "1", "NAMELSAD": "Census Tract 1" }, "geometry": { "type": "MultiPolygon", "coordinates": [ [ [ [ 145.8135, 15.2582 ], [ 145.8142, 15.258 ], [ 145.814, 15.2568 ], [ 145.8135, 15.2582 ] ] ], [ [ [ 145.8103, 15.2901 ], [ 145.8302, 15.273 ], [ 145.8267, 15.2594 ], [ 145.8105, 15.258 ], [ 145.8104, 15.2415 ], [ 145.7985, 15.2286 ], [ 145.7898, 15.2257 ], [ 145.7683, 15.248 ], [ 145.8103, 15.2901 ] ] ] ] } },
{ "type": "Feature", "properties": { "GEOIDFQ": "1400000US69110001300", "NAME": "13", "NAMELSAD": "Census Tract 13" }, "geometry": { "type": "Polygon", "coordinates": [ [ [ 145.7124, 15.1302 ], [ 145.7213, 15.1209 ], [ 145.7298, 15.1322 ], [ 145.7549, 15.1235 ], [ 145.7566, 15.1122 ], [ 145.7478, 15.0919 ], [ 145.7406, 15.1051 ], [ 145.7082, 15.1058 ], [ 145.6896, 15.1202 ], [ 145.7124, 15.1302 ] ] ] } },
{ "type": "Feature", "properties": { "GEOIDFQ": "1400000US69110001200", "NAME": "12", "NAMELSAD": "Census Tract 12" }, "geometry": { "type": "Polygon", "coordinates": [ [ [ 145.6986, 15.1363 ], [ 145.7043, 15.1263 ], [ 145.6965, 15.1207 ], [ 145.6923, 15.1303 ], [ 145.6986, 15.1363 ] ] ] } },
{ "type": "Feature", "properties": { "GEOIDFQ": "1400000US69110001700", "NAME": "17", "NAMELSAD": "Census Tract 17" }, "geometry": { "type": "Polygon", "coordinates": [ [ [ 145.7513, 15.23 ], [ 145.7716, 15.2441 ], [ 145.7905, 15.2253 ], [ 145.7785, 15.2101 ], [ 145.7797, 15.1865 ], [ 145.7647, 15.1773 ], [ 145.7417, 15.1855 ], [ 145.7412, 15.2049 ], [ 145.7513, 15.23 ] ] ] } },
{ "type": "Feature", "properties": { "GEOIDFQ": "1400000US69110000200", "NAME": "2", "NAMELSAD": "Census Tract 2" }, "geometry": { "type": "Polygon", "coordinates": [ [ [ 145.7543, 15.243 ], [ 145.7716, 15.2441 ], [ 145.7473, 15.2225 ], [ 145.7543, 15.243 ] ] ] } },
{ "type": "Feature", "properties": { "GEOIDFQ": "1400000US69110000300", "NAME": "3", "NAMELSAD": "Census Tract 3" }, "geometry": { "type": "MultiPolygon", "coordinates": [ [ [ [ 145.7229, 15.2176 ], [ 145.7236, 15.2186 ], [ 145.7234, 15.2174 ], [ 145.7229, 15.2176 ] ] ], [ [ [ 145.7237, 15.2169 ], [ 145.7236, 15.2186 ], [ 145.7234, 15.2225 ], [ 145.7294, 15.2186 ], [ 145.7479, 15.2351 ], [ 145.7457, 15.2121 ], [ 145.7292, 15.2084 ], [ 145.7161, 15.2178 ], [ 145.7237, 15.2169 ] ] ], [ [ [ 145.7111, 15.2431 ], [ 145.7137, 15.2415 ], [ 145.7131, 15.2398 ], [ 145.7111, 15.2431 ] ] ] ] } },
{ "type": "Feature", "properties": { "GEOIDFQ": "1400000US69110001500", "NAME": "15", "NAMELSAD": "Census Tract 15" }, "geometry": { "type": "Polygon", "coordinates": [ [ [ 145.7412, 15.1855 ], [ 145.7584, 15.1841 ], [ 145.7701, 15.1637 ], [ 145.7513, 15.1603 ], [ 145.7434, 15.1437 ], [ 145.7201, 15.1567 ], [ 145.7412, 15.1855 ] ] ] } },
{ "type": "Feature", "properties": { "GEOIDFQ": "1400000US69110000400", "NAME": "4", "NAMELSAD": "Census Tract 4" }, "geometry": { "type": "Polygon", "coordinates": [ [ [ 145.7163, 15.2044 ], [ 145.7161, 15.2178 ], [ 145.7243, 15.2125 ], [ 145.7199, 15.194 ], [ 145.7163, 15.2044 ] ] ] } },
{ "type": "Feature", "properties": { "GEOIDFQ": "1400000US69110000600", "NAME": "6", "NAMELSAD": "Census Tract 6" }, "geometry": { "type": "Polygon", "coordinates": [ [ [ 145.7198, 15.2011 ], [ 145.7332, 15.2007 ], [ 145.7301, 15.1766 ], [ 145.7143, 15.1847 ], [ 145.7198, 15.2011 ] ] ] } },
{ "type": "Feature", "properties": { "GEOIDFQ": "1400000US69110000700", "NAME": "7", "NAMELSAD": "Census Tract 7" }, "geometry": { "type": "Polygon", "coordinates": [ [ [ 145.7143, 15.1847 ], [ 145.7301, 15.1766 ], [ 145.7285, 15.1853 ], [ 145.7412, 15.1855 ], [ 145.7214, 15.1527 ], [ 145.709, 15.1669 ], [ 145.7143, 15.1847 ] ] ] } },
{ "type": "Feature", "properties": { "GEOIDFQ": "1400000US69110000800", "NAME": "8", "NAMELSAD": "Census Tract 8" }, "geometry": { "type": "Polygon", "coordinates": [ [ [ 145.7087, 15.1663 ], [ 145.7182, 15.1546 ], [ 145.7136, 15.1491 ], [ 145.6992, 15.1514 ], [ 145.7087, 15.1663 ] ] ] } },
{ "type": "Feature", "properties": { "GEOIDFQ": "1400000US69110000900", "NAME": "9", "NAMELSAD": "Census Tract 9" }, "geometry": { "type": "Polygon", "coordinates": [ [ [ 145.6992, 15.1513 ], [ 145.7122, 15.1497 ], [ 145.7068, 15.1367 ], [ 145.6992, 15.1513 ] ] ] } },
{ "type": "Feature", "properties": { "GEOIDFQ": "1400000US69110001600", "NAME": "16", "NAMELSAD": "Census Tract 16" }, "geometry": { "type": "MultiPolygon", "coordinates": [ [ [ [ 145.7917, 15.1508 ], [ 145.7928, 15.1495 ], [ 145.7904, 15.1499 ], [ 145.7917, 15.1508 ] ] ], [ [ [ 145.7721, 15.1847 ], [ 145.7844, 15.1825 ], [ 145.7976, 15.1667 ], [ 145.7892, 15.1504 ], [ 145.7723, 15.1532 ], [ 145.761, 15.1753 ], [ 145.7721, 15.1847 ] ] ] ] } },
{ "type": "Feature", "properties": { "GEOIDFQ": "1400000US69110001100", "NAME": "11", "NAMELSAD": "Census Tract 11" }, "geometry": { "type": "Polygon", "coordinates": [ [ [ 145.7011, 15.1444 ], [ 145.7124, 15.1302 ], [ 145.7043, 15.1263 ], [ 145.6963, 15.1371 ], [ 145.7011, 15.1444 ] ] ] } },
{ "type": "Feature", "properties": { "GEOIDFQ": "1400000US69110001000", "NAME": "10", "NAMELSAD": "Census Tract 10" }, "geometry": { "type": "Polygon", "coordinates": [ [ [ 145.7185, 15.1548 ], [ 145.7298, 15.1515 ], [ 145.7124, 15.1302 ], [ 145.7066, 15.1366 ], [ 145.7185, 15.1548 ] ] ] } },
{ "type": "Feature", "properties": { "GEOIDFQ": "1400000US69110990000", "NAME": "9900", "NAMELSAD": "Census Tract 9900" }, "geometry": { "type": "Polygon", "coordinates": [ [ [ 145.6483, 15.1387 ], [ 145.6693, 15.162 ], [ 145.687, 15.1974 ], [ 145.6917, 15.247 ], [ 145.7085, 15.2753 ], [ 145.7354, 15.3127 ], [ 145.7818, 15.3483 ], [ 145.8029, 15.3578 ], [ 145.8528, 15.3519 ], [ 145.8963, 15.3087 ], [ 145.9094, 15.2741 ], [ 145.8799, 15.1933 ], [ 145.876, 15.1354 ], [ 145.8598, 15.1238 ], [ 145.8374, 15.1201 ], [ 145.8339, 15.1019 ], [ 145.8027, 15.0756 ], [ 145.7501, 15.0666 ], [ 145.7442, 15.0229 ], [ 145.6426, 15.1069 ], [ 145.5726, 15.125 ], [ 145.6483, 15.1387 ] ], [ [ 145.7082, 15.1058 ], [ 145.7406, 15.1051 ], [ 145.7505, 15.0933 ], [ 145.757, 15.121 ], [ 145.7457, 15.1279 ], [ 145.7414, 15.1408 ], [ 145.7497, 15.1588 ], [ 145.7606, 15.1633 ], [ 145.7746, 15.1515 ], [ 145.7892, 15.1504 ], [ 145.7976, 15.1667 ], [ 145.7781, 15.1893 ], [ 145.7784, 15.2098 ], [ 145.8095, 15.2401 ], [ 145.8107, 15.2582 ], [ 145.8288, 15.2624 ], [ 145.8302, 15.273 ], [ 145.8188, 15.2866 ], [ 145.8096, 15.2896 ], [ 145.7772, 15.253 ], [ 145.7537, 15.2426 ], [ 145.7294, 15.2186 ], [ 145.7234, 15.2225 ], [ 145.7236, 15.2186 ], [ 145.7237, 15.2169 ], [ 145.7209, 15.2174 ], [ 145.721, 15.2197 ], [ 145.717, 15.2194 ], [ 145.713, 15.1785 ], [ 145.6896, 15.1201 ], [ 145.7082, 15.1058 ] ], [ [ 145.7231, 15.2177 ], [ 145.7234, 15.2174 ], [ 145.7236, 15.2186 ], [ 145.7231, 15.2177 ] ], [ [ 145.7131, 15.2398 ], [ 145.7137, 15.2415 ], [ 145.7111, 15.2431 ], [ 145.7131, 15.2398 ] ], [ [ 145.7904, 15.1499 ], [ 145.7928, 15.1495 ], [ 145.7911, 15.151 ], [ 145.7904, 15.1499 ] ], [ [ 145.8133, 15.2569 ], [ 145.814, 15.2568 ], [ 145.8142, 15.258 ], [ 145.8133, 15.2569 ] ] ] } },
{ "type": "Feature", "properties": { "GEOIDFQ": "1400000US69120950102", "NAME": "9501.02", "NAMELSAD": "Census Tract 9501.02" }, "geometry": { "type": "MultiPolygon", "coordinates": [ [ [ [ 145.5451, 14.8552 ], [ 145.5781, 14.8637 ], [ 145.5775, 14.8549 ], [ 145.5647, 14.8447 ], [ 145.5455, 14.8404 ], [ 145.5373, 14.8457 ], [ 145.5451, 14.8552 ] ] ], [ [ [ 145.5337, 14.835 ], [ 145.5327, 14.8338 ], [ 145.5329, 14.8348 ], [ 145.5337, 14.835 ] ] ] ] } },
{ "type": "Feature", "properties": { "GEOIDFQ": "1400000US69120950201", "NAME": "9502.01", "NAMELSAD": "Census Tract 9502.01" }, "geometry": { "type": "Polygon", "coordinates": [ [ [ 145.6414, 14.97 ], [ 145.6314, 14.9708 ], [ 145.6374, 15.0349 ], [ 145.6456, 15.0341 ], [ 145.6738, 15.0065 ], [ 145.6616, 14.9652 ], [ 145.6659, 14.9496 ], [ 145.6546, 14.9459 ], [ 145.6391, 14.9227 ], [ 145.6321, 14.925 ], [ 145.6284, 14.9422 ], [ 145.6414, 14.97 ] ] ] } },
{ "type": "Feature", "properties": { "GEOIDFQ": "1400000US69120950101", "NAME": "9501.01", "NAMELSAD": "Census Tract 9501.01" }, "geometry": { "type": "Polygon", "coordinates": [ [ [ 145.6129, 14.9817 ], [ 145.6324, 14.9809 ], [ 145.6314, 14.9708 ], [ 145.6414, 14.97 ], [ 145.6365, 14.9568 ], [ 145.6212, 14.9588 ], [ 145.6129, 14.9817 ] ] ] } },
{ "type": "Feature", "properties": { "GEOIDFQ": "1400000US69110001400", "NAME": "14", "NAMELSAD": "Census Tract 14" }, "geometry": { "type": "Polygon", "coordinates": [ [ [ 145.7298, 15.1515 ], [ 145.7434, 15.1437 ], [ 145.7481, 15.1257 ], [ 145.7294, 15.1322 ], [ 145.7195, 15.1208 ], [ 145.7124, 15.1302 ], [ 145.7298, 15.1515 ] ] ] } },
{ "type": "Feature", "properties": { "GEOIDFQ": "1400000US69120950202", "NAME": "9502.02", "NAMELSAD": "Census Tract 9502.02" }, "geometry": { "type": "Polygon", "coordinates": [ [ [ 145.5887, 15.0381 ], [ 145.5968, 15.0408 ], [ 145.5964, 15.0533 ], [ 145.6453, 15.1011 ], [ 145.6563, 15.0865 ], [ 145.6589, 15.0581 ], [ 145.6469, 15.0444 ], [ 145.6504, 15.0316 ], [ 145.6374, 15.0349 ], [ 145.6324, 14.9809 ], [ 145.6128, 14.9817 ], [ 145.6047, 14.9924 ], [ 145.5903, 14.9907 ], [ 145.5822, 15.0176 ], [ 145.5887, 15.0381 ] ] ] } }
]
}
