{
"type": "FeatureCollection",
"name": "state_11_tracts_simplified",
"crs": { "type": "name", "properties": { "name": "urn:ogc:def:crs:OGC:1.3:CRS84" } },
"features": [
{ "type": "Feature", "properties": { "GEOIDFQ": "1400000US11001009507", "NAME": "95.07", "NAMELSAD": "Census Tract 95.07" }, "geometry": { "type": "Polygon", "coordinates": [ [ [ -76.9972, 38.9616 ], [ -76.9916, 38.9572 ], [ -77.0003, 38.9553 ], [ -76.9972, 38.9616 ] ] ] } },
{ "type": "Feature", "properties": { "GEOIDFQ": "1400000US11001009508", "NAME": "95.08", "NAMELSAD": "Census Tract 95.08" }, "geometry": { "type": "Polygon", "coordinates": [ [ [ -76.9929, 38.9573 ], [ -76.9857, 38.9526 ], [ -77.002, 38.9511 ], [ -77.0005, 38.9474 ], [ -77.0032, 38.9463 ], [ -77.0091, 38.9531 ], [ -76.9929, 38.9573 ] ] ] } },
{ "type": "Feature", "properties": { "GEOIDFQ": "1400000US11001009509", "NAME": "95.09", "NAMELSAD": "Census Tract 95.09" }, "geometry": { "type": "Polygon", "coordinates": [ [ [ -76.9893, 38.9524 ], [ -76.9889, 38.9463 ], [ -77.0, 38.9463 ], [ -77.002, 38.9511 ], [ -76.9893, 38.9524 ] ] ] } },
{ "type": "Feature", "properties": { "GEOIDFQ": "1400000US11001010602", "NAME": "106.02", "NAMELSAD": "Census Tract 106.02" }, "geometry": { "type": "Polygon", "coordinates": [ [ [ -77.0025, 38.908 ], [ -76.9931, 38.904 ], [ -76.995, 38.9002 ], [ -77.0044, 38.9025 ], [ -77.0025, 38.908 ] ] ] } },
{ "type": "Feature", "properties": { "GEOIDFQ": "1400000US11001000804", "NAME": "8.04", "NAMELSAD": "Census Tract 8.04" }, "geometry": { "type": "Polygon", "coordinates": [ [ [ -77.0877, 38.9358 ], [ -77.0806, 38.9302 ], [ -77.0826, 38.9193 ], [ -77.1009, 38.9112 ], [ -77.1052, 38.9172 ], [ -77.0877, 38.9358 ] ] ] } },
{ "type": "Feature", "properties": { "GEOIDFQ": "1400000US11001003902", "NAME": "39.02", "NAMELSAD": "Census Tract 39.02" }, "geometry": { "type": "Polygon", "coordinates": [ [ [ -77.0434, 38.928 ], [ -77.0411, 38.9252 ], [ -77.0486, 38.9233 ], [ -77.0498, 38.9279 ], [ -77.0434, 38.928 ] ] ] } },
{ "type": "Feature", "properties": { "GEOIDFQ": "1400000US11001003901", "NAME": "39.01", "NAMELSAD": "Census Tract 39.01" }, "geometry": { "type": "Polygon", "coordinates": [ [ [ -77.0412, 38.9272 ], [ -77.0367, 38.9271 ], [ -77.0427, 38.9227 ], [ -77.0412, 38.9272 ] ] ] } },
{ "type": "Feature", "properties": { "GEOIDFQ": "1400000US11001009700", "NAME": "97", "NAMELSAD": "Census Tract 97" }, "geometry": { "type": "Polygon", "coordinates": [ [ [ -76.9895, 38.8335 ], [ -76.9935, 38.8375 ], [ -76.9887, 38.8386 ], [ -76.985, 38.8339 ], [ -76.9949, 38.8292 ], [ -76.9895, 38.8335 ] ] ] } },
{ "type": "Feature", "properties": { "GEOIDFQ": "1400000US11001009801", "NAME": "98.01", "NAMELSAD": "Census Tract 98.01" }, "geometry": { "type": "Polygon", "coordinates": [ [ [ -76.9947, 38.8375 ], [ -76.9895, 38.8335 ], [ -76.9909, 38.8323 ], [ -77.0039, 38.831 ], [ -76.9947, 38.8375 ] ] ] } },
{ "type": "Feature", "properties": { "GEOIDFQ": "1400000US11001002801", "NAME": "28.01", "NAMELSAD": "Census Tract 28.01" }, "geometry": { "type": "Polygon", "coordinates": [ [ [ -77.0364, 38.9374 ], [ -77.0327, 38.9371 ], [ -77.0327, 38.9319 ], [ -77.0364, 38.9374 ] ] ] } },
{ "type": "Feature", "properties": { "GEOIDFQ": "1400000US11001002802", "NAME": "28.02", "NAMELSAD": "Census Tract 28.02" }, "geometry": { "type": "Polygon", "coordinates": [ [ [ -77.0365, 38.9272 ], [ -77.0365, 38.9333 ], [ -77.0324, 38.9266 ], [ -77.0365, 38.9272 ] ] ] } },
{ "type": "Feature", "properties": { "GEOIDFQ": "1400000US11001009804", "NAME": "98.04", "NAMELSAD": "Census Tract 98.04" }, "geometry": { "type": "Polygon", "coordinates": [ [ [ -77.0021, 38.8426 ], [ -76.9942, 38.8437 ], [ -76.9935, 38.8375 ], [ -77.0006, 38.834 ], [ -77.0021, 38.8426 ] ] ] } },
{ "type": "Feature", "properties": { "GEOIDFQ": "1400000US11001001702", "NAME": "17.02", "NAMELSAD": "Census Tract 17.02" }, "geometry": { "type": "Polygon", "coordinates": [ [ [ -77.0186, 38.9784 ], [ -77.0089, 38.9648 ], [ -77.0148, 38.9699 ], [ -77.0253, 38.97 ], [ -77.0186, 38.9784 ] ] ] } },
{ "type": "Feature", "properties": { "GEOIDFQ": "1400000US11001010300", "NAME": "103", "NAMELSAD": "Census Tract 103" }, "geometry": { "type": "Polygon", "coordinates": [ [ [ -77.0264, 38.978 ], [ -77.0266, 38.9845 ], [ -77.0186, 38.9784 ], [ -77.0254, 38.9699 ], [ -77.0364, 38.9731 ], [ -77.0264, 38.978 ] ] ] } },
{ "type": "Feature", "properties": { "GEOIDFQ": "1400000US11001001804", "NAME": "18.04", "NAMELSAD": "Census Tract 18.04" }, "geometry": { "type": "Polygon", "coordinates": [ [ [ -77.0334, 38.9723 ], [ -77.027, 38.9724 ], [ -77.028, 38.9612 ], [ -77.0334, 38.9622 ], [ -77.0334, 38.9723 ] ] ] } },
{ "type": "Feature", "properties": { "GEOIDFQ": "1400000US11001001901", "NAME": "19.01", "NAMELSAD": "Census Tract 19.01" }, "geometry": { "type": "Polygon", "coordinates": [ [ [ -77.0273, 38.9699 ], [ -77.0199, 38.9699 ], [ -77.0199, 38.9587 ], [ -77.028, 38.961 ], [ -77.0273, 38.9699 ] ] ] } },
{ "type": "Feature", "properties": { "GEOIDFQ": "1400000US11001001902", "NAME": "19.02", "NAMELSAD": "Census Tract 19.02" }, "geometry": { "type": "Polygon", "coordinates": [ [ [ -77.0199, 38.9699 ], [ -77.0148, 38.9699 ], [ -77.0093, 38.9602 ], [ -77.0199, 38.9594 ], [ -77.0199, 38.9699 ] ] ] } },
{ "type": "Feature", "properties": { "GEOIDFQ": "1400000US11001007807", "NAME": "78.07", "NAMELSAD": "Census Tract 78.07" }, "geometry": { "type": "Polygon", "coordinates": [ [ [ -76.9236, 38.904 ], [ -76.9134, 38.896 ], [ -76.9242, 38.8958 ], [ -76.9236, 38.904 ] ] ] } },
{ "type": "Feature", "properties": { "GEOIDFQ": "1400000US11001007806", "NAME": "78.06", "NAMELSAD": "Census Tract 78.06" }, "geometry": { "type": "Polygon", "coordinates": [ [ [ -76.9318, 38.9104 ], [ -76.9236, 38.904 ], [ -76.9412, 38.9029 ], [ -76.9318, 38.9104 ] ] ] } },
{ "type": "Feature", "properties": { "GEOIDFQ": "1400000US11001007808", "NAME": "78.08", "NAMELSAD": "Census Tract 78.08" }, "geometry": { "type": "Polygon", "coordinates": [ [ [ -76.9263, 38.8966 ], [ -76.9094, 38.8929 ], [ -76.9133, 38.8898 ], [ -76.928, 38.8899 ], [ -76.9263, 38.8966 ] ] ] } },
{ "type": "Feature", "properties": { "GEOIDFQ": "1400000US11001000902", "NAME": "9.02", "NAMELSAD": "Census Tract 9.02" }, "geometry": { "type": "Polygon", "coordinates": [ [ [ -77.1126, 38.9402 ], [ -77.104, 38.9274 ], [ -77.0932, 38.9326 ], [ -77.0992, 38.9205 ], [ -77.1053, 38.9173 ], [ -77.1198, 38.9343 ], [ -77.1126, 38.9402 ] ] ] } },
{ "type": "Feature", "properties": { "GEOIDFQ": "1400000US11001001500", "NAME": "15", "NAMELSAD": "Census Tract 15" }, "geometry": { "type": "Polygon", "coordinates": [ [ [ -77.0518, 38.9872 ], [ -77.04, 38.9825 ], [ -77.0448, 38.9607 ], [ -77.0684, 38.9658 ], [ -77.0716, 38.9718 ], [ -77.0518, 38.9872 ] ] ] } },
{ "type": "Feature", "properties": { "GEOIDFQ": "1400000US11001009603", "NAME": "96.03", "NAMELSAD": "Census Tract 96.03" }, "geometry": { "type": "Polygon", "coordinates": [ [ [ -76.951, 38.8955 ], [ -76.9376, 38.8899 ], [ -76.9567, 38.8898 ], [ -76.951, 38.8955 ] ] ] } },
{ "type": "Feature", "properties": { "GEOIDFQ": "1400000US11001000501", "NAME": "5.01", "NAMELSAD": "Census Tract 5.01" }, "geometry": { "type": "Polygon", "coordinates": [ [ [ -77.054, 38.9211 ], [ -77.0518, 38.9339 ], [ -77.0448, 38.9268 ], [ -77.0497, 38.9281 ], [ -77.051, 38.9199 ], [ -77.059, 38.9183 ], [ -77.054, 38.9211 ] ] ] } },
{ "type": "Feature", "properties": { "GEOIDFQ": "1400000US11001003302", "NAME": "33.02", "NAMELSAD": "Census Tract 33.02" }, "geometry": { "type": "Polygon", "coordinates": [ [ [ -77.009, 38.9169 ], [ -77.009, 38.9108 ], [ -77.0141, 38.9129 ], [ -77.009, 38.9169 ] ] ] } },
{ "type": "Feature", "properties": { "GEOIDFQ": "1400000US11001008402", "NAME": "84.02", "NAMELSAD": "Census Tract 84.02" }, "geometry": { "type": "Polygon", "coordinates": [ [ [ -76.995, 38.9002 ], [ -76.9833, 38.9002 ], [ -76.995, 38.8954 ], [ -76.995, 38.9002 ] ] ] } },
{ "type": "Feature", "properties": { "GEOIDFQ": "1400000US11001009602", "NAME": "96.02", "NAMELSAD": "Census Tract 96.02" }, "geometry": { "type": "Polygon", "coordinates": [ [ [ -76.9517, 38.9082 ], [ -76.9437, 38.9014 ], [ -76.951, 38.8955 ], [ -76.9622, 38.8995 ], [ -76.9517, 38.9082 ] ] ] } },
{ "type": "Feature", "properties": { "GEOIDFQ": "1400000US11001000802", "NAME": "8.02", "NAMELSAD": "Census Tract 8.02" }, "geometry": { "type": "Polygon", "coordinates": [ [ [ -77.0826, 38.9193 ], [ -77.0792, 38.9025 ], [ -77.0885, 38.9037 ], [ -77.1009, 38.9112 ], [ -77.0826, 38.9193 ] ] ] } },
{ "type": "Feature", "properties": { "GEOIDFQ": "1400000US11001001301", "NAME": "13.01", "NAMELSAD": "Census Tract 13.01" }, "geometry": { "type": "Polygon", "coordinates": [ [ [ -77.0519, 38.9619 ], [ -77.0405, 38.9596 ], [ -77.0497, 38.9438 ], [ -77.0517, 38.9489 ], [ -77.0657, 38.9479 ], [ -77.0694, 38.9543 ], [ -77.0519, 38.9619 ] ] ] } },
{ "type": "Feature", "properties": { "GEOIDFQ": "1400000US11001002001", "NAME": "20.01", "NAMELSAD": "Census Tract 20.01" }, "geometry": { "type": "Polygon", "coordinates": [ [ [ -77.0391, 38.9631 ], [ -77.0285, 38.9613 ], [ -77.0364, 38.9525 ], [ -77.0434, 38.9615 ], [ -77.0391, 38.9631 ] ] ] } },
{ "type": "Feature", "properties": { "GEOIDFQ": "1400000US11001007708", "NAME": "77.08", "NAMELSAD": "Census Tract 77.08" }, "geometry": { "type": "Polygon", "coordinates": [ [ [ -76.9634, 38.8899 ], [ -76.953, 38.8898 ], [ -76.9589, 38.8817 ], [ -76.9715, 38.8806 ], [ -76.9634, 38.8899 ] ] ] } },
{ "type": "Feature", "properties": { "GEOIDFQ": "1400000US11001001402", "NAME": "14.02", "NAMELSAD": "Census Tract 14.02" }, "geometry": { "type": "Polygon", "coordinates": [ [ [ -77.0591, 38.9659 ], [ -77.056, 38.9588 ], [ -77.0694, 38.9543 ], [ -77.0733, 38.961 ], [ -77.0591, 38.9659 ] ] ] } },
{ "type": "Feature", "properties": { "GEOIDFQ": "1400000US11001004702", "NAME": "47.02", "NAMELSAD": "Census Tract 47.02" }, "geometry": { "type": "Polygon", "coordinates": [ [ [ -77.0091, 38.9025 ], [ -77.0091, 38.8975 ], [ -77.0219, 38.9021 ], [ -77.0091, 38.9025 ] ] ] } },
{ "type": "Feature", "properties": { "GEOIDFQ": "1400000US11001007601", "NAME": "76.01", "NAMELSAD": "Census Tract 76.01" }, "geometry": { "type": "Polygon", "coordinates": [ [ [ -76.978, 38.8769 ], [ -76.9707, 38.8682 ], [ -76.9844, 38.8666 ], [ -76.9897, 38.8716 ], [ -76.978, 38.8769 ] ] ] } },
{ "type": "Feature", "properties": { "GEOIDFQ": "1400000US11001007504", "NAME": "75.04", "NAMELSAD": "Census Tract 75.04" }, "geometry": { "type": "Polygon", "coordinates": [ [ [ -76.9832, 38.8664 ], [ -76.9733, 38.8633 ], [ -76.9754, 38.8563 ], [ -76.988, 38.8603 ], [ -76.9832, 38.8664 ] ] ] } },
{ "type": "Feature", "properties": { "GEOIDFQ": "1400000US11001000903", "NAME": "9.03", "NAMELSAD": "Census Tract 9.03" }, "geometry": { "type": "Polygon", "coordinates": [ [ [ -77.096, 38.9359 ], [ -77.0968, 38.9458 ], [ -77.0854, 38.938 ], [ -77.0932, 38.9326 ], [ -77.101, 38.9352 ], [ -77.096, 38.9359 ] ] ] } },
{ "type": "Feature", "properties": { "GEOIDFQ": "1400000US11001001004", "NAME": "10.04", "NAMELSAD": "Census Tract 10.04" }, "geometry": { "type": "Polygon", "coordinates": [ [ [ -77.0886, 38.9432 ], [ -77.0912, 38.9565 ], [ -77.0857, 38.9608 ], [ -77.0785, 38.9458 ], [ -77.0856, 38.9382 ], [ -77.0886, 38.9432 ] ] ] } },
{ "type": "Feature", "properties": { "GEOIDFQ": "1400000US11001000102", "NAME": "1.02", "NAMELSAD": "Census Tract 1.02" }, "geometry": { "type": "Polygon", "coordinates": [ [ [ -77.0627, 38.9021 ], [ -77.0688, 38.917 ], [ -77.0591, 38.9183 ], [ -77.0512, 38.9108 ], [ -77.0571, 38.9105 ], [ -77.0559, 38.893 ], [ -77.0647, 38.8919 ], [ -77.0693, 38.9006 ], [ -77.0627, 38.9021 ] ] ] } },
{ "type": "Feature", "properties": { "GEOIDFQ": "1400000US11001003701", "NAME": "37.01", "NAMELSAD": "Census Tract 37.01" }, "geometry": { "type": "Polygon", "coordinates": [ [ [ -77.0365, 38.9232 ], [ -77.0321, 38.9236 ], [ -77.0319, 38.9201 ], [ -77.0365, 38.9232 ] ] ] } },
{ "type": "Feature", "properties": { "GEOIDFQ": "1400000US11001002504", "NAME": "25.04", "NAMELSAD": "Census Tract 25.04" }, "geometry": { "type": "Polygon", "coordinates": [ [ [ -77.0364, 38.9419 ], [ -77.0297, 38.9419 ], [ -77.0297, 38.9363 ], [ -77.0364, 38.9419 ] ] ] } },
{ "type": "Feature", "properties": { "GEOIDFQ": "1400000US11001000101", "NAME": "1.01", "NAMELSAD": "Census Tract 1.01" }, "geometry": { "type": "Polygon", "coordinates": [ [ [ -77.0512, 38.9108 ], [ -77.0501, 38.9095 ], [ -77.057, 38.9052 ], [ -77.0512, 38.9108 ] ] ] } },
{ "type": "Feature", "properties": { "GEOIDFQ": "1400000US11001000703", "NAME": "7.03", "NAMELSAD": "Census Tract 7.03" }, "geometry": { "type": "Polygon", "coordinates": [ [ [ -77.0799, 38.9321 ], [ -77.0801, 38.9337 ], [ -77.077, 38.9262 ], [ -77.0799, 38.9321 ] ] ] } },
{ "type": "Feature", "properties": { "GEOIDFQ": "1400000US11001002703", "NAME": "27.03", "NAMELSAD": "Census Tract 27.03" }, "geometry": { "type": "Polygon", "coordinates": [ [ [ -77.0381, 38.9359 ], [ -77.0365, 38.935 ], [ -77.0365, 38.9317 ], [ -77.0442, 38.933 ], [ -77.0381, 38.9359 ] ] ] } },
{ "type": "Feature", "properties": { "GEOIDFQ": "1400000US11001004401", "NAME": "44.01", "NAMELSAD": "Census Tract 44.01" }, "geometry": { "type": "Polygon", "coordinates": [ [ [ -77.026, 38.9206 ], [ -77.024, 38.917 ], [ -77.032, 38.917 ], [ -77.026, 38.9206 ] ] ] } },
{ "type": "Feature", "properties": { "GEOIDFQ": "1400000US11001001003", "NAME": "10.03", "NAMELSAD": "Census Tract 10.03" }, "geometry": { "type": "Polygon", "coordinates": [ [ [ -77.0912, 38.9565 ], [ -77.0886, 38.9432 ], [ -77.0931, 38.9432 ], [ -77.1006, 38.9492 ], [ -77.0912, 38.9565 ] ] ] } },
{ "type": "Feature", "properties": { "GEOIDFQ": "1400000US11001003802", "NAME": "38.02", "NAMELSAD": "Census Tract 38.02" }, "geometry": { "type": "Polygon", "coordinates": [ [ [ -77.0399, 38.9245 ], [ -77.0365, 38.9265 ], [ -77.0408, 38.9198 ], [ -77.0399, 38.9245 ] ] ] } },
{ "type": "Feature", "properties": { "GEOIDFQ": "1400000US11001003702", "NAME": "37.02", "NAMELSAD": "Census Tract 37.02" }, "geometry": { "type": "Polygon", "coordinates": [ [ [ -77.0365, 38.9263 ], [ -77.0324, 38.9266 ], [ -77.0321, 38.9236 ], [ -77.0365, 38.9263 ] ] ] } },
{ "type": "Feature", "properties": { "GEOIDFQ": "1400000US11001005202", "NAME": "52.02", "NAMELSAD": "Census Tract 52.02" }, "geometry": { "type": "Polygon", "coordinates": [ [ [ -77.0365, 38.9141 ], [ -77.032, 38.9141 ], [ -77.032, 38.9096 ], [ -77.0365, 38.9083 ], [ -77.0365, 38.9141 ] ] ] } },
{ "type": "Feature", "properties": { "GEOIDFQ": "1400000US11001000803", "NAME": "8.03", "NAMELSAD": "Census Tract 8.03" }, "geometry": { "type": "Polygon", "coordinates": [ [ [ -77.0801, 38.9337 ], [ -77.0806, 38.9302 ], [ -77.084, 38.9303 ], [ -77.0877, 38.9358 ], [ -77.0801, 38.9337 ] ] ] } },
{ "type": "Feature", "properties": { "GEOIDFQ": "1400000US11001003801", "NAME": "38.01", "NAMELSAD": "Census Tract 38.01" }, "geometry": { "type": "Polygon", "coordinates": [ [ [ -77.0408, 38.9198 ], [ -77.0365, 38.9227 ], [ -77.0417, 38.9168 ], [ -77.0408, 38.9198 ] ] ] } },
{ "type": "Feature", "properties": { "GEOIDFQ": "1400000US11001005503", "NAME": "55.03", "NAMELSAD": "Census Tract 55.03" }, "geometry": { "type": "Polygon", "coordinates": [ [ [ -77.0536, 38.9084 ], [ -77.0488, 38.9096 ], [ -77.0514, 38.903 ], [ -77.0536, 38.9084 ] ] ] } },
{ "type": "Feature", "properties": { "GEOIDFQ": "1400000US11001005801", "NAME": "58.01", "NAMELSAD": "Census Tract 58.01" }, "geometry": { "type": "Polygon", "coordinates": [ [ [ -77.0219, 38.8948 ], [ -77.0219, 38.9021 ], [ -77.0189, 38.8961 ], [ -77.0219, 38.8948 ] ] ] } },
{ "type": "Feature", "properties": { "GEOIDFQ": "1400000US11001005302", "NAME": "53.02", "NAMELSAD": "Census Tract 53.02" }, "geometry": { "type": "Polygon", "coordinates": [ [ [ -77.0393, 38.9141 ], [ -77.0365, 38.9141 ], [ -77.0365, 38.9111 ], [ -77.0393, 38.9141 ] ] ] } },
{ "type": "Feature", "properties": { "GEOIDFQ": "1400000US11001004402", "NAME": "44.02", "NAMELSAD": "Census Tract 44.02" }, "geometry": { "type": "Polygon", "coordinates": [ [ [ -77.024, 38.917 ], [ -77.0219, 38.9141 ], [ -77.032, 38.9141 ], [ -77.024, 38.917 ] ] ] } },
{ "type": "Feature", "properties": { "GEOIDFQ": "1400000US11001010900", "NAME": "109", "NAMELSAD": "Census Tract 109" }, "geometry": { "type": "Polygon", "coordinates": [ [ [ -77.0391, 38.8196 ], [ -77.0012, 38.8213 ], [ -77.039, 38.7916 ], [ -77.0391, 38.8196 ] ] ] } },
{ "type": "Feature", "properties": { "GEOIDFQ": "1400000US11001010400", "NAME": "104", "NAMELSAD": "Census Tract 104" }, "geometry": { "type": "Polygon", "coordinates": [ [ [ -77.008, 38.8501 ], [ -77.0028, 38.8605 ], [ -76.985, 38.849 ], [ -77.0077, 38.8357 ], [ -77.008, 38.8501 ] ] ] } },
{ "type": "Feature", "properties": { "GEOIDFQ": "1400000US11001009903", "NAME": "99.03", "NAMELSAD": "Census Tract 99.03" }, "geometry": { "type": "Polygon", "coordinates": [ [ [ -76.9194, 38.8898 ], [ -76.9133, 38.8898 ], [ -76.9186, 38.8857 ], [ -76.9301, 38.8898 ], [ -76.9194, 38.8898 ] ] ] } },
{ "type": "Feature", "properties": { "GEOIDFQ": "1400000US11001009904", "NAME": "99.04", "NAMELSAD": "Census Tract 99.04" }, "geometry": { "type": "Polygon", "coordinates": [ [ [ -76.9276, 38.8887 ], [ -76.9293, 38.8807 ], [ -76.933, 38.8815 ], [ -76.9358, 38.886 ], [ -76.9276, 38.8887 ] ] ] } },
{ "type": "Feature", "properties": { "GEOIDFQ": "1400000US11001009905", "NAME": "99.05", "NAMELSAD": "Census Tract 99.05" }, "geometry": { "type": "Polygon", "coordinates": [ [ [ -76.9276, 38.8887 ], [ -76.9186, 38.8857 ], [ -76.9242, 38.8813 ], [ -76.9293, 38.8808 ], [ -76.9276, 38.8887 ] ] ] } },
{ "type": "Feature", "properties": { "GEOIDFQ": "1400000US11001009906", "NAME": "99.06", "NAMELSAD": "Census Tract 99.06" }, "geometry": { "type": "Polygon", "coordinates": [ [ [ -76.9381, 38.8898 ], [ -76.932, 38.8898 ], [ -76.9329, 38.8856 ], [ -76.9406, 38.8866 ], [ -76.9381, 38.8898 ] ] ] } },
{ "type": "Feature", "properties": { "GEOIDFQ": "1400000US11001002102", "NAME": "21.02", "NAMELSAD": "Census Tract 21.02" }, "geometry": { "type": "Polygon", "coordinates": [ [ [ -77.0093, 38.9602 ], [ -77.009, 38.9524 ], [ -77.0197, 38.9521 ], [ -77.02, 38.9582 ], [ -77.0093, 38.9602 ] ] ] } },
{ "type": "Feature", "properties": { "GEOIDFQ": "1400000US11001002201", "NAME": "22.01", "NAMELSAD": "Census Tract 22.01" }, "geometry": { "type": "Polygon", "coordinates": [ [ [ -77.0197, 38.9521 ], [ -77.0194, 38.9463 ], [ -77.0266, 38.9461 ], [ -77.0274, 38.9519 ], [ -77.0197, 38.9521 ] ] ] } },
{ "type": "Feature", "properties": { "GEOIDFQ": "1400000US11001002202", "NAME": "22.02", "NAMELSAD": "Census Tract 22.02" }, "geometry": { "type": "Polygon", "coordinates": [ [ [ -77.009, 38.9524 ], [ -77.0092, 38.9457 ], [ -77.0194, 38.9463 ], [ -77.0197, 38.9521 ], [ -77.009, 38.9524 ] ] ] } },
{ "type": "Feature", "properties": { "GEOIDFQ": "1400000US11001002301", "NAME": "23.01", "NAMELSAD": "Census Tract 23.01" }, "geometry": { "type": "Polygon", "coordinates": [ [ [ -77.0194, 38.9463 ], [ -77.0115, 38.9443 ], [ -77.019, 38.9374 ], [ -77.0194, 38.9463 ] ] ] } },
{ "type": "Feature", "properties": { "GEOIDFQ": "1400000US11001006400", "NAME": "64", "NAMELSAD": "Census Tract 64" }, "geometry": { "type": "Polygon", "coordinates": [ [ [ -77.0139, 38.8765 ], [ -77.0091, 38.8765 ], [ -77.0055, 38.8687 ], [ -77.0153, 38.8621 ], [ -77.0139, 38.8765 ] ] ] } },
{ "type": "Feature", "properties": { "GEOIDFQ": "1400000US11001006500", "NAME": "65", "NAMELSAD": "Census Tract 65" }, "geometry": { "type": "Polygon", "coordinates": [ [ [ -77.0035, 38.8876 ], [ -76.9962, 38.8848 ], [ -77.0021, 38.8805 ], [ -77.0091, 38.8819 ], [ -77.0035, 38.8876 ] ] ] } },
{ "type": "Feature", "properties": { "GEOIDFQ": "1400000US11001006600", "NAME": "66", "NAMELSAD": "Census Tract 66" }, "geometry": { "type": "Polygon", "coordinates": [ [ [ -76.995, 38.8898 ], [ -76.995, 38.8846 ], [ -77.002, 38.8872 ], [ -76.995, 38.8898 ] ] ] } },
{ "type": "Feature", "properties": { "GEOIDFQ": "1400000US11001006700", "NAME": "67", "NAMELSAD": "Census Tract 67" }, "geometry": { "type": "Polygon", "coordinates": [ [ [ -76.995, 38.8898 ], [ -76.9836, 38.8898 ], [ -76.9837, 38.887 ], [ -76.995, 38.8898 ] ] ] } },
{ "type": "Feature", "properties": { "GEOIDFQ": "1400000US11001006802", "NAME": "68.02", "NAMELSAD": "Census Tract 68.02" }, "geometry": { "type": "Polygon", "coordinates": [ [ [ -76.9836, 38.8804 ], [ -76.9837, 38.8871 ], [ -76.9773, 38.8846 ], [ -76.9836, 38.8804 ] ] ] } },
{ "type": "Feature", "properties": { "GEOIDFQ": "1400000US11001007408", "NAME": "74.08", "NAMELSAD": "Census Tract 74.08" }, "geometry": { "type": "Polygon", "coordinates": [ [ [ -76.9718, 38.8569 ], [ -76.9635, 38.8507 ], [ -76.9688, 38.8493 ], [ -76.9759, 38.8536 ], [ -76.9718, 38.8569 ] ] ] } },
{ "type": "Feature", "properties": { "GEOIDFQ": "1400000US11001007409", "NAME": "74.09", "NAMELSAD": "Census Tract 74.09" }, "geometry": { "type": "Polygon", "coordinates": [ [ [ -76.9712, 38.848 ], [ -76.9666, 38.8483 ], [ -76.9775, 38.8418 ], [ -76.9806, 38.8454 ], [ -76.9712, 38.848 ] ] ] } },
{ "type": "Feature", "properties": { "GEOIDFQ": "1400000US11001007809", "NAME": "78.09", "NAMELSAD": "Census Tract 78.09" }, "geometry": { "type": "Polygon", "coordinates": [ [ [ -76.9412, 38.9029 ], [ -76.9236, 38.904 ], [ -76.9251, 38.8997 ], [ -76.9412, 38.9029 ] ] ] } },
{ "type": "Feature", "properties": { "GEOIDFQ": "1400000US11001007903", "NAME": "79.03", "NAMELSAD": "Census Tract 79.03" }, "geometry": { "type": "Polygon", "coordinates": [ [ [ -76.9762, 38.8989 ], [ -76.9695, 38.8978 ], [ -76.9752, 38.8933 ], [ -76.9762, 38.8989 ] ] ] } },
{ "type": "Feature", "properties": { "GEOIDFQ": "1400000US11001008001", "NAME": "80.01", "NAMELSAD": "Census Tract 80.01" }, "geometry": { "type": "Polygon", "coordinates": [ [ [ -76.9836, 38.9 ], [ -76.9836, 38.8935 ], [ -76.9902, 38.8936 ], [ -76.9836, 38.9 ] ] ] } },
{ "type": "Feature", "properties": { "GEOIDFQ": "1400000US11001004600", "NAME": "46", "NAMELSAD": "Census Tract 46" }, "geometry": { "type": "Polygon", "coordinates": [ [ [ -77.009, 38.9108 ], [ -77.009, 38.9072 ], [ -77.0148, 38.9054 ], [ -77.0181, 38.9146 ], [ -77.009, 38.9108 ] ] ] } },
{ "type": "Feature", "properties": { "GEOIDFQ": "1400000US11001004801", "NAME": "48.01", "NAMELSAD": "Census Tract 48.01" }, "geometry": { "type": "Polygon", "coordinates": [ [ [ -77.0219, 38.9163 ], [ -77.0159, 38.9086 ], [ -77.0219, 38.9086 ], [ -77.0219, 38.9163 ] ] ] } },
{ "type": "Feature", "properties": { "GEOIDFQ": "1400000US11001004802", "NAME": "48.02", "NAMELSAD": "Census Tract 48.02" }, "geometry": { "type": "Polygon", "coordinates": [ [ [ -77.0219, 38.9086 ], [ -77.0159, 38.9086 ], [ -77.0148, 38.9054 ], [ -77.0219, 38.9032 ], [ -77.0219, 38.9086 ] ] ] } },
{ "type": "Feature", "properties": { "GEOIDFQ": "1400000US11001004902", "NAME": "49.02", "NAMELSAD": "Census Tract 49.02" }, "geometry": { "type": "Polygon", "coordinates": [ [ [ -77.027, 38.9086 ], [ -77.0219, 38.9086 ], [ -77.0219, 38.9029 ], [ -77.027, 38.9086 ] ] ] } },
{ "type": "Feature", "properties": { "GEOIDFQ": "1400000US11001007401", "NAME": "74.01", "NAMELSAD": "Census Tract 74.01" }, "geometry": { "type": "Polygon", "coordinates": [ [ [ -76.9901, 38.8713 ], [ -76.9923, 38.8535 ], [ -77.003, 38.8601 ], [ -77.0054, 38.8688 ], [ -76.9901, 38.8713 ] ] ] } },
{ "type": "Feature", "properties": { "GEOIDFQ": "1400000US11001007403", "NAME": "74.03", "NAMELSAD": "Census Tract 74.03" }, "geometry": { "type": "Polygon", "coordinates": [ [ [ -76.9738, 38.8511 ], [ -76.9655, 38.8491 ], [ -76.9807, 38.8454 ], [ -76.9738, 38.8511 ] ] ] } },
{ "type": "Feature", "properties": { "GEOIDFQ": "1400000US11001008100", "NAME": "81", "NAMELSAD": "Census Tract 81" }, "geometry": { "type": "Polygon", "coordinates": [ [ [ -76.995, 38.8954 ], [ -76.9902, 38.8973 ], [ -76.9902, 38.8904 ], [ -76.995, 38.8954 ] ] ] } },
{ "type": "Feature", "properties": { "GEOIDFQ": "1400000US11001008200", "NAME": "82", "NAMELSAD": "Census Tract 82" }, "geometry": { "type": "Polygon", "coordinates": [ [ [ -77.0035, 38.8952 ], [ -76.995, 38.8898 ], [ -77.0035, 38.8898 ], [ -77.0035, 38.8952 ] ] ] } },
{ "type": "Feature", "properties": { "GEOIDFQ": "1400000US11001008302", "NAME": "83.02", "NAMELSAD": "Census Tract 83.02" }, "geometry": { "type": "Polygon", "coordinates": [ [ [ -76.9984, 38.9002 ], [ -76.995, 38.9002 ], [ -76.995, 38.8917 ], [ -76.9984, 38.9002 ] ] ] } },
{ "type": "Feature", "properties": { "GEOIDFQ": "1400000US11001008410", "NAME": "84.10", "NAMELSAD": "Census Tract 84.10" }, "geometry": { "type": "Polygon", "coordinates": [ [ [ -76.9931, 38.904 ], [ -76.9841, 38.9002 ], [ -76.995, 38.9002 ], [ -76.9931, 38.904 ] ] ] } },
{ "type": "Feature", "properties": { "GEOIDFQ": "1400000US11001008701", "NAME": "87.01", "NAMELSAD": "Census Tract 87.01" }, "geometry": { "type": "Polygon", "coordinates": [ [ [ -77.009, 38.9169 ], [ -77.0035, 38.9187 ], [ -77.0053, 38.9092 ], [ -77.009, 38.9169 ] ] ] } },
{ "type": "Feature", "properties": { "GEOIDFQ": "1400000US11001008002", "NAME": "80.02", "NAMELSAD": "Census Tract 80.02" }, "geometry": { "type": "Polygon", "coordinates": [ [ [ -76.9902, 38.8936 ], [ -76.9739, 38.8914 ], [ -76.9773, 38.8898 ], [ -76.9915, 38.8898 ], [ -76.9902, 38.8936 ] ] ] } },
{ "type": "Feature", "properties": { "GEOIDFQ": "1400000US11001008702", "NAME": "87.02", "NAMELSAD": "Census Tract 87.02" }, "geometry": { "type": "Polygon", "coordinates": [ [ [ -77.0035, 38.9187 ], [ -76.996, 38.9214 ], [ -77.0025, 38.908 ], [ -77.0035, 38.9187 ] ] ] } },
{ "type": "Feature", "properties": { "GEOIDFQ": "1400000US11001004001", "NAME": "40.01", "NAMELSAD": "Census Tract 40.01" }, "geometry": { "type": "Polygon", "coordinates": [ [ [ -77.0428, 38.923 ], [ -77.0463, 38.916 ], [ -77.0476, 38.9184 ], [ -77.0428, 38.923 ] ] ] } },
{ "type": "Feature", "properties": { "GEOIDFQ": "1400000US11001004002", "NAME": "40.02", "NAMELSAD": "Census Tract 40.02" }, "geometry": { "type": "Polygon", "coordinates": [ [ [ -77.0432, 38.9222 ], [ -77.0427, 38.9227 ], [ -77.0417, 38.9168 ], [ -77.0463, 38.9163 ], [ -77.0432, 38.9222 ] ] ] } },
{ "type": "Feature", "properties": { "GEOIDFQ": "1400000US11001003600", "NAME": "36", "NAMELSAD": "Census Tract 36" }, "geometry": { "type": "Polygon", "coordinates": [ [ [ -77.027, 38.9267 ], [ -77.027, 38.9208 ], [ -77.0319, 38.9201 ], [ -77.0324, 38.9266 ], [ -77.027, 38.9267 ] ] ] } },
{ "type": "Feature", "properties": { "GEOIDFQ": "1400000US11001004201", "NAME": "42.01", "NAMELSAD": "Census Tract 42.01" }, "geometry": { "type": "Polygon", "coordinates": [ [ [ -77.0417, 38.9168 ], [ -77.0365, 38.9191 ], [ -77.0365, 38.9141 ], [ -77.0417, 38.9168 ] ] ] } },
{ "type": "Feature", "properties": { "GEOIDFQ": "1400000US11001004202", "NAME": "42.02", "NAMELSAD": "Census Tract 42.02" }, "geometry": { "type": "Polygon", "coordinates": [ [ [ -77.0417, 38.9168 ], [ -77.0393, 38.9141 ], [ -77.043, 38.9101 ], [ -77.0417, 38.9168 ] ] ] } },
{ "type": "Feature", "properties": { "GEOIDFQ": "1400000US11001007407", "NAME": "74.07", "NAMELSAD": "Census Tract 74.07" }, "geometry": { "type": "Polygon", "coordinates": [ [ [ -76.9912, 38.8633 ], [ -76.9746, 38.855 ], [ -76.9833, 38.8534 ], [ -76.9912, 38.8633 ] ] ] } },
{ "type": "Feature", "properties": { "GEOIDFQ": "1400000US11001000904", "NAME": "9.04", "NAMELSAD": "Census Tract 9.04" }, "geometry": { "type": "Polygon", "coordinates": [ [ [ -77.1006, 38.9492 ], [ -77.0968, 38.9458 ], [ -77.1031, 38.9277 ], [ -77.1126, 38.9402 ], [ -77.1006, 38.9492 ] ] ] } },
{ "type": "Feature", "properties": { "GEOIDFQ": "1400000US11001000704", "NAME": "7.04", "NAMELSAD": "Census Tract 7.04" }, "geometry": { "type": "Polygon", "coordinates": [ [ [ -77.0724, 38.9335 ], [ -77.0739, 38.9256 ], [ -77.077, 38.9257 ], [ -77.0797, 38.9335 ], [ -77.0724, 38.9335 ] ] ] } },
{ "type": "Feature", "properties": { "GEOIDFQ": "1400000US11001001304", "NAME": "13.04", "NAMELSAD": "Census Tract 13.04" }, "geometry": { "type": "Polygon", "coordinates": [ [ [ -77.0528, 38.9408 ], [ -77.048, 38.9351 ], [ -77.0557, 38.9308 ], [ -77.0616, 38.941 ], [ -77.0528, 38.9408 ] ] ] } },
{ "type": "Feature", "properties": { "GEOIDFQ": "1400000US11001001303", "NAME": "13.03", "NAMELSAD": "Census Tract 13.03" }, "geometry": { "type": "Polygon", "coordinates": [ [ [ -77.0517, 38.9489 ], [ -77.0515, 38.9397 ], [ -77.0617, 38.941 ], [ -77.0657, 38.9479 ], [ -77.0517, 38.9489 ] ] ] } },
{ "type": "Feature", "properties": { "GEOIDFQ": "1400000US11001002704", "NAME": "27.04", "NAMELSAD": "Census Tract 27.04" }, "geometry": { "type": "Polygon", "coordinates": [ [ [ -77.0455, 38.9359 ], [ -77.0364, 38.9382 ], [ -77.0365, 38.935 ], [ -77.0504, 38.9333 ], [ -77.0455, 38.9359 ] ] ] } },
{ "type": "Feature", "properties": { "GEOIDFQ": "1400000US11001002503", "NAME": "25.03", "NAMELSAD": "Census Tract 25.03" }, "geometry": { "type": "Polygon", "coordinates": [ [ [ -77.0297, 38.9419 ], [ -77.0255, 38.9419 ], [ -77.0252, 38.9351 ], [ -77.0297, 38.9419 ] ] ] } },
{ "type": "Feature", "properties": { "GEOIDFQ": "1400000US11001005601", "NAME": "56.01", "NAMELSAD": "Census Tract 56.01" }, "geometry": { "type": "Polygon", "coordinates": [ [ [ -77.0507, 38.9027 ], [ -77.0501, 38.8996 ], [ -77.0533, 38.8996 ], [ -77.0576, 38.9026 ], [ -77.0507, 38.9027 ] ] ] } },
{ "type": "Feature", "properties": { "GEOIDFQ": "1400000US11001005501", "NAME": "55.01", "NAMELSAD": "Census Tract 55.01" }, "geometry": { "type": "Polygon", "coordinates": [ [ [ -77.0514, 38.9072 ], [ -77.0457, 38.9072 ], [ -77.0496, 38.9022 ], [ -77.0514, 38.9072 ] ] ] } },
{ "type": "Feature", "properties": { "GEOIDFQ": "1400000US11001005602", "NAME": "56.02", "NAMELSAD": "Census Tract 56.02" }, "geometry": { "type": "Polygon", "coordinates": [ [ [ -77.0547, 38.9025 ], [ -77.0501, 38.896 ], [ -77.0567, 38.8977 ], [ -77.0547, 38.9025 ] ] ] } },
{ "type": "Feature", "properties": { "GEOIDFQ": "1400000US11001005502", "NAME": "55.02", "NAMELSAD": "Census Tract 55.02" }, "geometry": { "type": "Polygon", "coordinates": [ [ [ -77.0488, 38.9115 ], [ -77.0461, 38.9144 ], [ -77.0427, 38.9094 ], [ -77.0488, 38.9115 ] ] ] } },
{ "type": "Feature", "properties": { "GEOIDFQ": "1400000US11001005303", "NAME": "53.03", "NAMELSAD": "Census Tract 53.03" }, "geometry": { "type": "Polygon", "coordinates": [ [ [ -77.0365, 38.9111 ], [ -77.0362, 38.9072 ], [ -77.0427, 38.9094 ], [ -77.0365, 38.9111 ] ] ] } },
{ "type": "Feature", "properties": { "GEOIDFQ": "1400000US11001010202", "NAME": "102.02", "NAMELSAD": "Census Tract 102.02" }, "geometry": { "type": "Polygon", "coordinates": [ [ [ -77.032, 38.8876 ], [ -77.0175, 38.8876 ], [ -77.0219, 38.8765 ], [ -77.032, 38.8876 ] ] ] } },
{ "type": "Feature", "properties": { "GEOIDFQ": "1400000US11001980000", "NAME": "9800", "NAMELSAD": "Census Tract 9800" }, "geometry": { "type": "Polygon", "coordinates": [ [ [ -77.0531, 38.8987 ], [ -77.0395, 38.8921 ], [ -77.0351, 38.9002 ], [ -77.0164, 38.8918 ], [ -77.0035, 38.8973 ], [ -77.002, 38.8876 ], [ -77.0091, 38.8839 ], [ -77.032, 38.8876 ], [ -77.0203, 38.87 ], [ -77.0202, 38.8573 ], [ -77.0322, 38.8507 ], [ -77.0428, 38.8634 ], [ -77.0402, 38.8709 ], [ -77.0459, 38.8756 ], [ -77.0503, 38.8717 ], [ -77.0647, 38.8919 ], [ -77.0531, 38.8987 ] ] ] } },
{ "type": "Feature", "properties": { "GEOIDFQ": "1400000US11001007202", "NAME": "72.02", "NAMELSAD": "Census Tract 72.02" }, "geometry": { "type": "Polygon", "coordinates": [ [ [ -77.0057, 38.8808 ], [ -77.0042, 38.8765 ], [ -77.0091, 38.8765 ], [ -77.0057, 38.8808 ] ] ] } },
{ "type": "Feature", "properties": { "GEOIDFQ": "1400000US11001005203", "NAME": "52.03", "NAMELSAD": "Census Tract 52.03" }, "geometry": { "type": "Polygon", "coordinates": [ [ [ -77.0346, 38.9096 ], [ -77.032, 38.9096 ], [ -77.0316, 38.9054 ], [ -77.0346, 38.9096 ] ] ] } },
{ "type": "Feature", "properties": { "GEOIDFQ": "1400000US11001005003", "NAME": "50.03", "NAMELSAD": "Census Tract 50.03" }, "geometry": { "type": "Polygon", "coordinates": [ [ [ -77.0303, 38.9097 ], [ -77.0296, 38.9048 ], [ -77.0315, 38.9055 ], [ -77.0303, 38.9097 ] ] ] } },
{ "type": "Feature", "properties": { "GEOIDFQ": "1400000US11001004703", "NAME": "47.03", "NAMELSAD": "Census Tract 47.03" }, "geometry": { "type": "Polygon", "coordinates": [ [ [ -77.0148, 38.9054 ], [ -77.0137, 38.9025 ], [ -77.0219, 38.9025 ], [ -77.0148, 38.9054 ] ] ] } },
{ "type": "Feature", "properties": { "GEOIDFQ": "1400000US11001005004", "NAME": "50.04", "NAMELSAD": "Census Tract 50.04" }, "geometry": { "type": "Polygon", "coordinates": [ [ [ -77.027, 38.9096 ], [ -77.027, 38.9039 ], [ -77.0296, 38.9048 ], [ -77.027, 38.9096 ] ] ] } },
{ "type": "Feature", "properties": { "GEOIDFQ": "1400000US11001007201", "NAME": "72.01", "NAMELSAD": "Census Tract 72.01" }, "geometry": { "type": "Polygon", "coordinates": [ [ [ -76.9916, 38.8765 ], [ -76.9901, 38.8713 ], [ -77.0055, 38.8687 ], [ -77.0091, 38.8756 ], [ -76.9916, 38.8765 ] ] ] } },
{ "type": "Feature", "properties": { "GEOIDFQ": "1400000US11001005802", "NAME": "58.02", "NAMELSAD": "Census Tract 58.02" }, "geometry": { "type": "Polygon", "coordinates": [ [ [ -77.0335, 38.8988 ], [ -77.0219, 38.9029 ], [ -77.0219, 38.8933 ], [ -77.0335, 38.8988 ] ] ] } },
{ "type": "Feature", "properties": { "GEOIDFQ": "1400000US11001004704", "NAME": "47.04", "NAMELSAD": "Census Tract 47.04" }, "geometry": { "type": "Polygon", "coordinates": [ [ [ -77.009, 38.9072 ], [ -77.0091, 38.9025 ], [ -77.0137, 38.9025 ], [ -77.009, 38.9072 ] ] ] } },
{ "type": "Feature", "properties": { "GEOIDFQ": "1400000US11001010201", "NAME": "102.01", "NAMELSAD": "Census Tract 102.01" }, "geometry": { "type": "Polygon", "coordinates": [ [ [ -77.0152, 38.8793 ], [ -77.0152, 38.8765 ], [ -77.0202, 38.8765 ], [ -77.0152, 38.8793 ] ] ] } },
{ "type": "Feature", "properties": { "GEOIDFQ": "1400000US11001010603", "NAME": "106.03", "NAMELSAD": "Census Tract 106.03" }, "geometry": { "type": "Polygon", "coordinates": [ [ [ -77.0091, 38.9056 ], [ -77.0034, 38.9056 ], [ -77.0035, 38.8973 ], [ -77.0091, 38.8979 ], [ -77.0091, 38.9056 ] ] ] } },
{ "type": "Feature", "properties": { "GEOIDFQ": "1400000US11001010601", "NAME": "106.01", "NAMELSAD": "Census Tract 106.01" }, "geometry": { "type": "Polygon", "coordinates": [ [ [ -77.009, 38.9108 ], [ -77.0025, 38.908 ], [ -77.0034, 38.9056 ], [ -77.009, 38.9108 ] ] ] } },
{ "type": "Feature", "properties": { "GEOIDFQ": "1400000US11001011002", "NAME": "110.02", "NAMELSAD": "Census Tract 110.02" }, "geometry": { "type": "Polygon", "coordinates": [ [ [ -77.0143, 38.872 ], [ -77.0202, 38.8573 ], [ -77.0203, 38.87 ], [ -77.0238, 38.8764 ], [ -77.0143, 38.872 ] ] ] } },
{ "type": "Feature", "properties": { "GEOIDFQ": "1400000US11001011001", "NAME": "110.01", "NAMELSAD": "Census Tract 110.01" }, "geometry": { "type": "Polygon", "coordinates": [ [ [ -77.0139, 38.8765 ], [ -77.0137, 38.872 ], [ -77.0176, 38.8721 ], [ -77.0139, 38.8765 ] ] ] } },
{ "type": "Feature", "properties": { "GEOIDFQ": "1400000US11001010500", "NAME": "105", "NAMELSAD": "Census Tract 105" }, "geometry": { "type": "Polygon", "coordinates": [ [ [ -77.0138, 38.8876 ], [ -77.0091, 38.8765 ], [ -77.0152, 38.8765 ], [ -77.0138, 38.8876 ] ] ] } },
{ "type": "Feature", "properties": { "GEOIDFQ": "1400000US11001007203", "NAME": "72.03", "NAMELSAD": "Census Tract 72.03" }, "geometry": { "type": "Polygon", "coordinates": [ [ [ -76.9919, 38.8779 ], [ -76.9916, 38.8765 ], [ -77.0042, 38.8765 ], [ -77.0057, 38.8808 ], [ -76.9919, 38.8779 ] ] ] } },
{ "type": "Feature", "properties": { "GEOIDFQ": "1400000US11001009510", "NAME": "95.10", "NAMELSAD": "Census Tract 95.10" }, "geometry": { "type": "Polygon", "coordinates": [ [ [ -77.0052, 38.9519 ], [ -76.9976, 38.9407 ], [ -77.0051, 38.9408 ], [ -77.0109, 38.9446 ], [ -77.0052, 38.9519 ] ] ] } },
{ "type": "Feature", "properties": { "GEOIDFQ": "1400000US11001009511", "NAME": "95.11", "NAMELSAD": "Census Tract 95.11" }, "geometry": { "type": "Polygon", "coordinates": [ [ [ -76.9976, 38.9407 ], [ -76.9948, 38.9337 ], [ -77.001, 38.9312 ], [ -77.0084, 38.9414 ], [ -76.9976, 38.9407 ] ] ] } },
{ "type": "Feature", "properties": { "GEOIDFQ": "1400000US11001009400", "NAME": "94", "NAMELSAD": "Census Tract 94" }, "geometry": { "type": "Polygon", "coordinates": [ [ [ -76.9778, 38.9464 ], [ -76.9634, 38.9352 ], [ -76.9791, 38.9277 ], [ -76.9778, 38.9464 ] ] ] } },
{ "type": "Feature", "properties": { "GEOIDFQ": "1400000US11001009503", "NAME": "95.03", "NAMELSAD": "Census Tract 95.03" }, "geometry": { "type": "Polygon", "coordinates": [ [ [ -76.9778, 38.9464 ], [ -76.9798, 38.9351 ], [ -76.9888, 38.9346 ], [ -76.9895, 38.9503 ], [ -76.9778, 38.9464 ] ] ] } },
{ "type": "Feature", "properties": { "GEOIDFQ": "1400000US11001009504", "NAME": "95.04", "NAMELSAD": "Census Tract 95.04" }, "geometry": { "type": "Polygon", "coordinates": [ [ [ -76.9889, 38.9463 ], [ -76.9888, 38.9346 ], [ -76.9948, 38.9337 ], [ -76.9991, 38.9463 ], [ -76.9889, 38.9463 ] ] ] } },
{ "type": "Feature", "properties": { "GEOIDFQ": "1400000US11001009505", "NAME": "95.05", "NAMELSAD": "Census Tract 95.05" }, "geometry": { "type": "Polygon", "coordinates": [ [ [ -77.0085, 38.9704 ], [ -76.9972, 38.9616 ], [ -77.009, 38.9548 ], [ -77.0085, 38.9704 ] ] ] } },
{ "type": "Feature", "properties": { "GEOIDFQ": "1400000US11001009907", "NAME": "99.07", "NAMELSAD": "Census Tract 99.07" }, "geometry": { "type": "Polygon", "coordinates": [ [ [ -76.9406, 38.8865 ], [ -76.933, 38.8815 ], [ -76.9449, 38.8791 ], [ -76.9406, 38.8865 ] ] ] } },
{ "type": "Feature", "properties": { "GEOIDFQ": "1400000US11001002501", "NAME": "25.01", "NAMELSAD": "Census Tract 25.01" }, "geometry": { "type": "Polygon", "coordinates": [ [ [ -77.0317, 38.9482 ], [ -77.0255, 38.9419 ], [ -77.0364, 38.9419 ], [ -77.0317, 38.9482 ] ] ] } },
{ "type": "Feature", "properties": { "GEOIDFQ": "1400000US11001006801", "NAME": "68.01", "NAMELSAD": "Census Tract 68.01" }, "geometry": { "type": "Polygon", "coordinates": [ [ [ -76.9836, 38.8898 ], [ -76.9773, 38.8898 ], [ -76.9773, 38.8846 ], [ -76.9836, 38.8898 ] ] ] } },
{ "type": "Feature", "properties": { "GEOIDFQ": "1400000US11001008803", "NAME": "88.03", "NAMELSAD": "Census Tract 88.03" }, "geometry": { "type": "Polygon", "coordinates": [ [ [ -77.0017, 38.91 ], [ -76.9782, 38.9173 ], [ -76.9931, 38.904 ], [ -77.0017, 38.91 ] ] ] } },
{ "type": "Feature", "properties": { "GEOIDFQ": "1400000US11001008804", "NAME": "88.04", "NAMELSAD": "Census Tract 88.04" }, "geometry": { "type": "Polygon", "coordinates": [ [ [ -76.9784, 38.917 ], [ -76.9782, 38.9173 ], [ -76.9809, 38.904 ], [ -76.9888, 38.9078 ], [ -76.9784, 38.917 ] ] ] } },
{ "type": "Feature", "properties": { "GEOIDFQ": "1400000US11001008903", "NAME": "89.03", "NAMELSAD": "Census Tract 89.03" }, "geometry": { "type": "Polygon", "coordinates": [ [ [ -76.9788, 38.9073 ], [ -76.9702, 38.9056 ], [ -76.9823, 38.9005 ], [ -76.9788, 38.9073 ] ] ] } },
{ "type": "Feature", "properties": { "GEOIDFQ": "1400000US11001008904", "NAME": "89.04", "NAMELSAD": "Census Tract 89.04" }, "geometry": { "type": "Polygon", "coordinates": [ [ [ -76.9725, 38.9046 ], [ -76.9702, 38.9034 ], [ -76.9704, 38.8979 ], [ -76.9833, 38.9003 ], [ -76.9725, 38.9046 ] ] ] } },
{ "type": "Feature", "properties": { "GEOIDFQ": "1400000US11001008802", "NAME": "88.02", "NAMELSAD": "Census Tract 88.02" }, "geometry": { "type": "Polygon", "coordinates": [ [ [ -76.9888, 38.9078 ], [ -76.9809, 38.904 ], [ -76.9834, 38.9002 ], [ -76.9931, 38.904 ], [ -76.9888, 38.9078 ] ] ] } },
{ "type": "Feature", "properties": { "GEOIDFQ": "1400000US11001009810", "NAME": "98.10", "NAMELSAD": "Census Tract 98.10" }, "geometry": { "type": "Polygon", "coordinates": [ [ [ -77.002, 38.831 ], [ -77.0022, 38.822 ], [ -77.0073, 38.8259 ], [ -77.0077, 38.8314 ], [ -77.002, 38.831 ] ] ] } },
{ "type": "Feature", "properties": { "GEOIDFQ": "1400000US11001010800", "NAME": "108", "NAMELSAD": "Census Tract 108" }, "geometry": { "type": "Polygon", "coordinates": [ [ [ -77.0395, 38.8988 ], [ -77.0395, 38.8921 ], [ -77.0501, 38.896 ], [ -77.0395, 38.8988 ] ] ] } },
{ "type": "Feature", "properties": { "GEOIDFQ": "1400000US11001010700", "NAME": "107", "NAMELSAD": "Census Tract 107" }, "geometry": { "type": "Polygon", "coordinates": [ [ [ -77.0439, 38.9091 ], [ -77.0365, 38.907 ], [ -77.0379, 38.8987 ], [ -77.0497, 38.903 ], [ -77.0439, 38.9091 ] ] ] } },
{ "type": "Feature", "properties": { "GEOIDFQ": "1400000US11001009604", "NAME": "96.04", "NAMELSAD": "Census Tract 96.04" }, "geometry": { "type": "Polygon", "coordinates": [ [ [ -76.962, 38.8971 ], [ -76.951, 38.8955 ], [ -76.9567, 38.8898 ], [ -76.9633, 38.8903 ], [ -76.962, 38.8971 ] ] ] } },
{ "type": "Feature", "properties": { "GEOIDFQ": "1400000US11001000201", "NAME": "2.01", "NAMELSAD": "Census Tract 2.01" }, "geometry": { "type": "Polygon", "coordinates": [ [ [ -77.0692, 38.9116 ], [ -77.0715, 38.9051 ], [ -77.0783, 38.906 ], [ -77.0793, 38.9127 ], [ -77.0692, 38.9116 ] ] ] } },
{ "type": "Feature", "properties": { "GEOIDFQ": "1400000US11001000300", "NAME": "3", "NAMELSAD": "Census Tract 3" }, "geometry": { "type": "Polygon", "coordinates": [ [ [ -77.0729, 38.9225 ], [ -77.0692, 38.9127 ], [ -77.079, 38.9127 ], [ -77.0826, 38.9212 ], [ -77.0729, 38.9225 ] ] ] } },
{ "type": "Feature", "properties": { "GEOIDFQ": "1400000US11001000400", "NAME": "4", "NAMELSAD": "Census Tract 4" }, "geometry": { "type": "Polygon", "coordinates": [ [ [ -77.0664, 38.9315 ], [ -77.054, 38.9211 ], [ -77.0688, 38.917 ], [ -77.0732, 38.9276 ], [ -77.0664, 38.9315 ] ] ] } },
{ "type": "Feature", "properties": { "GEOIDFQ": "1400000US11001000502", "NAME": "5.02", "NAMELSAD": "Census Tract 5.02" }, "geometry": { "type": "Polygon", "coordinates": [ [ [ -77.0568, 38.9326 ], [ -77.0527, 38.9255 ], [ -77.0577, 38.9232 ], [ -77.0664, 38.931 ], [ -77.0568, 38.9326 ] ] ] } },
{ "type": "Feature", "properties": { "GEOIDFQ": "1400000US11001009802", "NAME": "98.02", "NAMELSAD": "Census Tract 98.02" }, "geometry": { "type": "Polygon", "coordinates": [ [ [ -76.9993, 38.8321 ], [ -76.9909, 38.8323 ], [ -76.9949, 38.8292 ], [ -76.9993, 38.8321 ] ] ] } },
{ "type": "Feature", "properties": { "GEOIDFQ": "1400000US11001009803", "NAME": "98.03", "NAMELSAD": "Census Tract 98.03" }, "geometry": { "type": "Polygon", "coordinates": [ [ [ -77.0042, 38.8404 ], [ -77.0006, 38.8419 ], [ -77.0006, 38.834 ], [ -77.0084, 38.8336 ], [ -77.0042, 38.8404 ] ] ] } },
{ "type": "Feature", "properties": { "GEOIDFQ": "1400000US11001002002", "NAME": "20.02", "NAMELSAD": "Census Tract 20.02" }, "geometry": { "type": "Polygon", "coordinates": [ [ [ -77.0364, 38.9525 ], [ -77.0281, 38.9613 ], [ -77.0266, 38.9461 ], [ -77.0364, 38.9525 ] ] ] } },
{ "type": "Feature", "properties": { "GEOIDFQ": "1400000US11001002101", "NAME": "21.01", "NAMELSAD": "Census Tract 21.01" }, "geometry": { "type": "Polygon", "coordinates": [ [ [ -77.0199, 38.9587 ], [ -77.0197, 38.9521 ], [ -77.0274, 38.9519 ], [ -77.0282, 38.9581 ], [ -77.0199, 38.9587 ] ] ] } },
{ "type": "Feature", "properties": { "GEOIDFQ": "1400000US11001007301", "NAME": "73.01", "NAMELSAD": "Census Tract 73.01" }, "geometry": { "type": "Polygon", "coordinates": [ [ [ -77.0346, 38.84 ], [ -77.0322, 38.8507 ], [ -77.0023, 38.8674 ], [ -77.0181, 38.8208 ], [ -77.0397, 38.8199 ], [ -77.0379, 38.8305 ], [ -77.048, 38.8413 ], [ -77.0346, 38.84 ] ] ] } },
{ "type": "Feature", "properties": { "GEOIDFQ": "1400000US11001002702", "NAME": "27.02", "NAMELSAD": "Census Tract 27.02" }, "geometry": { "type": "Polygon", "coordinates": [ [ [ -77.0365, 38.9317 ], [ -77.0365, 38.9272 ], [ -77.0445, 38.9281 ], [ -77.0508, 38.933 ], [ -77.0365, 38.9317 ] ] ] } },
{ "type": "Feature", "properties": { "GEOIDFQ": "1400000US11001008301", "NAME": "83.01", "NAMELSAD": "Census Tract 83.01" }, "geometry": { "type": "Polygon", "coordinates": [ [ [ -76.9984, 38.9002 ], [ -76.9984, 38.8931 ], [ -77.0035, 38.8952 ], [ -76.9984, 38.9002 ] ] ] } },
{ "type": "Feature", "properties": { "GEOIDFQ": "1400000US11001001600", "NAME": "16", "NAMELSAD": "Census Tract 16" }, "geometry": { "type": "Polygon", "coordinates": [ [ [ -77.0409, 38.9958 ], [ -77.0264, 38.978 ], [ -77.0399, 38.9728 ], [ -77.0446, 38.98 ], [ -77.04, 38.9825 ], [ -77.0516, 38.9871 ], [ -77.0409, 38.9958 ] ] ] } },
{ "type": "Feature", "properties": { "GEOIDFQ": "1400000US11001003500", "NAME": "35", "NAMELSAD": "Census Tract 35" }, "geometry": { "type": "Polygon", "coordinates": [ [ [ -77.023, 38.9272 ], [ -77.0219, 38.9163 ], [ -77.027, 38.9208 ], [ -77.023, 38.9272 ] ] ] } },
{ "type": "Feature", "properties": { "GEOIDFQ": "1400000US11001009204", "NAME": "92.04", "NAMELSAD": "Census Tract 92.04" }, "geometry": { "type": "Polygon", "coordinates": [ [ [ -77.0024, 38.9256 ], [ -76.9945, 38.9256 ], [ -77.0006, 38.9198 ], [ -77.0024, 38.9256 ] ] ] } },
{ "type": "Feature", "properties": { "GEOIDFQ": "1400000US11001007304", "NAME": "73.04", "NAMELSAD": "Census Tract 73.04" }, "geometry": { "type": "Polygon", "coordinates": [ [ [ -76.9813, 38.8466 ], [ -76.9731, 38.8432 ], [ -76.985, 38.8339 ], [ -76.9942, 38.8437 ], [ -76.9813, 38.8466 ] ] ] } },
{ "type": "Feature", "properties": { "GEOIDFQ": "1400000US11001003000", "NAME": "30", "NAMELSAD": "Census Tract 30" }, "geometry": { "type": "Polygon", "coordinates": [ [ [ -77.0283, 38.9318 ], [ -77.027, 38.9267 ], [ -77.0324, 38.9266 ], [ -77.0283, 38.9318 ] ] ] } },
{ "type": "Feature", "properties": { "GEOIDFQ": "1400000US11001002900", "NAME": "29", "NAMELSAD": "Census Tract 29" }, "geometry": { "type": "Polygon", "coordinates": [ [ [ -77.0327, 38.9371 ], [ -77.0252, 38.9351 ], [ -77.0277, 38.932 ], [ -77.0327, 38.9371 ] ] ] } },
{ "type": "Feature", "properties": { "GEOIDFQ": "1400000US11001003100", "NAME": "31", "NAMELSAD": "Census Tract 31" }, "geometry": { "type": "Polygon", "coordinates": [ [ [ -77.0243, 38.9363 ], [ -77.023, 38.9272 ], [ -77.027, 38.9267 ], [ -77.0243, 38.9363 ] ] ] } },
{ "type": "Feature", "properties": { "GEOIDFQ": "1400000US11001003200", "NAME": "32", "NAMELSAD": "Census Tract 32" }, "geometry": { "type": "Polygon", "coordinates": [ [ [ -77.019, 38.9374 ], [ -77.0178, 38.9279 ], [ -77.023, 38.9272 ], [ -77.0243, 38.9363 ], [ -77.019, 38.9374 ] ] ] } },
{ "type": "Feature", "properties": { "GEOIDFQ": "1400000US11001003400", "NAME": "34", "NAMELSAD": "Census Tract 34" }, "geometry": { "type": "Polygon", "coordinates": [ [ [ -77.0121, 38.9263 ], [ -77.0141, 38.9129 ], [ -77.0219, 38.9163 ], [ -77.023, 38.9272 ], [ -77.0121, 38.9263 ] ] ] } },
{ "type": "Feature", "properties": { "GEOIDFQ": "1400000US11001007603", "NAME": "76.03", "NAMELSAD": "Census Tract 76.03" }, "geometry": { "type": "Polygon", "coordinates": [ [ [ -76.9513, 38.8656 ], [ -76.9468, 38.8637 ], [ -76.962, 38.8519 ], [ -76.9682, 38.8589 ], [ -76.9513, 38.8656 ] ] ] } },
{ "type": "Feature", "properties": { "GEOIDFQ": "1400000US11001000600", "NAME": "6", "NAMELSAD": "Census Tract 6" }, "geometry": { "type": "Polygon", "coordinates": [ [ [ -77.0617, 38.941 ], [ -77.0568, 38.9326 ], [ -77.0726, 38.9319 ], [ -77.0765, 38.9422 ], [ -77.0617, 38.941 ] ] ] } },
{ "type": "Feature", "properties": { "GEOIDFQ": "1400000US11001000702", "NAME": "7.02", "NAMELSAD": "Census Tract 7.02" }, "geometry": { "type": "Polygon", "coordinates": [ [ [ -77.0817, 38.9263 ], [ -77.0732, 38.9262 ], [ -77.0729, 38.9225 ], [ -77.0825, 38.9217 ], [ -77.0817, 38.9263 ] ] ] } },
{ "type": "Feature", "properties": { "GEOIDFQ": "1400000US11001007404", "NAME": "74.04", "NAMELSAD": "Census Tract 74.04" }, "geometry": { "type": "Polygon", "coordinates": [ [ [ -76.9781, 38.8542 ], [ -76.9728, 38.8512 ], [ -76.9891, 38.8446 ], [ -76.985, 38.849 ], [ -76.9923, 38.8535 ], [ -76.9781, 38.8542 ] ] ] } },
{ "type": "Feature", "properties": { "GEOIDFQ": "1400000US11001005001", "NAME": "50.01", "NAMELSAD": "Census Tract 50.01" }, "geometry": { "type": "Polygon", "coordinates": [ [ [ -77.032, 38.9141 ], [ -77.027, 38.9141 ], [ -77.027, 38.9096 ], [ -77.032, 38.9141 ] ] ] } },
{ "type": "Feature", "properties": { "GEOIDFQ": "1400000US11001009201", "NAME": "92.01", "NAMELSAD": "Census Tract 92.01" }, "geometry": { "type": "Polygon", "coordinates": [ [ [ -77.003, 38.9301 ], [ -76.9948, 38.9337 ], [ -76.9945, 38.9256 ], [ -77.0063, 38.927 ], [ -77.003, 38.9301 ] ] ] } },
{ "type": "Feature", "properties": { "GEOIDFQ": "1400000US11001009203", "NAME": "92.03", "NAMELSAD": "Census Tract 92.03" }, "geometry": { "type": "Polygon", "coordinates": [ [ [ -77.0089, 38.9267 ], [ -77.0063, 38.927 ], [ -77.0006, 38.9198 ], [ -77.009, 38.9181 ], [ -77.0089, 38.9267 ] ] ] } },
{ "type": "Feature", "properties": { "GEOIDFQ": "1400000US11001009301", "NAME": "93.01", "NAMELSAD": "Census Tract 93.01" }, "geometry": { "type": "Polygon", "coordinates": [ [ [ -76.9798, 38.9351 ], [ -76.9791, 38.9277 ], [ -76.9942, 38.9274 ], [ -76.9948, 38.9337 ], [ -76.9798, 38.9351 ] ] ] } },
{ "type": "Feature", "properties": { "GEOIDFQ": "1400000US11001009302", "NAME": "93.02", "NAMELSAD": "Census Tract 93.02" }, "geometry": { "type": "Polygon", "coordinates": [ [ [ -76.9942, 38.9274 ], [ -76.986, 38.9278 ], [ -76.9856, 38.9246 ], [ -76.996, 38.9214 ], [ -76.9942, 38.9274 ] ] ] } },
{ "type": "Feature", "properties": { "GEOIDFQ": "1400000US11001009807", "NAME": "98.07", "NAMELSAD": "Census Tract 98.07" }, "geometry": { "type": "Polygon", "coordinates": [ [ [ -77.0168, 38.8299 ], [ -77.0092, 38.8396 ], [ -77.006, 38.8241 ], [ -77.0174, 38.8239 ], [ -77.0168, 38.8299 ] ] ] } },
{ "type": "Feature", "properties": { "GEOIDFQ": "1400000US11001007502", "NAME": "75.02", "NAMELSAD": "Census Tract 75.02" }, "geometry": { "type": "Polygon", "coordinates": [ [ [ -76.9681, 38.8602 ], [ -76.9635, 38.8507 ], [ -76.9752, 38.8565 ], [ -76.9749, 38.8617 ], [ -76.9681, 38.8602 ] ] ] } },
{ "type": "Feature", "properties": { "GEOIDFQ": "1400000US11001007503", "NAME": "75.03", "NAMELSAD": "Census Tract 75.03" }, "geometry": { "type": "Polygon", "coordinates": [ [ [ -76.9832, 38.8664 ], [ -76.9828, 38.8614 ], [ -76.988, 38.8602 ], [ -76.9926, 38.865 ], [ -76.9832, 38.8664 ] ] ] } },
{ "type": "Feature", "properties": { "GEOIDFQ": "1400000US11001001100", "NAME": "11", "NAMELSAD": "Census Tract 11" }, "geometry": { "type": "Polygon", "coordinates": [ [ [ -77.0772, 38.9672 ], [ -77.0694, 38.9543 ], [ -77.0785, 38.9466 ], [ -77.0857, 38.9608 ], [ -77.0772, 38.9672 ] ] ] } },
{ "type": "Feature", "properties": { "GEOIDFQ": "1400000US11001001200", "NAME": "12", "NAMELSAD": "Census Tract 12" }, "geometry": { "type": "Polygon", "coordinates": [ [ [ -77.0694, 38.9543 ], [ -77.0617, 38.941 ], [ -77.0765, 38.9422 ], [ -77.0694, 38.9543 ] ] ] } },
{ "type": "Feature", "properties": { "GEOIDFQ": "1400000US11001001401", "NAME": "14.01", "NAMELSAD": "Census Tract 14.01" }, "geometry": { "type": "Polygon", "coordinates": [ [ [ -77.0716, 38.9718 ], [ -77.062, 38.9658 ], [ -77.0733, 38.961 ], [ -77.0774, 38.9673 ], [ -77.0716, 38.9718 ] ] ] } },
{ "type": "Feature", "properties": { "GEOIDFQ": "1400000US11001011100", "NAME": "111", "NAMELSAD": "Census Tract 111" }, "geometry": { "type": "Polygon", "coordinates": [ [ [ -76.9634, 38.9352 ], [ -76.9578, 38.9307 ], [ -76.9652, 38.9253 ], [ -76.9565, 38.9176 ], [ -76.9436, 38.917 ], [ -76.9536, 38.9144 ], [ -76.962, 38.8971 ], [ -76.9788, 38.9073 ], [ -76.9791, 38.9277 ], [ -76.9634, 38.9352 ] ] ] } },
{ "type": "Feature", "properties": { "GEOIDFQ": "1400000US11001009000", "NAME": "90", "NAMELSAD": "Census Tract 90" }, "geometry": { "type": "Polygon", "coordinates": [ [ [ -76.9578, 38.9307 ], [ -76.9419, 38.9186 ], [ -76.9565, 38.9176 ], [ -76.9652, 38.9253 ], [ -76.9578, 38.9307 ] ] ] } },
{ "type": "Feature", "properties": { "GEOIDFQ": "1400000US11001009102", "NAME": "91.02", "NAMELSAD": "Census Tract 91.02" }, "geometry": { "type": "Polygon", "coordinates": [ [ [ -76.996, 38.9214 ], [ -76.9791, 38.9277 ], [ -76.9782, 38.9173 ], [ -77.0015, 38.9104 ], [ -76.996, 38.9214 ] ] ] } },
{ "type": "Feature", "properties": { "GEOIDFQ": "1400000US11001009811", "NAME": "98.11", "NAMELSAD": "Census Tract 98.11" }, "geometry": { "type": "Polygon", "coordinates": [ [ [ -77.002, 38.831 ], [ -76.9911, 38.8291 ], [ -77.0012, 38.8213 ], [ -77.002, 38.831 ] ] ] } },
{ "type": "Feature", "properties": { "GEOIDFQ": "1400000US11001001002", "NAME": "10.02", "NAMELSAD": "Census Tract 10.02" }, "geometry": { "type": "Polygon", "coordinates": [ [ [ -77.0785, 38.9458 ], [ -77.0724, 38.9335 ], [ -77.0798, 38.9334 ], [ -77.0856, 38.9382 ], [ -77.0785, 38.9458 ] ] ] } },
{ "type": "Feature", "properties": { "GEOIDFQ": "1400000US11001007703", "NAME": "77.03", "NAMELSAD": "Census Tract 77.03" }, "geometry": { "type": "Polygon", "coordinates": [ [ [ -76.953, 38.8898 ], [ -76.9379, 38.8899 ], [ -76.945, 38.8811 ], [ -76.9574, 38.8838 ], [ -76.953, 38.8898 ] ] ] } },
{ "type": "Feature", "properties": { "GEOIDFQ": "1400000US11001007707", "NAME": "77.07", "NAMELSAD": "Census Tract 77.07" }, "geometry": { "type": "Polygon", "coordinates": [ [ [ -76.9326, 38.8816 ], [ -76.9241, 38.8814 ], [ -76.935, 38.8729 ], [ -76.9449, 38.8791 ], [ -76.9326, 38.8816 ] ] ] } },
{ "type": "Feature", "properties": { "GEOIDFQ": "1400000US11001007709", "NAME": "77.09", "NAMELSAD": "Census Tract 77.09" }, "geometry": { "type": "Polygon", "coordinates": [ [ [ -76.9677, 38.8815 ], [ -76.9589, 38.8817 ], [ -76.9648, 38.8711 ], [ -76.978, 38.8769 ], [ -76.9677, 38.8815 ] ] ] } },
{ "type": "Feature", "properties": { "GEOIDFQ": "1400000US11001007803", "NAME": "78.03", "NAMELSAD": "Census Tract 78.03" }, "geometry": { "type": "Polygon", "coordinates": [ [ [ -76.9392, 38.9006 ], [ -76.9349, 38.8898 ], [ -76.951, 38.8955 ], [ -76.9392, 38.9006 ] ] ] } },
{ "type": "Feature", "properties": { "GEOIDFQ": "1400000US11001007804", "NAME": "78.04", "NAMELSAD": "Census Tract 78.04" }, "geometry": { "type": "Polygon", "coordinates": [ [ [ -76.9251, 38.8997 ], [ -76.928, 38.8898 ], [ -76.9349, 38.8898 ], [ -76.9392, 38.8994 ], [ -76.9251, 38.8997 ] ] ] } },
{ "type": "Feature", "properties": { "GEOIDFQ": "1400000US11001009902", "NAME": "99.02", "NAMELSAD": "Census Tract 99.02" }, "geometry": { "type": "Polygon", "coordinates": [ [ [ -76.9496, 38.8683 ], [ -76.9458, 38.8809 ], [ -76.935, 38.8729 ], [ -76.9468, 38.8637 ], [ -76.9496, 38.8683 ] ] ] } },
{ "type": "Feature", "properties": { "GEOIDFQ": "1400000US11001002600", "NAME": "26", "NAMELSAD": "Census Tract 26" }, "geometry": { "type": "Polygon", "coordinates": [ [ [ -77.0441, 38.9478 ], [ -77.0403, 38.9605 ], [ -77.0364, 38.9382 ], [ -77.0521, 38.938 ], [ -77.0441, 38.9478 ] ] ] } },
{ "type": "Feature", "properties": { "GEOIDFQ": "1400000US11001009601", "NAME": "96.01", "NAMELSAD": "Census Tract 96.01" }, "geometry": { "type": "Polygon", "coordinates": [ [ [ -76.9419, 38.9186 ], [ -76.9318, 38.9104 ], [ -76.9437, 38.9014 ], [ -76.951, 38.9082 ], [ -76.9579, 38.9063 ], [ -76.9419, 38.9186 ] ] ] } },
{ "type": "Feature", "properties": { "GEOIDFQ": "1400000US11001000202", "NAME": "2.02", "NAMELSAD": "Census Tract 2.02" }, "geometry": { "type": "Polygon", "coordinates": [ [ [ -77.0715, 38.9051 ], [ -77.0694, 38.9177 ], [ -77.0628, 38.9011 ], [ -77.0799, 38.9051 ], [ -77.0715, 38.9051 ] ] ] } },
{ "type": "Feature", "properties": { "GEOIDFQ": "1400000US11001004300", "NAME": "43", "NAMELSAD": "Census Tract 43" }, "geometry": { "type": "Polygon", "coordinates": [ [ [ -77.0365, 38.9191 ], [ -77.0319, 38.9201 ], [ -77.032, 38.9141 ], [ -77.0365, 38.9191 ] ] ] } },
{ "type": "Feature", "properties": { "GEOIDFQ": "1400000US11001006804", "NAME": "68.04", "NAMELSAD": "Census Tract 68.04" }, "geometry": { "type": "Polygon", "coordinates": [ [ [ -76.9746, 38.8946 ], [ -76.962, 38.8971 ], [ -76.9727, 38.879 ], [ -76.9815, 38.8789 ], [ -76.9746, 38.8946 ] ] ] } },
{ "type": "Feature", "properties": { "GEOIDFQ": "1400000US11001004100", "NAME": "41", "NAMELSAD": "Census Tract 41" }, "geometry": { "type": "Polygon", "coordinates": [ [ [ -77.0502, 38.9212 ], [ -77.0461, 38.9144 ], [ -77.0501, 38.9096 ], [ -77.0588, 38.9158 ], [ -77.0502, 38.9212 ] ] ] } },
{ "type": "Feature", "properties": { "GEOIDFQ": "1400000US11001010100", "NAME": "101", "NAMELSAD": "Census Tract 101" }, "geometry": { "type": "Polygon", "coordinates": [ [ [ -77.0362, 38.9071 ], [ -77.0239, 38.9029 ], [ -77.0336, 38.8988 ], [ -77.0362, 38.9071 ] ] ] } },
{ "type": "Feature", "properties": { "GEOIDFQ": "1400000US11001004901", "NAME": "49.01", "NAMELSAD": "Census Tract 49.01" }, "geometry": { "type": "Polygon", "coordinates": [ [ [ -77.027, 38.9141 ], [ -77.0219, 38.9141 ], [ -77.0219, 38.9086 ], [ -77.027, 38.9141 ] ] ] } },
{ "type": "Feature", "properties": { "GEOIDFQ": "1400000US11001005900", "NAME": "59", "NAMELSAD": "Census Tract 59" }, "geometry": { "type": "Polygon", "coordinates": [ [ [ -77.0189, 38.9011 ], [ -77.0091, 38.8975 ], [ -77.0132, 38.8921 ], [ -77.0199, 38.8936 ], [ -77.0189, 38.9011 ] ] ] } },
{ "type": "Feature", "properties": { "GEOIDFQ": "1400000US11001009901", "NAME": "99.01", "NAMELSAD": "Census Tract 99.01" }, "geometry": { "type": "Polygon", "coordinates": [ [ [ -76.9575, 38.8836 ], [ -76.9467, 38.8828 ], [ -76.953, 38.8663 ], [ -76.9648, 38.8711 ], [ -76.9575, 38.8836 ] ] ] } },
{ "type": "Feature", "properties": { "GEOIDFQ": "1400000US11001007901", "NAME": "79.01", "NAMELSAD": "Census Tract 79.01" }, "geometry": { "type": "Polygon", "coordinates": [ [ [ -76.9762, 38.8989 ], [ -76.9773, 38.8933 ], [ -76.9836, 38.8935 ], [ -76.9762, 38.8989 ] ] ] } },
{ "type": "Feature", "properties": { "GEOIDFQ": "1400000US11001001803", "NAME": "18.03", "NAMELSAD": "Census Tract 18.03" }, "geometry": { "type": "Polygon", "coordinates": [ [ [ -77.0443, 38.971 ], [ -77.0334, 38.9723 ], [ -77.0334, 38.962 ], [ -77.0476, 38.9648 ], [ -77.0443, 38.971 ] ] ] } },
{ "type": "Feature", "properties": { "GEOIDFQ": "1400000US11001007406", "NAME": "74.06", "NAMELSAD": "Census Tract 74.06" }, "geometry": { "type": "Polygon", "coordinates": [ [ [ -76.9885, 38.8584 ], [ -76.9833, 38.8534 ], [ -76.9914, 38.8535 ], [ -76.9885, 38.8584 ] ] ] } },
{ "type": "Feature", "properties": { "GEOIDFQ": "1400000US11001003301", "NAME": "33.01", "NAMELSAD": "Census Tract 33.01" }, "geometry": { "type": "Polygon", "coordinates": [ [ [ -77.0121, 38.9263 ], [ -77.0089, 38.9267 ], [ -77.009, 38.9169 ], [ -77.0143, 38.9151 ], [ -77.0121, 38.9263 ] ] ] } },
{ "type": "Feature", "properties": { "GEOIDFQ": "1400000US11001007604", "NAME": "76.04", "NAMELSAD": "Census Tract 76.04" }, "geometry": { "type": "Polygon", "coordinates": [ [ [ -76.9698, 38.8731 ], [ -76.9513, 38.8656 ], [ -76.9682, 38.8589 ], [ -76.9698, 38.8731 ] ] ] } },
{ "type": "Feature", "properties": { "GEOIDFQ": "1400000US11001007605", "NAME": "76.05", "NAMELSAD": "Census Tract 76.05" }, "geometry": { "type": "Polygon", "coordinates": [ [ [ -76.9707, 38.8682 ], [ -76.9688, 38.8607 ], [ -76.9779, 38.8654 ], [ -76.9844, 38.8667 ], [ -76.9707, 38.8682 ] ] ] } },
{ "type": "Feature", "properties": { "GEOIDFQ": "1400000US11001006900", "NAME": "69", "NAMELSAD": "Census Tract 69" }, "geometry": { "type": "Polygon", "coordinates": [ [ [ -76.9837, 38.8871 ], [ -76.9837, 38.8797 ], [ -76.9938, 38.8838 ], [ -76.9837, 38.8871 ] ] ] } },
{ "type": "Feature", "properties": { "GEOIDFQ": "1400000US11001002302", "NAME": "23.02", "NAMELSAD": "Census Tract 23.02" }, "geometry": { "type": "Polygon", "coordinates": [ [ [ -77.0109, 38.9446 ], [ -77.001, 38.9312 ], [ -77.0145, 38.9263 ], [ -77.0192, 38.9368 ], [ -77.0109, 38.9446 ] ] ] } },
{ "type": "Feature", "properties": { "GEOIDFQ": "1400000US11001002400", "NAME": "24", "NAMELSAD": "Census Tract 24" }, "geometry": { "type": "Polygon", "coordinates": [ [ [ -77.0194, 38.9463 ], [ -77.019, 38.9374 ], [ -77.0243, 38.9363 ], [ -77.0266, 38.9461 ], [ -77.0194, 38.9463 ] ] ] } },
{ "type": "Feature", "properties": { "GEOIDFQ": "1400000US11001007000", "NAME": "70", "NAMELSAD": "Census Tract 70" }, "geometry": { "type": "Polygon", "coordinates": [ [ [ -76.9938, 38.8846 ], [ -76.9915, 38.8778 ], [ -76.9974, 38.8792 ], [ -77.002, 38.8806 ], [ -76.9938, 38.8846 ] ] ] } },
{ "type": "Feature", "properties": { "GEOIDFQ": "1400000US11001007100", "NAME": "71", "NAMELSAD": "Census Tract 71" }, "geometry": { "type": "Polygon", "coordinates": [ [ [ -76.9915, 38.8829 ], [ -76.978, 38.8769 ], [ -76.9901, 38.8713 ], [ -76.9915, 38.8829 ] ] ] } }
]
}
