{
"type": "FeatureCollection",
"name": "state_44_tracts_simplified",
"crs": { "type": "name", "properties": { "name": "urn:ogc:def:crs:OGC:1.3:CRS84" } },
"features": [
{ "type": "Feature", "properties": { "GEOIDFQ": "1400000US44001030300", "NAME": "303", "NAMELSAD": "Census Tract 303" }, "geometry": { "type": "Polygon", "coordinates": [ [ [ -71.2844, 41.762 ], [ -71.2895, 41.7326 ], [ -71.3174, 41.75 ], [ -71.3199, 41.7745 ], [ -71.2844, 41.762 ] ] ] } },
{ "type": "Feature", "properties": { "GEOIDFQ": "1400000US44001030100", "NAME": "301", "NAMELSAD": "Census Tract 301" }, "geometry": { "type": "Polygon", "coordinates": [ [ [ -71.3539, 41.7513 ], [ -71.3327, 41.7657 ], [ -71.3333, 41.7335 ], [ -71.3551, 41.727 ], [ -71.3652, 41.7356 ], [ -71.3539, 41.7513 ] ] ] } },
{ "type": "Feature", "properties": { "GEOIDFQ": "1400000US44001030400", "NAME": "304", "NAMELSAD": "Census Tract 304" }, "geometry": { "type": "Polygon", "coordinates": [ [ [ -71.3366, 41.7316 ], [ -71.3304, 41.739 ], [ -71.2958, 41.7377 ], [ -71.2895, 41.7326 ], [ -71.2953, 41.7073 ], [ -71.329, 41.6799 ], [ -71.3257, 41.6932 ], [ -71.3551, 41.727 ], [ -71.3366, 41.7316 ] ] ] } },
{ "type": "Feature", "properties": { "GEOIDFQ": "1400000US44003021001", "NAME": "210.01", "NAMELSAD": "Census Tract 210.01" }, "geometry": { "type": "Polygon", "coordinates": [ [ [ -71.421, 41.7608 ], [ -71.4052, 41.7676 ], [ -71.4048, 41.7603 ], [ -71.422, 41.7522 ], [ -71.421, 41.7608 ] ] ] } },
{ "type": "Feature", "properties": { "GEOIDFQ": "1400000US44003980000", "NAME": "9800", "NAMELSAD": "Census Tract 9800" }, "geometry": { "type": "Polygon", "coordinates": [ [ [ -71.4365, 41.7326 ], [ -71.4166, 41.7331 ], [ -71.421, 41.7246 ], [ -71.4131, 41.713 ], [ -71.4261, 41.7213 ], [ -71.4361, 41.7086 ], [ -71.4425, 41.7202 ], [ -71.4365, 41.7326 ] ] ] } },
{ "type": "Feature", "properties": { "GEOIDFQ": "1400000US44003020300", "NAME": "203", "NAMELSAD": "Census Tract 203" }, "geometry": { "type": "Polygon", "coordinates": [ [ [ -71.52, 41.7115 ], [ -71.5331, 41.6953 ], [ -71.5332, 41.6997 ], [ -71.5341, 41.7222 ], [ -71.52, 41.7115 ] ] ] } },
{ "type": "Feature", "properties": { "GEOIDFQ": "1400000US44005990000", "NAME": "9900", "NAMELSAD": "Census Tract 9900" }, "geometry": { "type": "Polygon", "coordinates": [ [ [ -71.46, 41.3751 ], [ -71.409, 41.4683 ], [ -71.413, 41.4987 ], [ -71.4011, 41.5177 ], [ -71.379, 41.658 ], [ -71.3541, 41.6782 ], [ -71.331, 41.687 ], [ -71.3136, 41.6457 ], [ -71.3035, 41.6422 ], [ -71.2901, 41.6488 ], [ -71.2907, 41.6365 ], [ -71.2711, 41.6333 ], [ -71.2544, 41.6396 ], [ -71.2301, 41.6607 ], [ -71.2084, 41.6906 ], [ -71.1983, 41.6784 ], [ -71.2132, 41.6446 ], [ -71.2206, 41.6593 ], [ -71.2382, 41.6415 ], [ -71.2519, 41.6406 ], [ -71.2749, 41.6258 ], [ -71.2861, 41.5966 ], [ -71.303, 41.585 ], [ -71.3015, 41.5704 ], [ -71.3072, 41.5655 ], [ -71.3136, 41.5686 ], [ -71.3251, 41.5322 ], [ -71.3184, 41.5254 ], [ -71.3293, 41.5261 ], [ -71.3356, 41.5196 ], [ -71.3353, 41.5058 ], [ -71.3234, 41.4994 ], [ -71.3319, 41.483 ], [ -71.3258, 41.4801 ], [ -71.3212, 41.486 ], [ -71.3201, 41.4801 ], [ -71.333, 41.4738 ], [ -71.3334, 41.4827 ], [ -71.3398, 41.4838 ], [ -71.368, 41.4615 ], [ -71.3596, 41.4464 ], [ -71.3444, 41.451 ], [ -71.3339, 41.4473 ], [ -71.3221, 41.4533 ], [ -71.3236, 41.458 ], [ -71.3111, 41.4496 ], [ -71.3019, 41.4534 ], [ -71.3008, 41.4644 ], [ -71.2936, 41.4676 ], [ -71.2944, 41.4839 ], [ -71.2883, 41.4868 ], [ -71.2756, 41.4771 ], [ -71.2653, 41.4876 ], [ -71.2556, 41.4852 ], [ -71.2483, 41.4809 ], [ -71.2493, 41.4701 ], [ -71.2373, 41.4755 ], [ -71.2345, 41.4858 ], [ -71.2451, 41.4909 ], [ -71.225, 41.5288 ], [ -71.233, 41.5344 ], [ -71.2382, 41.6186 ], [ -71.216, 41.6237 ], [ -71.2138, 41.6191 ], [ -71.2227, 41.6152 ], [ -71.2146, 41.6141 ], [ -71.2066, 41.596 ], [ -71.2168, 41.5872 ], [ -71.2124, 41.5605 ], [ -71.2203, 41.5647 ], [ -71.2233, 41.5597 ], [ -71.2156, 41.5561 ], [ -71.2186, 41.5462 ], [ -71.2078, 41.5398 ], [ -71.2111, 41.5272 ], [ -71.2039, 41.5151 ], [ -71.2091, 41.4992 ], [ -71.1949, 41.4835 ], [ -71.1995, 41.4562 ], [ -71.1693, 41.4584 ], [ -71.1645, 41.4696 ], [ -71.1415, 41.4756 ], [ -71.1367, 41.4899 ], [ -71.1199, 41.4951 ], [ -71.0886, 41.4313 ], [ -71.1246, 41.4115 ], [ -71.3745, 41.339 ], [ -71.4948, 41.3074 ], [ -71.5094, 41.3077 ], [ -71.46, 41.3751 ] ], [ [ -71.3989, 41.4683 ], [ -71.406, 41.4489 ], [ -71.3981, 41.4452 ], [ -71.3775, 41.4717 ], [ -71.3544, 41.4754 ], [ -71.3501, 41.4809 ], [ -71.3623, 41.495 ], [ -71.3532, 41.5063 ], [ -71.3633, 41.514 ], [ -71.356, 41.5528 ], [ -71.3644, 41.5741 ], [ -71.3774, 41.5722 ], [ -71.3876, 41.5572 ], [ -71.3954, 41.5239 ], [ -71.3946, 41.5152 ], [ -71.3823, 41.5052 ], [ -71.3879, 41.4949 ], [ -71.4021, 41.4949 ], [ -71.3938, 41.5016 ], [ -71.3992, 41.5091 ], [ -71.4076, 41.5055 ], [ -71.3989, 41.4683 ] ], [ [ -71.3612, 41.5996 ], [ -71.3596, 41.6102 ], [ -71.3706, 41.6079 ], [ -71.3745, 41.5975 ], [ -71.3612, 41.5996 ] ], [ [ -71.3609, 41.6476 ], [ -71.3499, 41.6548 ], [ -71.3558, 41.6423 ], [ -71.3506, 41.6304 ], [ -71.3287, 41.624 ], [ -71.3399, 41.589 ], [ -71.3254, 41.5766 ], [ -71.3128, 41.5834 ], [ -71.2992, 41.6067 ], [ -71.3027, 41.6229 ], [ -71.3165, 41.6343 ], [ -71.3338, 41.6386 ], [ -71.3292, 41.647 ], [ -71.3433, 41.6694 ], [ -71.3534, 41.6661 ], [ -71.3525, 41.6601 ], [ -71.3695, 41.6601 ], [ -71.3609, 41.6476 ] ], [ [ -71.3503, 41.5295 ], [ -71.341, 41.5268 ], [ -71.3419, 41.5422 ], [ -71.3509, 41.5365 ], [ -71.3503, 41.5295 ] ], [ [ -71.3375, 41.4932 ], [ -71.3386, 41.5005 ], [ -71.3428, 41.5002 ], [ -71.3455, 41.4948 ], [ -71.3375, 41.4932 ] ] ] } },
{ "type": "Feature", "properties": { "GEOIDFQ": "1400000US44005041300", "NAME": "413", "NAMELSAD": "Census Tract 413" }, "geometry": { "type": "MultiPolygon", "coordinates": [ [ [ [ -71.3419, 41.5422 ], [ -71.341, 41.5268 ], [ -71.3503, 41.5295 ], [ -71.3509, 41.5387 ], [ -71.3419, 41.5422 ] ] ], [ [ [ -71.4076, 41.5055 ], [ -71.3971, 41.5087 ], [ -71.3938, 41.5016 ], [ -71.4021, 41.4949 ], [ -71.3879, 41.4949 ], [ -71.3823, 41.5052 ], [ -71.3946, 41.5152 ], [ -71.3954, 41.5239 ], [ -71.3876, 41.5572 ], [ -71.3774, 41.5722 ], [ -71.3644, 41.5741 ], [ -71.356, 41.5528 ], [ -71.3633, 41.514 ], [ -71.3532, 41.5063 ], [ -71.3623, 41.495 ], [ -71.3501, 41.4809 ], [ -71.3544, 41.4754 ], [ -71.3775, 41.4717 ], [ -71.3981, 41.4452 ], [ -71.406, 41.4489 ], [ -71.3989, 41.4683 ], [ -71.4076, 41.5055 ] ] ] ] } },
{ "type": "Feature", "properties": { "GEOIDFQ": "1400000US44007000400", "NAME": "4", "NAMELSAD": "Census Tract 4" }, "geometry": { "type": "Polygon", "coordinates": [ [ [ -71.4119, 41.8095 ], [ -71.4102, 41.8022 ], [ -71.4174, 41.8004 ], [ -71.421, 41.8098 ], [ -71.4119, 41.8095 ] ] ] } },
{ "type": "Feature", "properties": { "GEOIDFQ": "1400000US44007000102", "NAME": "1.02", "NAMELSAD": "Census Tract 1.02" }, "geometry": { "type": "Polygon", "coordinates": [ [ [ -71.4191, 41.7883 ], [ -71.4049, 41.7964 ], [ -71.4017, 41.7859 ], [ -71.41, 41.7738 ], [ -71.4238, 41.7773 ], [ -71.4191, 41.7883 ] ] ] } },
{ "type": "Feature", "properties": { "GEOIDFQ": "1400000US44007000500", "NAME": "5", "NAMELSAD": "Census Tract 5" }, "geometry": { "type": "Polygon", "coordinates": [ [ [ -71.4067, 41.8031 ], [ -71.4049, 41.7964 ], [ -71.4094, 41.794 ], [ -71.4174, 41.8004 ], [ -71.4067, 41.8031 ] ] ] } },
{ "type": "Feature", "properties": { "GEOIDFQ": "1400000US44007000600", "NAME": "6", "NAMELSAD": "Census Tract 6" }, "geometry": { "type": "Polygon", "coordinates": [ [ [ -71.4049, 41.82 ], [ -71.3901, 41.8052 ], [ -71.4049, 41.7964 ], [ -71.4153, 41.817 ], [ -71.4049, 41.82 ] ] ] } },
{ "type": "Feature", "properties": { "GEOIDFQ": "1400000US44007000700", "NAME": "7", "NAMELSAD": "Census Tract 7" }, "geometry": { "type": "Polygon", "coordinates": [ [ [ -71.4119, 41.8151 ], [ -71.4112, 41.8102 ], [ -71.421, 41.8098 ], [ -71.4223, 41.8174 ], [ -71.4119, 41.8151 ] ] ] } },
{ "type": "Feature", "properties": { "GEOIDFQ": "1400000US44007017600", "NAME": "176", "NAMELSAD": "Census Tract 176" }, "geometry": { "type": "Polygon", "coordinates": [ [ [ -71.5186, 42.0018 ], [ -71.5148, 41.9905 ], [ -71.5211, 41.9933 ], [ -71.5252, 41.9979 ], [ -71.5186, 42.0018 ] ] ] } },
{ "type": "Feature", "properties": { "GEOIDFQ": "1400000US44007017700", "NAME": "177", "NAMELSAD": "Census Tract 177" }, "geometry": { "type": "Polygon", "coordinates": [ [ [ -71.5125, 41.9959 ], [ -71.4965, 41.9959 ], [ -71.4994, 42.0 ], [ -71.4982, 42.0031 ], [ -71.4874, 41.9791 ], [ -71.5158, 41.9834 ], [ -71.5125, 41.9959 ] ] ] } },
{ "type": "Feature", "properties": { "GEOIDFQ": "1400000US44007017800", "NAME": "178", "NAMELSAD": "Census Tract 178" }, "geometry": { "type": "Polygon", "coordinates": [ [ [ -71.5125, 42.0002 ], [ -71.4965, 41.9959 ], [ -71.5109, 41.9947 ], [ -71.519, 41.9983 ], [ -71.5125, 42.0002 ] ] ] } },
{ "type": "Feature", "properties": { "GEOIDFQ": "1400000US44007017900", "NAME": "179", "NAMELSAD": "Census Tract 179" }, "geometry": { "type": "Polygon", "coordinates": [ [ [ -71.5043, 42.0065 ], [ -71.4982, 42.0031 ], [ -71.4984, 41.998 ], [ -71.5133, 42.0002 ], [ -71.5043, 42.0065 ] ] ] } },
{ "type": "Feature", "properties": { "GEOIDFQ": "1400000US44007018000", "NAME": "180", "NAMELSAD": "Census Tract 180" }, "geometry": { "type": "Polygon", "coordinates": [ [ [ -71.5142, 42.0107 ], [ -71.5007, 42.0095 ], [ -71.5155, 41.998 ], [ -71.5198, 42.0025 ], [ -71.5142, 42.0107 ] ] ] } },
{ "type": "Feature", "properties": { "GEOIDFQ": "1400000US44007002500", "NAME": "25", "NAMELSAD": "Census Tract 25" }, "geometry": { "type": "Polygon", "coordinates": [ [ [ -71.4284, 41.8315 ], [ -71.4304, 41.8362 ], [ -71.4174, 41.832 ], [ -71.4188, 41.826 ], [ -71.4394, 41.8247 ], [ -71.4284, 41.8315 ] ] ] } },
{ "type": "Feature", "properties": { "GEOIDFQ": "1400000US44007002600", "NAME": "26", "NAMELSAD": "Census Tract 26" }, "geometry": { "type": "Polygon", "coordinates": [ [ [ -71.4285, 41.841 ], [ -71.4154, 41.8362 ], [ -71.4174, 41.832 ], [ -71.4304, 41.8363 ], [ -71.4285, 41.841 ] ] ] } },
{ "type": "Feature", "properties": { "GEOIDFQ": "1400000US44007002700", "NAME": "27", "NAMELSAD": "Census Tract 27" }, "geometry": { "type": "Polygon", "coordinates": [ [ [ -71.4284, 41.8536 ], [ -71.418, 41.8406 ], [ -71.4237, 41.8378 ], [ -71.433, 41.8445 ], [ -71.4284, 41.8536 ] ] ] } },
{ "type": "Feature", "properties": { "GEOIDFQ": "1400000US44005041701", "NAME": "417.01", "NAMELSAD": "Census Tract 417.01" }, "geometry": { "type": "Polygon", "coordinates": [ [ [ -71.1865, 41.6296 ], [ -71.176, 41.6682 ], [ -71.1326, 41.6604 ], [ -71.1353, 41.6286 ], [ -71.1752, 41.6257 ], [ -71.1982, 41.6153 ], [ -71.2048, 41.6182 ], [ -71.1865, 41.6296 ] ] ] } },
{ "type": "Feature", "properties": { "GEOIDFQ": "1400000US44007003100", "NAME": "31", "NAMELSAD": "Census Tract 31" }, "geometry": { "type": "Polygon", "coordinates": [ [ [ -71.4112, 41.846 ], [ -71.399, 41.841 ], [ -71.4076, 41.8291 ], [ -71.4174, 41.832 ], [ -71.4112, 41.846 ] ] ] } },
{ "type": "Feature", "properties": { "GEOIDFQ": "1400000US44007003500", "NAME": "35", "NAMELSAD": "Census Tract 35" }, "geometry": { "type": "Polygon", "coordinates": [ [ [ -71.3838, 41.833 ], [ -71.3731, 41.8366 ], [ -71.3828, 41.8227 ], [ -71.3942, 41.8228 ], [ -71.3943, 41.8335 ], [ -71.3838, 41.833 ] ] ] } },
{ "type": "Feature", "properties": { "GEOIDFQ": "1400000US44007003602", "NAME": "36.02", "NAMELSAD": "Census Tract 36.02" }, "geometry": { "type": "Polygon", "coordinates": [ [ [ -71.4016, 41.8357 ], [ -71.4, 41.8224 ], [ -71.4059, 41.8232 ], [ -71.4097, 41.8289 ], [ -71.4016, 41.8357 ] ] ] } },
{ "type": "Feature", "properties": { "GEOIDFQ": "1400000US44007003700", "NAME": "37", "NAMELSAD": "Census Tract 37" }, "geometry": { "type": "Polygon", "coordinates": [ [ [ -71.4032, 41.8221 ], [ -71.3828, 41.8227 ], [ -71.3978, 41.8099 ], [ -71.4032, 41.8221 ] ] ] } },
{ "type": "Feature", "properties": { "GEOIDFQ": "1400000US44007010101", "NAME": "101.01", "NAMELSAD": "Census Tract 101.01" }, "geometry": { "type": "Polygon", "coordinates": [ [ [ -71.3545, 41.8595 ], [ -71.352, 41.8456 ], [ -71.36, 41.8335 ], [ -71.373, 41.8381 ], [ -71.375, 41.8574 ], [ -71.3545, 41.8595 ] ] ] } },
{ "type": "Feature", "properties": { "GEOIDFQ": "1400000US44007010200", "NAME": "102", "NAMELSAD": "Census Tract 102" }, "geometry": { "type": "Polygon", "coordinates": [ [ [ -71.373, 41.8381 ], [ -71.3651, 41.8386 ], [ -71.36, 41.8335 ], [ -71.3676, 41.8141 ], [ -71.3855, 41.8192 ], [ -71.373, 41.8381 ] ] ] } },
{ "type": "Feature", "properties": { "GEOIDFQ": "1400000US44005040500", "NAME": "405", "NAMELSAD": "Census Tract 405" }, "geometry": { "type": "Polygon", "coordinates": [ [ [ -71.3122, 41.5209 ], [ -71.3024, 41.507 ], [ -71.3157, 41.4939 ], [ -71.3192, 41.5121 ], [ -71.3122, 41.5209 ] ] ] } },
{ "type": "Feature", "properties": { "GEOIDFQ": "1400000US44007001900", "NAME": "19", "NAMELSAD": "Census Tract 19" }, "geometry": { "type": "Polygon", "coordinates": [ [ [ -71.454, 41.8253 ], [ -71.4336, 41.8242 ], [ -71.4395, 41.816 ], [ -71.4563, 41.8221 ], [ -71.454, 41.8253 ] ] ] } },
{ "type": "Feature", "properties": { "GEOIDFQ": "1400000US44007002200", "NAME": "22", "NAMELSAD": "Census Tract 22" }, "geometry": { "type": "Polygon", "coordinates": [ [ [ -71.4293, 41.8344 ], [ -71.4284, 41.8315 ], [ -71.4434, 41.8248 ], [ -71.4445, 41.8324 ], [ -71.4293, 41.8344 ] ] ] } },
{ "type": "Feature", "properties": { "GEOIDFQ": "1400000US44007002300", "NAME": "23", "NAMELSAD": "Census Tract 23" }, "geometry": { "type": "Polygon", "coordinates": [ [ [ -71.4285, 41.841 ], [ -71.4302, 41.8342 ], [ -71.4445, 41.8324 ], [ -71.4452, 41.8426 ], [ -71.4285, 41.841 ] ] ] } },
{ "type": "Feature", "properties": { "GEOIDFQ": "1400000US44003021501", "NAME": "215.01", "NAMELSAD": "Census Tract 215.01" }, "geometry": { "type": "Polygon", "coordinates": [ [ [ -71.3646, 41.7349 ], [ -71.3426, 41.7156 ], [ -71.3817, 41.7083 ], [ -71.3868, 41.714 ], [ -71.3819, 41.7235 ], [ -71.3893, 41.7276 ], [ -71.3646, 41.7349 ] ] ] } },
{ "type": "Feature", "properties": { "GEOIDFQ": "1400000US44001030200", "NAME": "302", "NAMELSAD": "Census Tract 302" }, "geometry": { "type": "Polygon", "coordinates": [ [ [ -71.3199, 41.7745 ], [ -71.3191, 41.7525 ], [ -71.2958, 41.7377 ], [ -71.3299, 41.7381 ], [ -71.3327, 41.7657 ], [ -71.3199, 41.7745 ] ] ] } },
{ "type": "Feature", "properties": { "GEOIDFQ": "1400000US44001030500", "NAME": "305", "NAMELSAD": "Census Tract 305" }, "geometry": { "type": "Polygon", "coordinates": [ [ [ -71.2866, 41.7424 ], [ -71.2696, 41.7311 ], [ -71.2701, 41.7254 ], [ -71.2875, 41.7238 ], [ -71.2866, 41.7424 ] ] ] } },
{ "type": "Feature", "properties": { "GEOIDFQ": "1400000US44001030601", "NAME": "306.01", "NAMELSAD": "Census Tract 306.01" }, "geometry": { "type": "Polygon", "coordinates": [ [ [ -71.2844, 41.762 ], [ -71.2611, 41.7521 ], [ -71.2104, 41.688 ], [ -71.2432, 41.6966 ], [ -71.2624, 41.7293 ], [ -71.2769, 41.7332 ], [ -71.2864, 41.744 ], [ -71.2844, 41.762 ] ] ] } },
{ "type": "Feature", "properties": { "GEOIDFQ": "1400000US44001030602", "NAME": "306.02", "NAMELSAD": "Census Tract 306.02" }, "geometry": { "type": "Polygon", "coordinates": [ [ [ -71.2875, 41.7238 ], [ -71.2624, 41.7293 ], [ -71.2555, 41.7146 ], [ -71.294, 41.7104 ], [ -71.2875, 41.7238 ] ] ] } },
{ "type": "Feature", "properties": { "GEOIDFQ": "1400000US44001030700", "NAME": "307", "NAMELSAD": "Census Tract 307" }, "geometry": { "type": "Polygon", "coordinates": [ [ [ -71.2686, 41.6779 ], [ -71.2694, 41.6666 ], [ -71.2819, 41.6655 ], [ -71.2828, 41.6756 ], [ -71.2686, 41.6779 ] ] ] } },
{ "type": "Feature", "properties": { "GEOIDFQ": "1400000US44001030800", "NAME": "308", "NAMELSAD": "Census Tract 308" }, "geometry": { "type": "Polygon", "coordinates": [ [ [ -71.2819, 41.6655 ], [ -71.2674, 41.6688 ], [ -71.2686, 41.6779 ], [ -71.2604, 41.6797 ], [ -71.259, 41.6735 ], [ -71.2176, 41.6791 ], [ -71.2567, 41.6381 ], [ -71.2672, 41.639 ], [ -71.2757, 41.6507 ], [ -71.282, 41.6502 ], [ -71.2819, 41.6655 ] ] ] } },
{ "type": "Feature", "properties": { "GEOIDFQ": "1400000US44001030901", "NAME": "309.01", "NAMELSAD": "Census Tract 309.01" }, "geometry": { "type": "Polygon", "coordinates": [ [ [ -71.2515, 41.7154 ], [ -71.2432, 41.6966 ], [ -71.2104, 41.688 ], [ -71.2176, 41.6791 ], [ -71.259, 41.6735 ], [ -71.2675, 41.7129 ], [ -71.2515, 41.7154 ] ] ] } },
{ "type": "Feature", "properties": { "GEOIDFQ": "1400000US44001030902", "NAME": "309.02", "NAMELSAD": "Census Tract 309.02" }, "geometry": { "type": "Polygon", "coordinates": [ [ [ -71.294, 41.7103 ], [ -71.2675, 41.7129 ], [ -71.2604, 41.6797 ], [ -71.2828, 41.6756 ], [ -71.282, 41.6502 ], [ -71.3003, 41.6427 ], [ -71.3115, 41.644 ], [ -71.329, 41.6799 ], [ -71.294, 41.7103 ] ] ] } },
{ "type": "Feature", "properties": { "GEOIDFQ": "1400000US44009050702", "NAME": "507.02", "NAMELSAD": "Census Tract 507.02" }, "geometry": { "type": "Polygon", "coordinates": [ [ [ -71.796, 41.4073 ], [ -71.7967, 41.4425 ], [ -71.7162, 41.4952 ], [ -71.7177, 41.4855 ], [ -71.7122, 41.4843 ], [ -71.7217, 41.4608 ], [ -71.711, 41.4563 ], [ -71.7225, 41.4379 ], [ -71.719, 41.4282 ], [ -71.7262, 41.4274 ], [ -71.7294, 41.4172 ], [ -71.7233, 41.4077 ], [ -71.7275, 41.397 ], [ -71.7552, 41.408 ], [ -71.7676, 41.3949 ], [ -71.7723, 41.4007 ], [ -71.7835, 41.3865 ], [ -71.7972, 41.3932 ], [ -71.7941, 41.3973 ], [ -71.8032, 41.4043 ], [ -71.796, 41.4073 ] ] ] } },
{ "type": "Feature", "properties": { "GEOIDFQ": "1400000US44009050701", "NAME": "507.01", "NAMELSAD": "Census Tract 507.01" }, "geometry": { "type": "Polygon", "coordinates": [ [ [ -71.7914, 41.5461 ], [ -71.715, 41.5542 ], [ -71.7092, 41.5476 ], [ -71.7005, 41.5488 ], [ -71.6893, 41.524 ], [ -71.7155, 41.5048 ], [ -71.7162, 41.4952 ], [ -71.7967, 41.4426 ], [ -71.7914, 41.5461 ] ] ] } },
{ "type": "Feature", "properties": { "GEOIDFQ": "1400000US44007012602", "NAME": "126.02", "NAMELSAD": "Census Tract 126.02" }, "geometry": { "type": "Polygon", "coordinates": [ [ [ -71.5083, 41.9114 ], [ -71.5031, 41.9289 ], [ -71.4892, 41.9385 ], [ -71.4668, 41.8728 ], [ -71.5146, 41.8665 ], [ -71.5229, 41.8959 ], [ -71.5083, 41.9114 ] ] ] } },
{ "type": "Feature", "properties": { "GEOIDFQ": "1400000US44007012802", "NAME": "128.02", "NAMELSAD": "Census Tract 128.02" }, "geometry": { "type": "Polygon", "coordinates": [ [ [ -71.5153, 41.9831 ], [ -71.5053, 41.9688 ], [ -71.5379, 41.9782 ], [ -71.557, 41.9991 ], [ -71.5153, 41.9831 ] ] ] } },
{ "type": "Feature", "properties": { "GEOIDFQ": "1400000US44007013300", "NAME": "133", "NAMELSAD": "Census Tract 133" }, "geometry": { "type": "Polygon", "coordinates": [ [ [ -71.691, 41.8565 ], [ -71.6684, 41.7275 ], [ -71.7897, 41.7252 ], [ -71.7947, 41.8544 ], [ -71.691, 41.8565 ] ] ] } },
{ "type": "Feature", "properties": { "GEOIDFQ": "1400000US44007013400", "NAME": "134", "NAMELSAD": "Census Tract 134" }, "geometry": { "type": "Polygon", "coordinates": [ [ [ -71.4004, 41.778 ], [ -71.3778, 41.782 ], [ -71.3783, 41.7553 ], [ -71.4054, 41.7708 ], [ -71.4004, 41.778 ] ] ] } },
{ "type": "Feature", "properties": { "GEOIDFQ": "1400000US44007012702", "NAME": "127.02", "NAMELSAD": "Census Tract 127.02" }, "geometry": { "type": "Polygon", "coordinates": [ [ [ -71.5503, 41.8709 ], [ -71.5405, 41.8815 ], [ -71.5315, 41.8643 ], [ -71.5746, 41.8587 ], [ -71.5794, 41.8818 ], [ -71.5503, 41.8709 ] ] ] } },
{ "type": "Feature", "properties": { "GEOIDFQ": "1400000US44007013002", "NAME": "130.02", "NAMELSAD": "Census Tract 130.02" }, "geometry": { "type": "Polygon", "coordinates": [ [ [ -71.7012, 41.9528 ], [ -71.6853, 41.9479 ], [ -71.6802, 41.9631 ], [ -71.6626, 41.966 ], [ -71.6667, 41.9799 ], [ -71.6746, 41.9654 ], [ -71.683, 41.9796 ], [ -71.678, 42.0116 ], [ -71.6067, 42.0133 ], [ -71.5903, 41.9337 ], [ -71.7005, 41.9309 ], [ -71.7012, 41.9528 ] ] ] } },
{ "type": "Feature", "properties": { "GEOIDFQ": "1400000US44007015900", "NAME": "159", "NAMELSAD": "Census Tract 159" }, "geometry": { "type": "Polygon", "coordinates": [ [ [ -71.3541, 41.8879 ], [ -71.3543, 41.8784 ], [ -71.3649, 41.8805 ], [ -71.367, 41.8852 ], [ -71.3541, 41.8879 ] ] ] } },
{ "type": "Feature", "properties": { "GEOIDFQ": "1400000US44007011403", "NAME": "114.03", "NAMELSAD": "Census Tract 114.03" }, "geometry": { "type": "Polygon", "coordinates": [ [ [ -71.4727, 41.9943 ], [ -71.4609, 41.9882 ], [ -71.4606, 41.9785 ], [ -71.4463, 41.9664 ], [ -71.4318, 41.9394 ], [ -71.4618, 41.9574 ], [ -71.4649, 41.9691 ], [ -71.4872, 41.9792 ], [ -71.4727, 41.9943 ] ] ] } },
{ "type": "Feature", "properties": { "GEOIDFQ": "1400000US44007011800", "NAME": "118", "NAMELSAD": "Census Tract 118" }, "geometry": { "type": "Polygon", "coordinates": [ [ [ -71.4382, 41.8766 ], [ -71.4219, 41.8787 ], [ -71.4174, 41.8597 ], [ -71.435, 41.8618 ], [ -71.4413, 41.8694 ], [ -71.4382, 41.8766 ] ] ] } },
{ "type": "Feature", "properties": { "GEOIDFQ": "1400000US44007012000", "NAME": "120", "NAMELSAD": "Census Tract 120" }, "geometry": { "type": "Polygon", "coordinates": [ [ [ -71.4611, 41.8617 ], [ -71.4467, 41.854 ], [ -71.4687, 41.8393 ], [ -71.4681, 41.8478 ], [ -71.4761, 41.8543 ], [ -71.4611, 41.8617 ] ] ] } },
{ "type": "Feature", "properties": { "GEOIDFQ": "1400000US44009051504", "NAME": "515.04", "NAMELSAD": "Census Tract 515.04" }, "geometry": { "type": "Polygon", "coordinates": [ [ [ -71.5032, 41.4176 ], [ -71.4971, 41.4175 ], [ -71.49, 41.4317 ], [ -71.4812, 41.4308 ], [ -71.4824, 41.3946 ], [ -71.4688, 41.3913 ], [ -71.4809, 41.3715 ], [ -71.4795, 41.3599 ], [ -71.512, 41.3523 ], [ -71.5227, 41.3768 ], [ -71.5032, 41.4176 ] ] ] } },
{ "type": "Feature", "properties": { "GEOIDFQ": "1400000US44005041702", "NAME": "417.02", "NAMELSAD": "Census Tract 417.02" }, "geometry": { "type": "Polygon", "coordinates": [ [ [ -71.2181, 41.5648 ], [ -71.2124, 41.5605 ], [ -71.2168, 41.5872 ], [ -71.2066, 41.596 ], [ -71.218, 41.6184 ], [ -71.1982, 41.6153 ], [ -71.1752, 41.6257 ], [ -71.1353, 41.6286 ], [ -71.142, 41.6125 ], [ -71.1316, 41.5937 ], [ -71.1278, 41.5632 ], [ -71.2146, 41.5449 ], [ -71.2156, 41.5561 ], [ -71.2234, 41.5614 ], [ -71.2181, 41.5648 ] ] ] } },
{ "type": "Feature", "properties": { "GEOIDFQ": "1400000US44003020604", "NAME": "206.04", "NAMELSAD": "Census Tract 206.04" }, "geometry": { "type": "Polygon", "coordinates": [ [ [ -71.5575, 41.7091 ], [ -71.5469, 41.7092 ], [ -71.5429, 41.7007 ], [ -71.5348, 41.7031 ], [ -71.533, 41.6798 ], [ -71.5518, 41.6849 ], [ -71.5471, 41.6959 ], [ -71.5571, 41.6918 ], [ -71.5575, 41.7091 ] ] ] } },
{ "type": "Feature", "properties": { "GEOIDFQ": "1400000US44003020601", "NAME": "206.01", "NAMELSAD": "Census Tract 206.01" }, "geometry": { "type": "Polygon", "coordinates": [ [ [ -71.5343, 41.7302 ], [ -71.5333, 41.7009 ], [ -71.5429, 41.7007 ], [ -71.5469, 41.7092 ], [ -71.5575, 41.7091 ], [ -71.5578, 41.6943 ], [ -71.5653, 41.6948 ], [ -71.5765, 41.7293 ], [ -71.5343, 41.7302 ] ] ] } },
{ "type": "Feature", "properties": { "GEOIDFQ": "1400000US44003020800", "NAME": "208", "NAMELSAD": "Census Tract 208" }, "geometry": { "type": "Polygon", "coordinates": [ [ [ -71.7872, 41.6561 ], [ -71.5471, 41.6619 ], [ -71.545, 41.6019 ], [ -71.7892, 41.5982 ], [ -71.7872, 41.6561 ] ] ] } },
{ "type": "Feature", "properties": { "GEOIDFQ": "1400000US44003022000", "NAME": "220", "NAMELSAD": "Census Tract 220" }, "geometry": { "type": "Polygon", "coordinates": [ [ [ -71.4542, 41.7035 ], [ -71.4517, 41.6991 ], [ -71.4292, 41.6963 ], [ -71.4301, 41.6757 ], [ -71.4423, 41.664 ], [ -71.4501, 41.664 ], [ -71.4491, 41.6787 ], [ -71.4656, 41.6992 ], [ -71.4542, 41.7035 ] ] ] } },
{ "type": "Feature", "properties": { "GEOIDFQ": "1400000US44003020400", "NAME": "204", "NAMELSAD": "Census Tract 204" }, "geometry": { "type": "Polygon", "coordinates": [ [ [ -71.5169, 41.7306 ], [ -71.5191, 41.715 ], [ -71.5341, 41.7222 ], [ -71.5343, 41.7302 ], [ -71.5169, 41.7306 ] ] ] } },
{ "type": "Feature", "properties": { "GEOIDFQ": "1400000US44003020703", "NAME": "207.03", "NAMELSAD": "Census Tract 207.03" }, "geometry": { "type": "Polygon", "coordinates": [ [ [ -71.6443, 41.7278 ], [ -71.5765, 41.7293 ], [ -71.5716, 41.7164 ], [ -71.577, 41.7018 ], [ -71.5914, 41.7014 ], [ -71.5954, 41.6935 ], [ -71.5872, 41.6785 ], [ -71.5807, 41.6788 ], [ -71.5895, 41.6607 ], [ -71.6224, 41.6597 ], [ -71.6055, 41.6768 ], [ -71.6073, 41.6959 ], [ -71.6458, 41.715 ], [ -71.6443, 41.7278 ] ] ] } },
{ "type": "Feature", "properties": { "GEOIDFQ": "1400000US44003020602", "NAME": "206.02", "NAMELSAD": "Census Tract 206.02" }, "geometry": { "type": "Polygon", "coordinates": [ [ [ -71.5914, 41.7014 ], [ -71.5771, 41.7017 ], [ -71.5735, 41.7104 ], [ -71.5653, 41.6948 ], [ -71.5469, 41.6955 ], [ -71.5518, 41.6849 ], [ -71.5872, 41.6785 ], [ -71.5954, 41.6935 ], [ -71.5914, 41.7014 ] ] ] } },
{ "type": "Feature", "properties": { "GEOIDFQ": "1400000US44003020102", "NAME": "201.02", "NAMELSAD": "Census Tract 201.02" }, "geometry": { "type": "Polygon", "coordinates": [ [ [ -71.5224, 41.6959 ], [ -71.5017, 41.6965 ], [ -71.5007, 41.685 ], [ -71.533, 41.6799 ], [ -71.5224, 41.6959 ] ] ] } },
{ "type": "Feature", "properties": { "GEOIDFQ": "1400000US44003021800", "NAME": "218", "NAMELSAD": "Census Tract 218" }, "geometry": { "type": "Polygon", "coordinates": [ [ [ -71.3991, 41.7126 ], [ -71.4016, 41.7181 ], [ -71.3941, 41.7201 ], [ -71.3811, 41.7107 ], [ -71.3896, 41.7006 ], [ -71.4177, 41.7058 ], [ -71.3991, 41.7126 ] ] ] } },
{ "type": "Feature", "properties": { "GEOIDFQ": "1400000US44003022400", "NAME": "224", "NAMELSAD": "Census Tract 224" }, "geometry": { "type": "Polygon", "coordinates": [ [ [ -71.4581, 41.6498 ], [ -71.4522, 41.6485 ], [ -71.4346, 41.6744 ], [ -71.3932, 41.6696 ], [ -71.3901, 41.6523 ], [ -71.4328, 41.6513 ], [ -71.4514, 41.6295 ], [ -71.4591, 41.6379 ], [ -71.4678, 41.6342 ], [ -71.4581, 41.6498 ] ] ] } },
{ "type": "Feature", "properties": { "GEOIDFQ": "1400000US44003021502", "NAME": "215.02", "NAMELSAD": "Census Tract 215.02" }, "geometry": { "type": "Polygon", "coordinates": [ [ [ -71.3759, 41.7125 ], [ -71.3426, 41.7156 ], [ -71.3257, 41.6932 ], [ -71.356, 41.6768 ], [ -71.3712, 41.6895 ], [ -71.3783, 41.6885 ], [ -71.3792, 41.6954 ], [ -71.391, 41.692 ], [ -71.3759, 41.7125 ] ] ] } },
{ "type": "Feature", "properties": { "GEOIDFQ": "1400000US44003022100", "NAME": "221", "NAMELSAD": "Census Tract 221" }, "geometry": { "type": "Polygon", "coordinates": [ [ [ -71.4806, 41.7242 ], [ -71.4709, 41.7162 ], [ -71.4584, 41.7285 ], [ -71.4422, 41.7292 ], [ -71.4509, 41.703 ], [ -71.4608, 41.7039 ], [ -71.4653, 41.6991 ], [ -71.4905, 41.7098 ], [ -71.4806, 41.7242 ] ] ] } },
{ "type": "Feature", "properties": { "GEOIDFQ": "1400000US44003022300", "NAME": "223", "NAMELSAD": "Census Tract 223" }, "geometry": { "type": "Polygon", "coordinates": [ [ [ -71.5126, 41.7068 ], [ -71.4901, 41.7178 ], [ -71.4839, 41.7316 ], [ -71.4549, 41.7324 ], [ -71.4462, 41.74 ], [ -71.4709, 41.7162 ], [ -71.4806, 41.7242 ], [ -71.501, 41.6876 ], [ -71.5017, 41.6965 ], [ -71.5188, 41.696 ], [ -71.5126, 41.7068 ] ] ] } },
{ "type": "Feature", "properties": { "GEOIDFQ": "1400000US44003020701", "NAME": "207.01", "NAMELSAD": "Census Tract 207.01" }, "geometry": { "type": "Polygon", "coordinates": [ [ [ -71.7006, 41.7267 ], [ -71.6949, 41.6584 ], [ -71.7872, 41.6561 ], [ -71.7897, 41.7252 ], [ -71.7006, 41.7267 ] ] ] } },
{ "type": "Feature", "properties": { "GEOIDFQ": "1400000US44003020702", "NAME": "207.02", "NAMELSAD": "Census Tract 207.02" }, "geometry": { "type": "Polygon", "coordinates": [ [ [ -71.7006, 41.7267 ], [ -71.6443, 41.7278 ], [ -71.6457, 41.7142 ], [ -71.6073, 41.6959 ], [ -71.6083, 41.6709 ], [ -71.6224, 41.6597 ], [ -71.6949, 41.6584 ], [ -71.6939, 41.6989 ], [ -71.7006, 41.7267 ] ] ] } },
{ "type": "Feature", "properties": { "GEOIDFQ": "1400000US44003021600", "NAME": "216", "NAMELSAD": "Census Tract 216" }, "geometry": { "type": "Polygon", "coordinates": [ [ [ -71.391, 41.692 ], [ -71.3814, 41.6954 ], [ -71.356, 41.6768 ], [ -71.3748, 41.6628 ], [ -71.3805, 41.6503 ], [ -71.3901, 41.6523 ], [ -71.391, 41.692 ] ] ] } },
{ "type": "Feature", "properties": { "GEOIDFQ": "1400000US44003022201", "NAME": "222.01", "NAMELSAD": "Census Tract 222.01" }, "geometry": { "type": "Polygon", "coordinates": [ [ [ -71.478, 41.674 ], [ -71.4737, 41.7023 ], [ -71.4593, 41.6971 ], [ -71.4488, 41.678 ], [ -71.4501, 41.664 ], [ -71.4903, 41.6643 ], [ -71.478, 41.674 ] ] ] } },
{ "type": "Feature", "properties": { "GEOIDFQ": "1400000US44003020500", "NAME": "205", "NAMELSAD": "Census Tract 205" }, "geometry": { "type": "Polygon", "coordinates": [ [ [ -71.5169, 41.7306 ], [ -71.4839, 41.7316 ], [ -71.49, 41.7179 ], [ -71.5009, 41.7116 ], [ -71.5144, 41.7144 ], [ -71.5139, 41.7199 ], [ -71.521, 41.7182 ], [ -71.5169, 41.7306 ] ] ] } },
{ "type": "Feature", "properties": { "GEOIDFQ": "1400000US44003020101", "NAME": "201.01", "NAMELSAD": "Census Tract 201.01" }, "geometry": { "type": "Polygon", "coordinates": [ [ [ -71.533, 41.6798 ], [ -71.5007, 41.685 ], [ -71.4992, 41.6629 ], [ -71.5334, 41.6623 ], [ -71.533, 41.6798 ] ] ] } },
{ "type": "Feature", "properties": { "GEOIDFQ": "1400000US44007014600", "NAME": "146", "NAMELSAD": "Census Tract 146" }, "geometry": { "type": "Polygon", "coordinates": [ [ [ -71.535, 41.7933 ], [ -71.5061, 41.7889 ], [ -71.5007, 41.7804 ], [ -71.5114, 41.7819 ], [ -71.5355, 41.7718 ], [ -71.52, 41.7639 ], [ -71.5142, 41.753 ], [ -71.4983, 41.7535 ], [ -71.4795, 41.7464 ], [ -71.4839, 41.7316 ], [ -71.546, 41.7301 ], [ -71.5593, 41.7893 ], [ -71.535, 41.7933 ] ] ] } },
{ "type": "Feature", "properties": { "GEOIDFQ": "1400000US44003021401", "NAME": "214.01", "NAMELSAD": "Census Tract 214.01" }, "geometry": { "type": "Polygon", "coordinates": [ [ [ -71.408, 41.7354 ], [ -71.3991, 41.7126 ], [ -71.4131, 41.713 ], [ -71.421, 41.7246 ], [ -71.408, 41.7354 ] ] ] } },
{ "type": "Feature", "properties": { "GEOIDFQ": "1400000US44007011701", "NAME": "117.01", "NAMELSAD": "Census Tract 117.01" }, "geometry": { "type": "Polygon", "coordinates": [ [ [ -71.4254, 41.9202 ], [ -71.4302, 41.9234 ], [ -71.4325, 41.9279 ], [ -71.4065, 41.9114 ], [ -71.3974, 41.9113 ], [ -71.4007, 41.9017 ], [ -71.3943, 41.8977 ], [ -71.4081, 41.894 ], [ -71.4349, 41.9125 ], [ -71.4254, 41.9202 ] ] ] } },
{ "type": "Feature", "properties": { "GEOIDFQ": "1400000US44007012300", "NAME": "123", "NAMELSAD": "Census Tract 123" }, "geometry": { "type": "Polygon", "coordinates": [ [ [ -71.4941, 41.8683 ], [ -71.4704, 41.8329 ], [ -71.4831, 41.8367 ], [ -71.5007, 41.8298 ], [ -71.502, 41.8468 ], [ -71.5315, 41.8634 ], [ -71.4941, 41.8683 ] ] ] } },
{ "type": "Feature", "properties": { "GEOIDFQ": "1400000US44007013102", "NAME": "131.02", "NAMELSAD": "Census Tract 131.02" }, "geometry": { "type": "Polygon", "coordinates": [ [ [ -71.6667, 41.9318 ], [ -71.5903, 41.9337 ], [ -71.5746, 41.8587 ], [ -71.6768, 41.8567 ], [ -71.6667, 41.9318 ] ] ] } },
{ "type": "Feature", "properties": { "GEOIDFQ": "1400000US44007012601", "NAME": "126.01", "NAMELSAD": "Census Tract 126.01" }, "geometry": { "type": "Polygon", "coordinates": [ [ [ -71.4908, 41.9432 ], [ -71.5227, 41.8976 ], [ -71.5146, 41.8665 ], [ -71.5315, 41.8643 ], [ -71.5369, 41.8772 ], [ -71.532, 41.8818 ], [ -71.5529, 41.9157 ], [ -71.5553, 41.9369 ], [ -71.4908, 41.9432 ] ] ] } },
{ "type": "Feature", "properties": { "GEOIDFQ": "1400000US44007014501", "NAME": "145.01", "NAMELSAD": "Census Tract 145.01" }, "geometry": { "type": "Polygon", "coordinates": [ [ [ -71.5114, 41.7819 ], [ -71.5007, 41.7804 ], [ -71.4817, 41.7662 ], [ -71.4837, 41.7485 ], [ -71.5142, 41.753 ], [ -71.52, 41.7639 ], [ -71.5355, 41.7718 ], [ -71.5114, 41.7819 ] ] ] } },
{ "type": "Feature", "properties": { "GEOIDFQ": "1400000US44007010300", "NAME": "103", "NAMELSAD": "Census Tract 103" }, "geometry": { "type": "Polygon", "coordinates": [ [ [ -71.3626, 41.8301 ], [ -71.3556, 41.8327 ], [ -71.3461, 41.826 ], [ -71.3394, 41.8067 ], [ -71.3676, 41.8141 ], [ -71.3626, 41.8301 ] ] ] } },
{ "type": "Feature", "properties": { "GEOIDFQ": "1400000US44007012401", "NAME": "124.01", "NAMELSAD": "Census Tract 124.01" }, "geometry": { "type": "Polygon", "coordinates": [ [ [ -71.4818, 41.8368 ], [ -71.4649, 41.8312 ], [ -71.4619, 41.8251 ], [ -71.4915, 41.8169 ], [ -71.5081, 41.8276 ], [ -71.4818, 41.8368 ] ] ] } },
{ "type": "Feature", "properties": { "GEOIDFQ": "1400000US44007011600", "NAME": "116", "NAMELSAD": "Census Tract 116" }, "geometry": { "type": "Polygon", "coordinates": [ [ [ -71.4761, 41.9427 ], [ -71.4566, 41.9404 ], [ -71.4498, 41.9346 ], [ -71.4337, 41.9381 ], [ -71.4254, 41.9202 ], [ -71.4335, 41.918 ], [ -71.4316, 41.9067 ], [ -71.4473, 41.9025 ], [ -71.4337, 41.8772 ], [ -71.4668, 41.8728 ], [ -71.4843, 41.9252 ], [ -71.4761, 41.9427 ] ] ] } },
{ "type": "Feature", "properties": { "GEOIDFQ": "1400000US44003021300", "NAME": "213", "NAMELSAD": "Census Tract 213" }, "geometry": { "type": "Polygon", "coordinates": [ [ [ -71.4046, 41.7485 ], [ -71.3826, 41.7512 ], [ -71.375, 41.7496 ], [ -71.3646, 41.7349 ], [ -71.3893, 41.7276 ], [ -71.407, 41.7335 ], [ -71.4046, 41.7485 ] ] ] } },
{ "type": "Feature", "properties": { "GEOIDFQ": "1400000US44007013101", "NAME": "131.01", "NAMELSAD": "Census Tract 131.01" }, "geometry": { "type": "Polygon", "coordinates": [ [ [ -71.6667, 41.9318 ], [ -71.6768, 41.8567 ], [ -71.7947, 41.8544 ], [ -71.7978, 41.9286 ], [ -71.6667, 41.9318 ] ] ] } },
{ "type": "Feature", "properties": { "GEOIDFQ": "1400000US44007013500", "NAME": "135", "NAMELSAD": "Census Tract 135" }, "geometry": { "type": "Polygon", "coordinates": [ [ [ -71.4043, 41.7858 ], [ -71.3782, 41.7844 ], [ -71.3778, 41.782 ], [ -71.4119, 41.7724 ], [ -71.4043, 41.7858 ] ] ] } },
{ "type": "Feature", "properties": { "GEOIDFQ": "1400000US44007013600", "NAME": "136", "NAMELSAD": "Census Tract 136" }, "geometry": { "type": "Polygon", "coordinates": [ [ [ -71.4239, 41.7773 ], [ -71.404, 41.7732 ], [ -71.414, 41.7631 ], [ -71.4299, 41.7608 ], [ -71.4239, 41.7773 ] ] ] } },
{ "type": "Feature", "properties": { "GEOIDFQ": "1400000US44007013701", "NAME": "137.01", "NAMELSAD": "Census Tract 137.01" }, "geometry": { "type": "Polygon", "coordinates": [ [ [ -71.4316, 41.7863 ], [ -71.4206, 41.7862 ], [ -71.426, 41.7715 ], [ -71.4373, 41.7746 ], [ -71.4316, 41.7863 ] ] ] } },
{ "type": "Feature", "properties": { "GEOIDFQ": "1400000US44007013702", "NAME": "137.02", "NAMELSAD": "Census Tract 137.02" }, "geometry": { "type": "Polygon", "coordinates": [ [ [ -71.4409, 41.7814 ], [ -71.4357, 41.7789 ], [ -71.4369, 41.772 ], [ -71.451, 41.7735 ], [ -71.4409, 41.7814 ] ] ] } },
{ "type": "Feature", "properties": { "GEOIDFQ": "1400000US44007014100", "NAME": "141", "NAMELSAD": "Census Tract 141" }, "geometry": { "type": "Polygon", "coordinates": [ [ [ -71.4523, 41.8061 ], [ -71.4422, 41.8072 ], [ -71.434, 41.7863 ], [ -71.4459, 41.7883 ], [ -71.4523, 41.8061 ] ] ] } },
{ "type": "Feature", "properties": { "GEOIDFQ": "1400000US44007014200", "NAME": "142", "NAMELSAD": "Census Tract 142" }, "geometry": { "type": "Polygon", "coordinates": [ [ [ -71.4602, 41.7585 ], [ -71.4465, 41.7489 ], [ -71.4441, 41.7406 ], [ -71.4544, 41.7326 ], [ -71.4839, 41.7317 ], [ -71.4602, 41.7585 ] ] ] } },
{ "type": "Feature", "properties": { "GEOIDFQ": "1400000US44003021100", "NAME": "211", "NAMELSAD": "Census Tract 211" }, "geometry": { "type": "Polygon", "coordinates": [ [ [ -71.4441, 41.7406 ], [ -71.4406, 41.7579 ], [ -71.4193, 41.7646 ], [ -71.4188, 41.7507 ], [ -71.4274, 41.7455 ], [ -71.4171, 41.7367 ], [ -71.4081, 41.7374 ], [ -71.4077, 41.7352 ], [ -71.4365, 41.7326 ], [ -71.4428, 41.7197 ], [ -71.4425, 41.7294 ], [ -71.4584, 41.7285 ], [ -71.4441, 41.7406 ] ] ] } },
{ "type": "Feature", "properties": { "GEOIDFQ": "1400000US44003020904", "NAME": "209.04", "NAMELSAD": "Census Tract 209.04" }, "geometry": { "type": "Polygon", "coordinates": [ [ [ -71.4865, 41.6201 ], [ -71.4902, 41.6632 ], [ -71.4583, 41.6637 ], [ -71.4744, 41.6478 ], [ -71.4648, 41.6389 ], [ -71.488, 41.6163 ], [ -71.4844, 41.6026 ], [ -71.4957, 41.6027 ], [ -71.4865, 41.6201 ] ] ] } },
{ "type": "Feature", "properties": { "GEOIDFQ": "1400000US44003020200", "NAME": "202", "NAMELSAD": "Census Tract 202" }, "geometry": { "type": "Polygon", "coordinates": [ [ [ -71.5223, 41.7035 ], [ -71.5236, 41.7158 ], [ -71.5138, 41.7198 ], [ -71.5144, 41.7144 ], [ -71.5024, 41.7115 ], [ -71.5327, 41.6818 ], [ -71.5331, 41.6953 ], [ -71.5223, 41.7035 ] ] ] } },
{ "type": "Feature", "properties": { "GEOIDFQ": "1400000US44003020903", "NAME": "209.03", "NAMELSAD": "Census Tract 209.03" }, "geometry": { "type": "Polygon", "coordinates": [ [ [ -71.4902, 41.6632 ], [ -71.4865, 41.6201 ], [ -71.4957, 41.6026 ], [ -71.5448, 41.602 ], [ -71.5471, 41.6619 ], [ -71.4902, 41.6632 ] ] ] } },
{ "type": "Feature", "properties": { "GEOIDFQ": "1400000US44003021901", "NAME": "219.01", "NAMELSAD": "Census Tract 219.01" }, "geometry": { "type": "Polygon", "coordinates": [ [ [ -71.447, 41.7139 ], [ -71.4446, 41.7205 ], [ -71.4367, 41.7164 ], [ -71.4415, 41.7105 ], [ -71.4243, 41.7032 ], [ -71.4523, 41.6994 ], [ -71.447, 41.7139 ] ] ] } },
{ "type": "Feature", "properties": { "GEOIDFQ": "1400000US44003021902", "NAME": "219.02", "NAMELSAD": "Census Tract 219.02" }, "geometry": { "type": "Polygon", "coordinates": [ [ [ -71.4261, 41.7213 ], [ -71.4173, 41.7114 ], [ -71.4071, 41.7098 ], [ -71.4243, 41.7032 ], [ -71.436, 41.7087 ], [ -71.4261, 41.7213 ] ] ] } },
{ "type": "Feature", "properties": { "GEOIDFQ": "1400000US44003021903", "NAME": "219.03", "NAMELSAD": "Census Tract 219.03" }, "geometry": { "type": "Polygon", "coordinates": [ [ [ -71.4181, 41.7028 ], [ -71.3932, 41.6696 ], [ -71.4301, 41.6757 ], [ -71.4292, 41.6963 ], [ -71.446, 41.6998 ], [ -71.4181, 41.7028 ] ] ] } },
{ "type": "Feature", "properties": { "GEOIDFQ": "1400000US44007002000", "NAME": "20", "NAMELSAD": "Census Tract 20" }, "geometry": { "type": "Polygon", "coordinates": [ [ [ -71.4646, 41.8421 ], [ -71.4645, 41.8337 ], [ -71.4536, 41.8358 ], [ -71.4564, 41.822 ], [ -71.4709, 41.8219 ], [ -71.4619, 41.8251 ], [ -71.4725, 41.8344 ], [ -71.4646, 41.8421 ] ] ] } },
{ "type": "Feature", "properties": { "GEOIDFQ": "1400000US44007012701", "NAME": "127.01", "NAMELSAD": "Census Tract 127.01" }, "geometry": { "type": "Polygon", "coordinates": [ [ [ -71.5553, 41.9369 ], [ -71.5529, 41.9157 ], [ -71.532, 41.8818 ], [ -71.5369, 41.8772 ], [ -71.5405, 41.8815 ], [ -71.5503, 41.8709 ], [ -71.5794, 41.8818 ], [ -71.5903, 41.9337 ], [ -71.5553, 41.9369 ] ] ] } },
{ "type": "Feature", "properties": { "GEOIDFQ": "1400000US44007014300", "NAME": "143", "NAMELSAD": "Census Tract 143" }, "geometry": { "type": "Polygon", "coordinates": [ [ [ -71.4652, 41.7801 ], [ -71.4561, 41.7843 ], [ -71.4515, 41.7764 ], [ -71.4589, 41.7651 ], [ -71.47, 41.7623 ], [ -71.4652, 41.7801 ] ] ] } },
{ "type": "Feature", "properties": { "GEOIDFQ": "1400000US44007000101", "NAME": "1.01", "NAMELSAD": "Census Tract 1.01" }, "geometry": { "type": "Polygon", "coordinates": [ [ [ -71.3901, 41.8052 ], [ -71.3697, 41.7831 ], [ -71.4017, 41.7859 ], [ -71.4049, 41.7964 ], [ -71.3901, 41.8052 ] ] ] } },
{ "type": "Feature", "properties": { "GEOIDFQ": "1400000US44007010501", "NAME": "105.01", "NAMELSAD": "Census Tract 105.01" }, "geometry": { "type": "Polygon", "coordinates": [ [ [ -71.3646, 41.8125 ], [ -71.3445, 41.809 ], [ -71.3294, 41.7883 ], [ -71.3665, 41.802 ], [ -71.3646, 41.8125 ] ] ] } },
{ "type": "Feature", "properties": { "GEOIDFQ": "1400000US44007015600", "NAME": "156", "NAMELSAD": "Census Tract 156" }, "geometry": { "type": "Polygon", "coordinates": [ [ [ -71.3581, 41.8919 ], [ -71.354, 41.8942 ], [ -71.3541, 41.8879 ], [ -71.3675, 41.8863 ], [ -71.3581, 41.8919 ] ] ] } },
{ "type": "Feature", "properties": { "GEOIDFQ": "1400000US44007012900", "NAME": "129", "NAMELSAD": "Census Tract 129" }, "geometry": { "type": "Polygon", "coordinates": [ [ [ -71.7192, 41.9655 ], [ -71.719, 41.9695 ], [ -71.7122, 41.9657 ], [ -71.7056, 41.9771 ], [ -71.6795, 41.9713 ], [ -71.6746, 41.9654 ], [ -71.6669, 41.98 ], [ -71.6626, 41.9661 ], [ -71.6802, 41.9631 ], [ -71.6853, 41.9479 ], [ -71.7027, 41.9518 ], [ -71.7005, 41.9309 ], [ -71.7079, 41.9307 ], [ -71.7064, 41.9553 ], [ -71.7307, 41.9654 ], [ -71.7192, 41.9655 ] ] ] } },
{ "type": "Feature", "properties": { "GEOIDFQ": "1400000US44007018400", "NAME": "184", "NAMELSAD": "Census Tract 184" }, "geometry": { "type": "Polygon", "coordinates": [ [ [ -71.4913, 42.0174 ], [ -71.4581, 42.0178 ], [ -71.4599, 42.0076 ], [ -71.4695, 42.0018 ], [ -71.4875, 42.0057 ], [ -71.4913, 42.0174 ] ] ] } },
{ "type": "Feature", "properties": { "GEOIDFQ": "1400000US44009051101", "NAME": "511.01", "NAMELSAD": "Census Tract 511.01" }, "geometry": { "type": "Polygon", "coordinates": [ [ [ -71.7236, 41.4044 ], [ -71.73, 41.4145 ], [ -71.7262, 41.4274 ], [ -71.7166, 41.4342 ], [ -71.6998, 41.4303 ], [ -71.6853, 41.4347 ], [ -71.6717, 41.4611 ], [ -71.6552, 41.4591 ], [ -71.6402, 41.446 ], [ -71.6213, 41.446 ], [ -71.6386, 41.4381 ], [ -71.6487, 41.4217 ], [ -71.6385, 41.3946 ], [ -71.6467, 41.37 ], [ -71.6358, 41.3637 ], [ -71.6384, 41.3539 ], [ -71.693, 41.3403 ], [ -71.7121, 41.3302 ], [ -71.7298, 41.3306 ], [ -71.7313, 41.3985 ], [ -71.7236, 41.4044 ] ] ] } },
{ "type": "Feature", "properties": { "GEOIDFQ": "1400000US44005040102", "NAME": "401.02", "NAMELSAD": "Census Tract 401.02" }, "geometry": { "type": "Polygon", "coordinates": [ [ [ -71.2508, 41.5696 ], [ -71.2562, 41.6148 ], [ -71.2381, 41.6209 ], [ -71.233, 41.5344 ], [ -71.225, 41.5288 ], [ -71.2304, 41.513 ], [ -71.2657, 41.5383 ], [ -71.2508, 41.5696 ] ] ] } },
{ "type": "Feature", "properties": { "GEOIDFQ": "1400000US44005040302", "NAME": "403.02", "NAMELSAD": "Census Tract 403.02" }, "geometry": { "type": "Polygon", "coordinates": [ [ [ -71.2933, 41.5189 ], [ -71.2892, 41.5059 ], [ -71.2943, 41.4983 ], [ -71.311, 41.5194 ], [ -71.2933, 41.5189 ] ] ] } },
{ "type": "Feature", "properties": { "GEOIDFQ": "1400000US44005040400", "NAME": "404", "NAMELSAD": "Census Tract 404" }, "geometry": { "type": "Polygon", "coordinates": [ [ [ -71.2892, 41.5059 ], [ -71.2933, 41.5189 ], [ -71.2763, 41.5259 ], [ -71.2657, 41.5382 ], [ -71.2304, 41.513 ], [ -71.2451, 41.4909 ], [ -71.2345, 41.4858 ], [ -71.2373, 41.4755 ], [ -71.2493, 41.4701 ], [ -71.2483, 41.4809 ], [ -71.2653, 41.4876 ], [ -71.2771, 41.4772 ], [ -71.2949, 41.5019 ], [ -71.2892, 41.5059 ] ] ] } },
{ "type": "Feature", "properties": { "GEOIDFQ": "1400000US44005041000", "NAME": "410", "NAMELSAD": "Census Tract 410" }, "geometry": { "type": "Polygon", "coordinates": [ [ [ -71.3201, 41.4801 ], [ -71.3212, 41.486 ], [ -71.3117, 41.4918 ], [ -71.3108, 41.4751 ], [ -71.325, 41.4751 ], [ -71.3201, 41.4801 ] ] ] } },
{ "type": "Feature", "properties": { "GEOIDFQ": "1400000US44005041602", "NAME": "416.02", "NAMELSAD": "Census Tract 416.02" }, "geometry": { "type": "Polygon", "coordinates": [ [ [ -71.2079, 41.6613 ], [ -71.1799, 41.6601 ], [ -71.1865, 41.6296 ], [ -71.2072, 41.6176 ], [ -71.2168, 41.6252 ], [ -71.2079, 41.6613 ] ] ] } },
{ "type": "Feature", "properties": { "GEOIDFQ": "1400000US44005040101", "NAME": "401.01", "NAMELSAD": "Census Tract 401.01" }, "geometry": { "type": "MultiPolygon", "coordinates": [ [ [ [ -71.218, 41.6184 ], [ -71.2192, 41.6128 ], [ -71.2218, 41.6136 ], [ -71.218, 41.6184 ] ] ], [ [ [ -71.2566, 41.6374 ], [ -71.2382, 41.6415 ], [ -71.2168, 41.6582 ], [ -71.2171, 41.6237 ], [ -71.2452, 41.6205 ], [ -71.2459, 41.615 ], [ -71.2569, 41.6183 ], [ -71.2566, 41.6374 ] ] ] ] } },
{ "type": "Feature", "properties": { "GEOIDFQ": "1400000US44005040200", "NAME": "402", "NAMELSAD": "Census Tract 402" }, "geometry": { "type": "Polygon", "coordinates": [ [ [ -71.318, 41.5536 ], [ -71.3136, 41.5686 ], [ -71.3009, 41.5623 ], [ -71.306, 41.5564 ], [ -71.3022, 41.546 ], [ -71.3093, 41.5463 ], [ -71.3016, 41.5337 ], [ -71.3072, 41.5272 ], [ -71.2974, 41.5258 ], [ -71.3002, 41.5182 ], [ -71.3111, 41.5194 ], [ -71.3233, 41.5357 ], [ -71.318, 41.5536 ] ] ] } },
{ "type": "Feature", "properties": { "GEOIDFQ": "1400000US44009050902", "NAME": "509.02", "NAMELSAD": "Census Tract 509.02" }, "geometry": { "type": "Polygon", "coordinates": [ [ [ -71.8144, 41.3449 ], [ -71.8075, 41.3573 ], [ -71.7684, 41.3515 ], [ -71.7732, 41.3644 ], [ -71.7626, 41.379 ], [ -71.7748, 41.3807 ], [ -71.7811, 41.3932 ], [ -71.7723, 41.4007 ], [ -71.7676, 41.3949 ], [ -71.7543, 41.408 ], [ -71.731, 41.4008 ], [ -71.7301, 41.3517 ], [ -71.8216, 41.3271 ], [ -71.833, 41.3328 ], [ -71.8144, 41.3449 ] ] ] } },
{ "type": "Feature", "properties": { "GEOIDFQ": "1400000US44009051503", "NAME": "515.03", "NAMELSAD": "Census Tract 515.03" }, "geometry": { "type": "Polygon", "coordinates": [ [ [ -71.4526, 41.4522 ], [ -71.4381, 41.4389 ], [ -71.4557, 41.4327 ], [ -71.4516, 41.4087 ], [ -71.4688, 41.3913 ], [ -71.4824, 41.3946 ], [ -71.4811, 41.4306 ], [ -71.49, 41.4317 ], [ -71.4526, 41.4522 ] ] ] } },
{ "type": "Feature", "properties": { "GEOIDFQ": "1400000US44009051102", "NAME": "511.02", "NAMELSAD": "Census Tract 511.02" }, "geometry": { "type": "Polygon", "coordinates": [ [ [ -71.6384, 41.4383 ], [ -71.6123, 41.452 ], [ -71.5961, 41.4474 ], [ -71.6256, 41.3608 ], [ -71.6384, 41.3539 ], [ -71.6358, 41.3637 ], [ -71.6467, 41.37 ], [ -71.6385, 41.3946 ], [ -71.6487, 41.4212 ], [ -71.6384, 41.4383 ] ] ] } },
{ "type": "Feature", "properties": { "GEOIDFQ": "1400000US44009051302", "NAME": "513.02", "NAMELSAD": "Census Tract 513.02" }, "geometry": { "type": "Polygon", "coordinates": [ [ [ -71.614, 41.3935 ], [ -71.5451, 41.3979 ], [ -71.5341, 41.4029 ], [ -71.5226, 41.4262 ], [ -71.4987, 41.4284 ], [ -71.4971, 41.4175 ], [ -71.5032, 41.4176 ], [ -71.5234, 41.3759 ], [ -71.6256, 41.3608 ], [ -71.614, 41.3935 ] ] ] } },
{ "type": "Feature", "properties": { "GEOIDFQ": "1400000US44009050104", "NAME": "501.04", "NAMELSAD": "Census Tract 501.04" }, "geometry": { "type": "Polygon", "coordinates": [ [ [ -71.4592, 41.638 ], [ -71.4514, 41.6295 ], [ -71.4328, 41.6513 ], [ -71.4051, 41.6519 ], [ -71.4048, 41.6349 ], [ -71.4243, 41.6195 ], [ -71.4451, 41.6204 ], [ -71.4577, 41.6146 ], [ -71.4678, 41.6342 ], [ -71.4592, 41.638 ] ] ] } },
{ "type": "Feature", "properties": { "GEOIDFQ": "1400000US44009050802", "NAME": "508.02", "NAMELSAD": "Census Tract 508.02" }, "geometry": { "type": "Polygon", "coordinates": [ [ [ -71.832, 41.37 ], [ -71.8175, 41.371 ], [ -71.8075, 41.3573 ], [ -71.8268, 41.3357 ], [ -71.8379, 41.3601 ], [ -71.832, 41.37 ] ] ] } },
{ "type": "Feature", "properties": { "GEOIDFQ": "1400000US44009050301", "NAME": "503.01", "NAMELSAD": "Census Tract 503.01" }, "geometry": { "type": "Polygon", "coordinates": [ [ [ -71.5184, 41.594 ], [ -71.4925, 41.5947 ], [ -71.459, 41.5868 ], [ -71.4686, 41.54 ], [ -71.485, 41.5511 ], [ -71.4956, 41.5739 ], [ -71.5189, 41.5647 ], [ -71.5184, 41.594 ] ] ] } },
{ "type": "Feature", "properties": { "GEOIDFQ": "1400000US44009050401", "NAME": "504.01", "NAMELSAD": "Census Tract 504.01" }, "geometry": { "type": "Polygon", "coordinates": [ [ [ -71.5189, 41.5647 ], [ -71.4956, 41.5739 ], [ -71.485, 41.5511 ], [ -71.4686, 41.54 ], [ -71.4581, 41.4991 ], [ -71.5079, 41.5001 ], [ -71.5196, 41.5303 ], [ -71.5189, 41.5647 ] ] ] } },
{ "type": "Feature", "properties": { "GEOIDFQ": "1400000US44007011404", "NAME": "114.04", "NAMELSAD": "Census Tract 114.04" }, "geometry": { "type": "Polygon", "coordinates": [ [ [ -71.3913, 41.9777 ], [ -71.3814, 41.9828 ], [ -71.3814, 41.9477 ], [ -71.4037, 41.9465 ], [ -71.3998, 41.976 ], [ -71.405, 41.9817 ], [ -71.3913, 41.9777 ] ] ] } },
{ "type": "Feature", "properties": { "GEOIDFQ": "1400000US44007012102", "NAME": "121.02", "NAMELSAD": "Census Tract 121.02" }, "geometry": { "type": "Polygon", "coordinates": [ [ [ -71.4752, 41.8548 ], [ -71.4681, 41.8478 ], [ -71.4725, 41.837 ], [ -71.4861, 41.8543 ], [ -71.4752, 41.8548 ] ] ] } },
{ "type": "Feature", "properties": { "GEOIDFQ": "1400000US44007012402", "NAME": "124.02", "NAMELSAD": "Census Tract 124.02" }, "geometry": { "type": "Polygon", "coordinates": [ [ [ -71.4709, 41.8219 ], [ -71.4671, 41.8045 ], [ -71.4898, 41.8049 ], [ -71.4967, 41.8172 ], [ -71.4709, 41.8219 ] ] ] } },
{ "type": "Feature", "properties": { "GEOIDFQ": "1400000US44009051400", "NAME": "514", "NAMELSAD": "Census Tract 514" }, "geometry": { "type": "Polygon", "coordinates": [ [ [ -71.5305, 41.5038 ], [ -71.5149, 41.5013 ], [ -71.5226, 41.4799 ], [ -71.551, 41.4827 ], [ -71.5305, 41.5038 ] ] ] } },
{ "type": "Feature", "properties": { "GEOIDFQ": "1400000US44005040105", "NAME": "401.05", "NAMELSAD": "Census Tract 401.05" }, "geometry": { "type": "MultiPolygon", "coordinates": [ [ [ [ -71.2771, 41.6236 ], [ -71.2566, 41.6374 ], [ -71.2536, 41.5902 ], [ -71.265, 41.5938 ], [ -71.2738, 41.5889 ], [ -71.2872, 41.5959 ], [ -71.2771, 41.6236 ] ] ], [ [ [ -71.2901, 41.6488 ], [ -71.2757, 41.6507 ], [ -71.2659, 41.6385 ], [ -71.2711, 41.6333 ], [ -71.2871, 41.6339 ], [ -71.2901, 41.6488 ] ] ], [ [ [ -71.3525, 41.6601 ], [ -71.3534, 41.6661 ], [ -71.3433, 41.6694 ], [ -71.3292, 41.647 ], [ -71.3338, 41.6386 ], [ -71.3165, 41.6343 ], [ -71.3027, 41.6229 ], [ -71.2992, 41.6067 ], [ -71.3128, 41.5834 ], [ -71.3254, 41.5766 ], [ -71.3399, 41.589 ], [ -71.3287, 41.624 ], [ -71.3506, 41.6304 ], [ -71.3558, 41.6423 ], [ -71.3499, 41.6548 ], [ -71.3609, 41.6476 ], [ -71.3696, 41.6607 ], [ -71.3525, 41.6601 ] ] ], [ [ [ -71.3706, 41.6079 ], [ -71.3596, 41.6102 ], [ -71.3612, 41.5996 ], [ -71.3765, 41.5985 ], [ -71.3706, 41.6079 ] ] ] ] } },
{ "type": "Feature", "properties": { "GEOIDFQ": "1400000US44005040104", "NAME": "401.04", "NAMELSAD": "Census Tract 401.04" }, "geometry": { "type": "Polygon", "coordinates": [ [ [ -71.303, 41.585 ], [ -71.2888, 41.596 ], [ -71.2738, 41.5889 ], [ -71.265, 41.5938 ], [ -71.2536, 41.5902 ], [ -71.2508, 41.5691 ], [ -71.2657, 41.5383 ], [ -71.3054, 41.5678 ], [ -71.303, 41.585 ] ] ] } },
{ "type": "Feature", "properties": { "GEOIDFQ": "1400000US44007000800", "NAME": "8", "NAMELSAD": "Census Tract 8" }, "geometry": { "type": "Polygon", "coordinates": [ [ [ -71.4174, 41.832 ], [ -71.4106, 41.8315 ], [ -71.4049, 41.82 ], [ -71.4153, 41.8169 ], [ -71.4174, 41.832 ] ] ] } },
{ "type": "Feature", "properties": { "GEOIDFQ": "1400000US44007000900", "NAME": "9", "NAMELSAD": "Census Tract 9" }, "geometry": { "type": "Polygon", "coordinates": [ [ [ -71.4273, 41.8258 ], [ -71.4188, 41.826 ], [ -71.4208, 41.8218 ], [ -71.4336, 41.8242 ], [ -71.4273, 41.8258 ] ] ] } },
{ "type": "Feature", "properties": { "GEOIDFQ": "1400000US44007001000", "NAME": "10", "NAMELSAD": "Census Tract 10" }, "geometry": { "type": "Polygon", "coordinates": [ [ [ -71.4359, 41.8225 ], [ -71.4323, 41.824 ], [ -71.4305, 41.8167 ], [ -71.4395, 41.816 ], [ -71.4359, 41.8225 ] ] ] } },
{ "type": "Feature", "properties": { "GEOIDFQ": "1400000US44007001100", "NAME": "11", "NAMELSAD": "Census Tract 11" }, "geometry": { "type": "Polygon", "coordinates": [ [ [ -71.4211, 41.8221 ], [ -71.4183, 41.819 ], [ -71.4305, 41.8167 ], [ -71.4318, 41.8207 ], [ -71.4211, 41.8221 ] ] ] } },
{ "type": "Feature", "properties": { "GEOIDFQ": "1400000US44007001200", "NAME": "12", "NAMELSAD": "Census Tract 12" }, "geometry": { "type": "Polygon", "coordinates": [ [ [ -71.4223, 41.8174 ], [ -71.4246, 41.8088 ], [ -71.428, 41.8091 ], [ -71.4313, 41.8166 ], [ -71.4223, 41.8174 ] ] ] } },
{ "type": "Feature", "properties": { "GEOIDFQ": "1400000US44007001300", "NAME": "13", "NAMELSAD": "Census Tract 13" }, "geometry": { "type": "Polygon", "coordinates": [ [ [ -71.4395, 41.816 ], [ -71.4313, 41.8166 ], [ -71.4334, 41.8096 ], [ -71.4406, 41.8103 ], [ -71.4395, 41.816 ] ] ] } },
{ "type": "Feature", "properties": { "GEOIDFQ": "1400000US44007001500", "NAME": "15", "NAMELSAD": "Census Tract 15" }, "geometry": { "type": "Polygon", "coordinates": [ [ [ -71.4296, 41.7995 ], [ -71.4217, 41.7862 ], [ -71.4368, 41.7887 ], [ -71.4399, 41.8034 ], [ -71.4296, 41.7995 ] ] ] } },
{ "type": "Feature", "properties": { "GEOIDFQ": "1400000US44007000200", "NAME": "2", "NAMELSAD": "Census Tract 2" }, "geometry": { "type": "Polygon", "coordinates": [ [ [ -71.4174, 41.8004 ], [ -71.4094, 41.794 ], [ -71.4217, 41.7862 ], [ -71.4264, 41.7951 ], [ -71.4174, 41.8004 ] ] ] } },
{ "type": "Feature", "properties": { "GEOIDFQ": "1400000US44007000301", "NAME": "3.01", "NAMELSAD": "Census Tract 3.01" }, "geometry": { "type": "Polygon", "coordinates": [ [ [ -71.428, 41.8091 ], [ -71.4246, 41.8088 ], [ -71.4265, 41.795 ], [ -71.4317, 41.8006 ], [ -71.428, 41.8091 ] ] ] } },
{ "type": "Feature", "properties": { "GEOIDFQ": "1400000US44007002802", "NAME": "28.02", "NAMELSAD": "Census Tract 28.02" }, "geometry": { "type": "Polygon", "coordinates": [ [ [ -71.4299, 41.8613 ], [ -71.4283, 41.8492 ], [ -71.4308, 41.8476 ], [ -71.443, 41.8566 ], [ -71.4299, 41.8613 ] ] ] } },
{ "type": "Feature", "properties": { "GEOIDFQ": "1400000US44007001601", "NAME": "16.01", "NAMELSAD": "Census Tract 16.01" }, "geometry": { "type": "Polygon", "coordinates": [ [ [ -71.4395, 41.816 ], [ -71.4408, 41.8086 ], [ -71.4434, 41.8122 ], [ -71.4558, 41.8153 ], [ -71.4395, 41.816 ] ] ] } },
{ "type": "Feature", "properties": { "GEOIDFQ": "1400000US44007001602", "NAME": "16.02", "NAMELSAD": "Census Tract 16.02" }, "geometry": { "type": "Polygon", "coordinates": [ [ [ -71.4434, 41.8122 ], [ -71.4413, 41.8048 ], [ -71.4523, 41.8061 ], [ -71.4554, 41.8132 ], [ -71.4434, 41.8122 ] ] ] } },
{ "type": "Feature", "properties": { "GEOIDFQ": "1400000US44007013201", "NAME": "132.01", "NAMELSAD": "Census Tract 132.01" }, "geometry": { "type": "Polygon", "coordinates": [ [ [ -71.5746, 41.8587 ], [ -71.5474, 41.73 ], [ -71.5862, 41.7291 ], [ -71.577, 41.7386 ], [ -71.597, 41.7405 ], [ -71.5889, 41.7507 ], [ -71.6025, 41.7786 ], [ -71.5914, 41.8258 ], [ -71.5951, 41.835 ], [ -71.6101, 41.8393 ], [ -71.6077, 41.8526 ], [ -71.6131, 41.8578 ], [ -71.5746, 41.8587 ] ] ] } },
{ "type": "Feature", "properties": { "GEOIDFQ": "1400000US44007000302", "NAME": "3.02", "NAMELSAD": "Census Tract 3.02" }, "geometry": { "type": "Polygon", "coordinates": [ [ [ -71.4246, 41.809 ], [ -71.4219, 41.8128 ], [ -71.4174, 41.8004 ], [ -71.4265, 41.8002 ], [ -71.4246, 41.809 ] ] ] } },
{ "type": "Feature", "properties": { "GEOIDFQ": "1400000US44007002801", "NAME": "28.01", "NAMELSAD": "Census Tract 28.01" }, "geometry": { "type": "Polygon", "coordinates": [ [ [ -71.443, 41.8566 ], [ -71.429, 41.8461 ], [ -71.4437, 41.851 ], [ -71.443, 41.8566 ] ] ] } },
{ "type": "Feature", "properties": { "GEOIDFQ": "1400000US44007011405", "NAME": "114.05", "NAMELSAD": "Census Tract 114.05" }, "geometry": { "type": "Polygon", "coordinates": [ [ [ -71.4185, 41.971 ], [ -71.4161, 41.9825 ], [ -71.405, 41.9819 ], [ -71.3998, 41.976 ], [ -71.4037, 41.946 ], [ -71.4124, 41.9478 ], [ -71.4296, 41.9376 ], [ -71.4478, 41.9677 ], [ -71.4185, 41.971 ] ] ] } },
{ "type": "Feature", "properties": { "GEOIDFQ": "1400000US44003020901", "NAME": "209.01", "NAMELSAD": "Census Tract 209.01" }, "geometry": { "type": "Polygon", "coordinates": [ [ [ -71.4583, 41.6637 ], [ -71.4423, 41.664 ], [ -71.4522, 41.6485 ], [ -71.4659, 41.6429 ], [ -71.4743, 41.6478 ], [ -71.4583, 41.6637 ] ] ] } },
{ "type": "Feature", "properties": { "GEOIDFQ": "1400000US44003021402", "NAME": "214.02", "NAMELSAD": "Census Tract 214.02" }, "geometry": { "type": "Polygon", "coordinates": [ [ [ -71.3819, 41.7235 ], [ -71.3847, 41.7162 ], [ -71.4016, 41.7181 ], [ -71.407, 41.7335 ], [ -71.3819, 41.7235 ] ] ] } },
{ "type": "Feature", "properties": { "GEOIDFQ": "1400000US44007002101", "NAME": "21.01", "NAMELSAD": "Census Tract 21.01" }, "geometry": { "type": "Polygon", "coordinates": [ [ [ -71.4449, 41.839 ], [ -71.4445, 41.8324 ], [ -71.4528, 41.8324 ], [ -71.4449, 41.839 ] ] ] } },
{ "type": "Feature", "properties": { "GEOIDFQ": "1400000US44007002102", "NAME": "21.02", "NAMELSAD": "Census Tract 21.02" }, "geometry": { "type": "Polygon", "coordinates": [ [ [ -71.4547, 41.8322 ], [ -71.4445, 41.8324 ], [ -71.4434, 41.8248 ], [ -71.457, 41.8262 ], [ -71.4547, 41.8322 ] ] ] } },
{ "type": "Feature", "properties": { "GEOIDFQ": "1400000US44007012104", "NAME": "121.04", "NAMELSAD": "Census Tract 121.04" }, "geometry": { "type": "Polygon", "coordinates": [ [ [ -71.4727, 41.8708 ], [ -71.472, 41.8663 ], [ -71.4823, 41.8639 ], [ -71.48, 41.8587 ], [ -71.471, 41.8588 ], [ -71.4861, 41.8543 ], [ -71.4955, 41.869 ], [ -71.4727, 41.8708 ] ] ] } },
{ "type": "Feature", "properties": { "GEOIDFQ": "1400000US44007011902", "NAME": "119.02", "NAMELSAD": "Census Tract 119.02" }, "geometry": { "type": "Polygon", "coordinates": [ [ [ -71.4633, 41.8735 ], [ -71.4382, 41.8766 ], [ -71.4403, 41.8668 ], [ -71.4633, 41.8613 ], [ -71.4755, 41.8716 ], [ -71.4633, 41.8735 ] ] ] } },
{ "type": "Feature", "properties": { "GEOIDFQ": "1400000US44007011901", "NAME": "119.01", "NAMELSAD": "Census Tract 119.01" }, "geometry": { "type": "Polygon", "coordinates": [ [ [ -71.4403, 41.8668 ], [ -71.435, 41.8618 ], [ -71.4467, 41.854 ], [ -71.4611, 41.8617 ], [ -71.4403, 41.8668 ] ] ] } },
{ "type": "Feature", "properties": { "GEOIDFQ": "1400000US44007012103", "NAME": "121.03", "NAMELSAD": "Census Tract 121.03" }, "geometry": { "type": "Polygon", "coordinates": [ [ [ -71.4713, 41.867 ], [ -71.4633, 41.8613 ], [ -71.48, 41.8587 ], [ -71.4822, 41.864 ], [ -71.4713, 41.867 ] ] ] } },
{ "type": "Feature", "properties": { "GEOIDFQ": "1400000US44007013800", "NAME": "138", "NAMELSAD": "Census Tract 138" }, "geometry": { "type": "Polygon", "coordinates": [ [ [ -71.4513, 41.7733 ], [ -71.426, 41.7715 ], [ -71.4299, 41.7608 ], [ -71.4388, 41.7578 ], [ -71.4513, 41.7733 ] ] ] } },
{ "type": "Feature", "properties": { "GEOIDFQ": "1400000US44003022202", "NAME": "222.02", "NAMELSAD": "Census Tract 222.02" }, "geometry": { "type": "Polygon", "coordinates": [ [ [ -71.4905, 41.7098 ], [ -71.4737, 41.7023 ], [ -71.478, 41.674 ], [ -71.4902, 41.6632 ], [ -71.4992, 41.6629 ], [ -71.501, 41.688 ], [ -71.4905, 41.7098 ] ] ] } },
{ "type": "Feature", "properties": { "GEOIDFQ": "1400000US44007018100", "NAME": "181", "NAMELSAD": "Census Tract 181" }, "geometry": { "type": "Polygon", "coordinates": [ [ [ -71.5116, 42.0163 ], [ -71.4913, 42.0174 ], [ -71.5001, 42.0153 ], [ -71.5007, 42.0095 ], [ -71.5131, 42.0114 ], [ -71.5116, 42.0163 ] ] ] } },
{ "type": "Feature", "properties": { "GEOIDFQ": "1400000US44007018200", "NAME": "182", "NAMELSAD": "Census Tract 182" }, "geometry": { "type": "Polygon", "coordinates": [ [ [ -71.5001, 42.0153 ], [ -71.4918, 42.0156 ], [ -71.4897, 42.0075 ], [ -71.5007, 42.0095 ], [ -71.5001, 42.0153 ] ] ] } },
{ "type": "Feature", "properties": { "GEOIDFQ": "1400000US44007018300", "NAME": "183", "NAMELSAD": "Census Tract 183" }, "geometry": { "type": "Polygon", "coordinates": [ [ [ -71.5007, 42.0095 ], [ -71.4988, 42.0072 ], [ -71.4914, 42.0081 ], [ -71.4875, 42.0057 ], [ -71.4982, 42.0031 ], [ -71.5007, 42.0095 ] ] ] } },
{ "type": "Feature", "properties": { "GEOIDFQ": "1400000US44007010502", "NAME": "105.02", "NAMELSAD": "Census Tract 105.02" }, "geometry": { "type": "Polygon", "coordinates": [ [ [ -71.3741, 41.8028 ], [ -71.3625, 41.8006 ], [ -71.3294, 41.7883 ], [ -71.3297, 41.7819 ], [ -71.3179, 41.7762 ], [ -71.3247, 41.7712 ], [ -71.3334, 41.7799 ], [ -71.3484, 41.7802 ], [ -71.3551, 41.7745 ], [ -71.3577, 41.7795 ], [ -71.377, 41.7779 ], [ -71.3782, 41.7844 ], [ -71.3701, 41.7862 ], [ -71.3808, 41.7963 ], [ -71.3741, 41.8028 ] ] ] } },
{ "type": "Feature", "properties": { "GEOIDFQ": "1400000US44007011200", "NAME": "112", "NAMELSAD": "Census Tract 112" }, "geometry": { "type": "Polygon", "coordinates": [ [ [ -71.3849, 41.9199 ], [ -71.3815, 41.8935 ], [ -71.3859, 41.8996 ], [ -71.4005, 41.9014 ], [ -71.3971, 41.9109 ], [ -71.4051, 41.9164 ], [ -71.3849, 41.9199 ] ] ] } },
{ "type": "Feature", "properties": { "GEOIDFQ": "1400000US44007018500", "NAME": "185", "NAMELSAD": "Census Tract 185" }, "geometry": { "type": "Polygon", "coordinates": [ [ [ -71.4637, 42.0036 ], [ -71.4874, 41.9791 ], [ -71.4929, 41.9951 ], [ -71.4988, 42.0048 ], [ -71.4637, 42.0036 ] ] ] } },
{ "type": "Feature", "properties": { "GEOIDFQ": "1400000US44007013001", "NAME": "130.01", "NAMELSAD": "Census Tract 130.01" }, "geometry": { "type": "Polygon", "coordinates": [ [ [ -71.7992, 42.0081 ], [ -71.678, 42.0116 ], [ -71.6837, 41.9934 ], [ -71.6784, 41.9709 ], [ -71.7058, 41.9771 ], [ -71.7122, 41.9657 ], [ -71.719, 41.9695 ], [ -71.7192, 41.9655 ], [ -71.7307, 41.9654 ], [ -71.7064, 41.9553 ], [ -71.7092, 41.9307 ], [ -71.7978, 41.9286 ], [ -71.7992, 42.0081 ] ] ] } },
{ "type": "Feature", "properties": { "GEOIDFQ": "1400000US44007011500", "NAME": "115", "NAMELSAD": "Census Tract 115" }, "geometry": { "type": "Polygon", "coordinates": [ [ [ -71.484, 41.9443 ], [ -71.4874, 41.9791 ], [ -71.4649, 41.9691 ], [ -71.4618, 41.9574 ], [ -71.434, 41.9382 ], [ -71.4498, 41.9346 ], [ -71.4566, 41.9404 ], [ -71.4761, 41.9427 ], [ -71.4845, 41.925 ], [ -71.4908, 41.9432 ], [ -71.484, 41.9443 ] ] ] } },
{ "type": "Feature", "properties": { "GEOIDFQ": "1400000US44007012500", "NAME": "125", "NAMELSAD": "Census Tract 125" }, "geometry": { "type": "Polygon", "coordinates": [ [ [ -71.5296, 41.8032 ], [ -71.5168, 41.8058 ], [ -71.4728, 41.8017 ], [ -71.4637, 41.805 ], [ -71.4677, 41.798 ], [ -71.5031, 41.7891 ], [ -71.5341, 41.7935 ], [ -71.5296, 41.8032 ] ] ] } },
{ "type": "Feature", "properties": { "GEOIDFQ": "1400000US44007010102", "NAME": "101.02", "NAMELSAD": "Census Tract 101.02" }, "geometry": { "type": "Polygon", "coordinates": [ [ [ -71.352, 41.8456 ], [ -71.3545, 41.8595 ], [ -71.3347, 41.8613 ], [ -71.3425, 41.8447 ], [ -71.3354, 41.8356 ], [ -71.3483, 41.8248 ], [ -71.3599, 41.8336 ], [ -71.352, 41.8456 ] ] ] } },
{ "type": "Feature", "properties": { "GEOIDFQ": "1400000US44007011301", "NAME": "113.01", "NAMELSAD": "Census Tract 113.01" }, "geometry": { "type": "Polygon", "coordinates": [ [ [ -71.4119, 41.948 ], [ -71.4039, 41.9463 ], [ -71.3953, 41.9174 ], [ -71.4051, 41.9164 ], [ -71.4065, 41.9114 ], [ -71.429, 41.9241 ], [ -71.434, 41.9382 ], [ -71.4119, 41.948 ] ] ] } },
{ "type": "Feature", "properties": { "GEOIDFQ": "1400000US44007017400", "NAME": "174", "NAMELSAD": "Census Tract 174" }, "geometry": { "type": "Polygon", "coordinates": [ [ [ -71.5182, 42.0046 ], [ -71.5315, 41.9937 ], [ -71.5333, 41.9934 ], [ -71.54, 42.0098 ], [ -71.5182, 42.0046 ] ] ] } },
{ "type": "Feature", "properties": { "GEOIDFQ": "1400000US44007011402", "NAME": "114.02", "NAMELSAD": "Census Tract 114.02" }, "geometry": { "type": "Polygon", "coordinates": [ [ [ -71.4581, 42.0178 ], [ -71.3814, 42.0188 ], [ -71.3814, 41.9828 ], [ -71.3913, 41.9777 ], [ -71.4161, 41.9825 ], [ -71.4185, 41.971 ], [ -71.4478, 41.9677 ], [ -71.4606, 41.9785 ], [ -71.4609, 41.9882 ], [ -71.4727, 41.9943 ], [ -71.4581, 42.0178 ] ] ] } },
{ "type": "Feature", "properties": { "GEOIDFQ": "1400000US44007012200", "NAME": "122", "NAMELSAD": "Census Tract 122" }, "geometry": { "type": "Polygon", "coordinates": [ [ [ -71.5315, 41.8643 ], [ -71.5256, 41.8563 ], [ -71.502, 41.8468 ], [ -71.5018, 41.8312 ], [ -71.5079, 41.8268 ], [ -71.491, 41.8058 ], [ -71.5275, 41.8037 ], [ -71.5342, 41.7932 ], [ -71.5599, 41.7894 ], [ -71.5746, 41.8587 ], [ -71.5315, 41.8643 ] ] ] } },
{ "type": "Feature", "properties": { "GEOIDFQ": "1400000US44009050302", "NAME": "503.02", "NAMELSAD": "Census Tract 503.02" }, "geometry": { "type": "Polygon", "coordinates": [ [ [ -71.4592, 41.5836 ], [ -71.4357, 41.5726 ], [ -71.441, 41.5674 ], [ -71.4338, 41.5637 ], [ -71.4448, 41.56 ], [ -71.4413, 41.5486 ], [ -71.4679, 41.5439 ], [ -71.4592, 41.5836 ] ] ] } },
{ "type": "Feature", "properties": { "GEOIDFQ": "1400000US44009051202", "NAME": "512.02", "NAMELSAD": "Census Tract 512.02" }, "geometry": { "type": "Polygon", "coordinates": [ [ [ -71.5019, 41.4523 ], [ -71.4913, 41.4464 ], [ -71.4859, 41.451 ], [ -71.4868, 41.4637 ], [ -71.4635, 41.4664 ], [ -71.4798, 41.441 ], [ -71.4751, 41.4389 ], [ -71.4955, 41.4241 ], [ -71.5051, 41.4357 ], [ -71.5119, 41.4349 ], [ -71.5019, 41.4523 ] ] ] } },
{ "type": "Feature", "properties": { "GEOIDFQ": "1400000US44009051201", "NAME": "512.01", "NAMELSAD": "Census Tract 512.01" }, "geometry": { "type": "Polygon", "coordinates": [ [ [ -71.5085, 41.4625 ], [ -71.4868, 41.4637 ], [ -71.4901, 41.4464 ], [ -71.5019, 41.4523 ], [ -71.5159, 41.4329 ], [ -71.5282, 41.454 ], [ -71.5085, 41.4625 ] ] ] } },
{ "type": "Feature", "properties": { "GEOIDFQ": "1400000US44007016300", "NAME": "163", "NAMELSAD": "Census Tract 163" }, "geometry": { "type": "Polygon", "coordinates": [ [ [ -71.3987, 41.8734 ], [ -71.4055, 41.8567 ], [ -71.4174, 41.8597 ], [ -71.4199, 41.8698 ], [ -71.3987, 41.8734 ] ] ] } },
{ "type": "Feature", "properties": { "GEOIDFQ": "1400000US44007003300", "NAME": "33", "NAMELSAD": "Census Tract 33" }, "geometry": { "type": "Polygon", "coordinates": [ [ [ -71.4055, 41.8567 ], [ -71.3911, 41.8569 ], [ -71.3933, 41.8468 ], [ -71.4052, 41.8468 ], [ -71.408, 41.842 ], [ -71.4055, 41.8567 ] ] ] } },
{ "type": "Feature", "properties": { "GEOIDFQ": "1400000US44007003400", "NAME": "34", "NAMELSAD": "Census Tract 34" }, "geometry": { "type": "Polygon", "coordinates": [ [ [ -71.3926, 41.8413 ], [ -71.3911, 41.8569 ], [ -71.3745, 41.8571 ], [ -71.3731, 41.8366 ], [ -71.4016, 41.8357 ], [ -71.3926, 41.8413 ] ] ] } },
{ "type": "Feature", "properties": { "GEOIDFQ": "1400000US44007017500", "NAME": "175", "NAMELSAD": "Census Tract 175" }, "geometry": { "type": "Polygon", "coordinates": [ [ [ -71.5252, 41.9979 ], [ -71.5178, 41.9942 ], [ -71.5158, 41.9833 ], [ -71.5333, 41.9934 ], [ -71.5252, 41.9979 ] ] ] } },
{ "type": "Feature", "properties": { "GEOIDFQ": "1400000US44009990200", "NAME": "9902", "NAMELSAD": "Census Tract 9902" }, "geometry": { "type": "Polygon", "coordinates": [ [ [ -71.6679, 41.2006 ], [ -71.643, 41.2313 ], [ -71.6408, 41.2501 ], [ -71.6245, 41.2741 ], [ -71.5707, 41.294 ], [ -71.536, 41.2862 ], [ -71.5163, 41.2715 ], [ -71.4865, 41.2269 ], [ -71.4898, 41.1947 ], [ -71.4786, 41.1758 ], [ -71.477, 41.1557 ], [ -71.4995, 41.1175 ], [ -71.5358, 41.1017 ], [ -71.6117, 41.0974 ], [ -71.6403, 41.1084 ], [ -71.6683, 41.1282 ], [ -71.6788, 41.1589 ], [ -71.6679, 41.2006 ] ], [ [ -71.6111, 41.151 ], [ -71.593, 41.1455 ], [ -71.5517, 41.1503 ], [ -71.5434, 41.1568 ], [ -71.5517, 41.1784 ], [ -71.5596, 41.1762 ], [ -71.5644, 41.1854 ], [ -71.5541, 41.216 ], [ -71.5766, 41.2333 ], [ -71.581, 41.2051 ], [ -71.5907, 41.1981 ], [ -71.5946, 41.2012 ], [ -71.6145, 41.1589 ], [ -71.6111, 41.151 ] ] ] } },
{ "type": "Feature", "properties": { "GEOIDFQ": "1400000US44009990100", "NAME": "9901", "NAMELSAD": "Census Tract 9901" }, "geometry": { "type": "Polygon", "coordinates": [ [ [ -71.8937, 41.3265 ], [ -71.8868, 41.3213 ], [ -71.8896, 41.3039 ], [ -71.8643, 41.3092 ], [ -71.8584, 41.302 ], [ -71.8133, 41.3193 ], [ -71.7121, 41.3302 ], [ -71.693, 41.3403 ], [ -71.62, 41.3612 ], [ -71.5518, 41.3732 ], [ -71.5177, 41.374 ], [ -71.512, 41.3523 ], [ -71.4803, 41.359 ], [ -71.4727, 41.3871 ], [ -71.4516, 41.4087 ], [ -71.4557, 41.4327 ], [ -71.4329, 41.4419 ], [ -71.4243, 41.4559 ], [ -71.4293, 41.4706 ], [ -71.4191, 41.468 ], [ -71.4171, 41.4735 ], [ -71.42, 41.4995 ], [ -71.4129, 41.5192 ], [ -71.4238, 41.5442 ], [ -71.4147, 41.5545 ], [ -71.4333, 41.5591 ], [ -71.441, 41.5674 ], [ -71.4296, 41.5829 ], [ -71.4059, 41.585 ], [ -71.4019, 41.5899 ], [ -71.401, 41.6021 ], [ -71.4151, 41.6055 ], [ -71.4, 41.616 ], [ -71.4082, 41.6538 ], [ -71.3805, 41.6503 ], [ -71.4011, 41.5177 ], [ -71.413, 41.4987 ], [ -71.409, 41.4683 ], [ -71.46, 41.3751 ], [ -71.5094, 41.3077 ], [ -71.5753, 41.321 ], [ -71.695, 41.2826 ], [ -71.7915, 41.2722 ], [ -71.791, 41.1841 ], [ -71.9072, 41.3045 ], [ -71.8937, 41.3265 ] ] ] } },
{ "type": "Feature", "properties": { "GEOIDFQ": "1400000US44005041200", "NAME": "412", "NAMELSAD": "Census Tract 412" }, "geometry": { "type": "Polygon", "coordinates": [ [ [ -71.3253, 41.5267 ], [ -71.3131, 41.522 ], [ -71.3198, 41.5004 ], [ -71.3353, 41.5058 ], [ -71.3356, 41.5196 ], [ -71.3253, 41.5267 ] ] ] } },
{ "type": "Feature", "properties": { "GEOIDFQ": "1400000US44005040303", "NAME": "403.03", "NAMELSAD": "Census Tract 403.03" }, "geometry": { "type": "Polygon", "coordinates": [ [ [ -71.3022, 41.546 ], [ -71.3014, 41.5618 ], [ -71.2908, 41.5542 ], [ -71.2974, 41.5258 ], [ -71.3072, 41.5272 ], [ -71.3016, 41.5337 ], [ -71.3093, 41.5463 ], [ -71.3022, 41.546 ] ] ] } },
{ "type": "Feature", "properties": { "GEOIDFQ": "1400000US44005041100", "NAME": "411", "NAMELSAD": "Census Tract 411" }, "geometry": { "type": "MultiPolygon", "coordinates": [ [ [ [ -71.33, 41.4944 ], [ -71.3243, 41.4937 ], [ -71.3188, 41.5068 ], [ -71.3152, 41.49 ], [ -71.3258, 41.4801 ], [ -71.3324, 41.4867 ], [ -71.33, 41.4944 ] ] ], [ [ [ -71.3403, 41.501 ], [ -71.336, 41.495 ], [ -71.3413, 41.4923 ], [ -71.3403, 41.501 ] ] ] ] } },
{ "type": "Feature", "properties": { "GEOIDFQ": "1400000US44005041400", "NAME": "414", "NAMELSAD": "Census Tract 414" }, "geometry": { "type": "Polygon", "coordinates": [ [ [ -71.1278, 41.5632 ], [ -71.1199, 41.4951 ], [ -71.1367, 41.4899 ], [ -71.1415, 41.4756 ], [ -71.1645, 41.4696 ], [ -71.1693, 41.4584 ], [ -71.1953, 41.4534 ], [ -71.2008, 41.4587 ], [ -71.1949, 41.4835 ], [ -71.2091, 41.4992 ], [ -71.2039, 41.5151 ], [ -71.2111, 41.5272 ], [ -71.2083, 41.5416 ], [ -71.2146, 41.5449 ], [ -71.1278, 41.5632 ] ] ] } },
{ "type": "Feature", "properties": { "GEOIDFQ": "1400000US44005041601", "NAME": "416.01", "NAMELSAD": "Census Tract 416.01" }, "geometry": { "type": "Polygon", "coordinates": [ [ [ -71.1983, 41.6784 ], [ -71.1758, 41.6715 ], [ -71.1799, 41.6601 ], [ -71.2079, 41.6613 ], [ -71.1983, 41.6784 ] ] ] } },
{ "type": "Feature", "properties": { "GEOIDFQ": "1400000US44005040600", "NAME": "406", "NAMELSAD": "Census Tract 406" }, "geometry": { "type": "Polygon", "coordinates": [ [ [ -71.3092, 41.5035 ], [ -71.3024, 41.507 ], [ -71.3022, 41.4954 ], [ -71.3157, 41.4939 ], [ -71.3092, 41.5035 ] ] ] } },
{ "type": "Feature", "properties": { "GEOIDFQ": "1400000US44005040700", "NAME": "407", "NAMELSAD": "Census Tract 407" }, "geometry": { "type": "Polygon", "coordinates": [ [ [ -71.3004, 41.5046 ], [ -71.2848, 41.488 ], [ -71.2924, 41.4852 ], [ -71.3129, 41.4872 ], [ -71.3004, 41.5046 ] ] ] } },
{ "type": "Feature", "properties": { "GEOIDFQ": "1400000US44005040800", "NAME": "408", "NAMELSAD": "Census Tract 408" }, "geometry": { "type": "Polygon", "coordinates": [ [ [ -71.2977, 41.4885 ], [ -71.2943, 41.4759 ], [ -71.3108, 41.4751 ], [ -71.3131, 41.4848 ], [ -71.2977, 41.4885 ] ] ] } },
{ "type": "Feature", "properties": { "GEOIDFQ": "1400000US44007010600", "NAME": "106", "NAMELSAD": "Census Tract 106" }, "geometry": { "type": "Polygon", "coordinates": [ [ [ -71.377, 41.7779 ], [ -71.3577, 41.7795 ], [ -71.3539, 41.7513 ], [ -71.3652, 41.7356 ], [ -71.3782, 41.757 ], [ -71.377, 41.7779 ] ] ] } },
{ "type": "Feature", "properties": { "GEOIDFQ": "1400000US44007010701", "NAME": "107.01", "NAMELSAD": "Census Tract 107.01" }, "geometry": { "type": "Polygon", "coordinates": [ [ [ -71.3484, 41.7802 ], [ -71.3334, 41.7799 ], [ -71.3247, 41.7712 ], [ -71.332, 41.7662 ], [ -71.3495, 41.7685 ], [ -71.3551, 41.7746 ], [ -71.3484, 41.7802 ] ] ] } },
{ "type": "Feature", "properties": { "GEOIDFQ": "1400000US44007010702", "NAME": "107.02", "NAMELSAD": "Census Tract 107.02" }, "geometry": { "type": "Polygon", "coordinates": [ [ [ -71.3536, 41.7712 ], [ -71.332, 41.7662 ], [ -71.3539, 41.7513 ], [ -71.3536, 41.7712 ] ] ] } },
{ "type": "Feature", "properties": { "GEOIDFQ": "1400000US44007010800", "NAME": "108", "NAMELSAD": "Census Tract 108" }, "geometry": { "type": "Polygon", "coordinates": [ [ [ -71.385, 41.8895 ], [ -71.3816, 41.8927 ], [ -71.3809, 41.8841 ], [ -71.3961, 41.8858 ], [ -71.385, 41.8895 ] ] ] } },
{ "type": "Feature", "properties": { "GEOIDFQ": "1400000US44007010900", "NAME": "109", "NAMELSAD": "Census Tract 109" }, "geometry": { "type": "Polygon", "coordinates": [ [ [ -71.3859, 41.8996 ], [ -71.3816, 41.8927 ], [ -71.3906, 41.888 ], [ -71.3972, 41.8968 ], [ -71.3859, 41.8996 ] ] ] } },
{ "type": "Feature", "properties": { "GEOIDFQ": "1400000US44007011000", "NAME": "110", "NAMELSAD": "Census Tract 110" }, "geometry": { "type": "Polygon", "coordinates": [ [ [ -71.3972, 41.8968 ], [ -71.3909, 41.8887 ], [ -71.3974, 41.8851 ], [ -71.4046, 41.8948 ], [ -71.3972, 41.8968 ] ] ] } },
{ "type": "Feature", "properties": { "GEOIDFQ": "1400000US44007011100", "NAME": "111", "NAMELSAD": "Census Tract 111" }, "geometry": { "type": "Polygon", "coordinates": [ [ [ -71.4046, 41.8948 ], [ -71.3923, 41.8826 ], [ -71.4037, 41.8811 ], [ -71.4046, 41.8948 ] ] ] } },
{ "type": "Feature", "properties": { "GEOIDFQ": "1400000US44007015200", "NAME": "152", "NAMELSAD": "Census Tract 152" }, "geometry": { "type": "Polygon", "coordinates": [ [ [ -71.381, 41.8841 ], [ -71.3847, 41.8734 ], [ -71.3876, 41.8735 ], [ -71.3923, 41.8826 ], [ -71.381, 41.8841 ] ] ] } },
{ "type": "Feature", "properties": { "GEOIDFQ": "1400000US44007015300", "NAME": "153", "NAMELSAD": "Census Tract 153" }, "geometry": { "type": "Polygon", "coordinates": [ [ [ -71.3764, 41.8942 ], [ -71.3711, 41.8948 ], [ -71.3763, 41.8845 ], [ -71.3764, 41.8942 ] ] ] } },
{ "type": "Feature", "properties": { "GEOIDFQ": "1400000US44007015400", "NAME": "154", "NAMELSAD": "Census Tract 154" }, "geometry": { "type": "Polygon", "coordinates": [ [ [ -71.3753, 41.8864 ], [ -71.3722, 41.8925 ], [ -71.367, 41.8852 ], [ -71.3753, 41.8864 ] ] ] } },
{ "type": "Feature", "properties": { "GEOIDFQ": "1400000US44007015500", "NAME": "155", "NAMELSAD": "Census Tract 155" }, "geometry": { "type": "Polygon", "coordinates": [ [ [ -71.3711, 41.8948 ], [ -71.3546, 41.8967 ], [ -71.3676, 41.8863 ], [ -71.3711, 41.8948 ] ] ] } },
{ "type": "Feature", "properties": { "GEOIDFQ": "1400000US44007015700", "NAME": "157", "NAMELSAD": "Census Tract 157" }, "geometry": { "type": "Polygon", "coordinates": [ [ [ -71.3388, 41.8986 ], [ -71.3398, 41.8901 ], [ -71.3541, 41.8879 ], [ -71.3546, 41.8967 ], [ -71.3388, 41.8986 ] ] ] } },
{ "type": "Feature", "properties": { "GEOIDFQ": "1400000US44007015800", "NAME": "158", "NAMELSAD": "Census Tract 158" }, "geometry": { "type": "Polygon", "coordinates": [ [ [ -71.3541, 41.8879 ], [ -71.3398, 41.8901 ], [ -71.3409, 41.8741 ], [ -71.3542, 41.8792 ], [ -71.3541, 41.8879 ] ] ] } },
{ "type": "Feature", "properties": { "GEOIDFQ": "1400000US44007016000", "NAME": "160", "NAMELSAD": "Census Tract 160" }, "geometry": { "type": "Polygon", "coordinates": [ [ [ -71.3831, 41.8899 ], [ -71.3764, 41.8942 ], [ -71.3787, 41.8853 ], [ -71.367, 41.8852 ], [ -71.3649, 41.8805 ], [ -71.3834, 41.8766 ], [ -71.3831, 41.8899 ] ] ] } },
{ "type": "Feature", "properties": { "GEOIDFQ": "1400000US44007016100", "NAME": "161", "NAMELSAD": "Census Tract 161" }, "geometry": { "type": "Polygon", "coordinates": [ [ [ -71.3973, 41.8755 ], [ -71.3894, 41.8803 ], [ -71.3846, 41.8726 ], [ -71.4021, 41.8674 ], [ -71.3973, 41.8755 ] ] ] } },
{ "type": "Feature", "properties": { "GEOIDFQ": "1400000US44007016500", "NAME": "165", "NAMELSAD": "Census Tract 165" }, "geometry": { "type": "Polygon", "coordinates": [ [ [ -71.3912, 41.8664 ], [ -71.3839, 41.8653 ], [ -71.3837, 41.8571 ], [ -71.3996, 41.8568 ], [ -71.3912, 41.8664 ] ] ] } },
{ "type": "Feature", "properties": { "GEOIDFQ": "1400000US44005040900", "NAME": "409", "NAMELSAD": "Census Tract 409" }, "geometry": { "type": "Polygon", "coordinates": [ [ [ -71.3373, 41.4845 ], [ -71.333, 41.4738 ], [ -71.3264, 41.4788 ], [ -71.325, 41.4751 ], [ -71.2943, 41.4759 ], [ -71.3063, 41.4503 ], [ -71.3236, 41.458 ], [ -71.3221, 41.4533 ], [ -71.3339, 41.4473 ], [ -71.3444, 41.451 ], [ -71.3596, 41.4464 ], [ -71.3678, 41.4631 ], [ -71.3373, 41.4845 ] ] ] } },
{ "type": "Feature", "properties": { "GEOIDFQ": "1400000US44007003601", "NAME": "36.01", "NAMELSAD": "Census Tract 36.01" }, "geometry": { "type": "Polygon", "coordinates": [ [ [ -71.391, 41.8296 ], [ -71.3942, 41.8228 ], [ -71.4, 41.8224 ], [ -71.4015, 41.8348 ], [ -71.391, 41.8296 ] ] ] } },
{ "type": "Feature", "properties": { "GEOIDFQ": "1400000US44007013202", "NAME": "132.02", "NAMELSAD": "Census Tract 132.02" }, "geometry": { "type": "Polygon", "coordinates": [ [ [ -71.6131, 41.8578 ], [ -71.6079, 41.8533 ], [ -71.6101, 41.8393 ], [ -71.5951, 41.835 ], [ -71.5914, 41.8258 ], [ -71.6025, 41.7786 ], [ -71.5889, 41.7507 ], [ -71.5959, 41.7385 ], [ -71.5767, 41.7381 ], [ -71.5862, 41.7291 ], [ -71.6684, 41.7275 ], [ -71.691, 41.8565 ], [ -71.6131, 41.8578 ] ] ] } },
{ "type": "Feature", "properties": { "GEOIDFQ": "1400000US44007013900", "NAME": "139", "NAMELSAD": "Census Tract 139" }, "geometry": { "type": "Polygon", "coordinates": [ [ [ -71.4528, 41.7703 ], [ -71.4406, 41.7522 ], [ -71.4519, 41.75 ], [ -71.4615, 41.7629 ], [ -71.4528, 41.7703 ] ] ] } },
{ "type": "Feature", "properties": { "GEOIDFQ": "1400000US44007011702", "NAME": "117.02", "NAMELSAD": "Census Tract 117.02" }, "geometry": { "type": "Polygon", "coordinates": [ [ [ -71.4354, 41.9076 ], [ -71.4188, 41.9027 ], [ -71.4047, 41.8948 ], [ -71.4037, 41.8811 ], [ -71.4337, 41.8772 ], [ -71.4473, 41.9025 ], [ -71.4354, 41.9076 ] ] ] } },
{ "type": "Feature", "properties": { "GEOIDFQ": "1400000US44007012803", "NAME": "128.03", "NAMELSAD": "Census Tract 128.03" }, "geometry": { "type": "Polygon", "coordinates": [ [ [ -71.5945, 41.995 ], [ -71.5706, 41.9995 ], [ -71.5568, 41.9967 ], [ -71.5354, 41.9769 ], [ -71.5054, 41.9687 ], [ -71.5155, 41.9832 ], [ -71.4874, 41.9791 ], [ -71.4845, 41.9427 ], [ -71.5903, 41.9337 ], [ -71.6004, 41.983 ], [ -71.5945, 41.995 ] ] ] } },
{ "type": "Feature", "properties": { "GEOIDFQ": "1400000US44007012801", "NAME": "128.01", "NAMELSAD": "Census Tract 128.01" }, "geometry": { "type": "Polygon", "coordinates": [ [ [ -71.5289, 42.0151 ], [ -71.5298, 42.0098 ], [ -71.5401, 42.0098 ], [ -71.5333, 41.9934 ], [ -71.552, 41.9998 ], [ -71.5648, 41.996 ], [ -71.5798, 41.9993 ], [ -71.5945, 41.995 ], [ -71.6004, 41.983 ], [ -71.6067, 42.0133 ], [ -71.5289, 42.0151 ] ] ] } },
{ "type": "Feature", "properties": { "GEOIDFQ": "1400000US44007011302", "NAME": "113.02", "NAMELSAD": "Census Tract 113.02" }, "geometry": { "type": "Polygon", "coordinates": [ [ [ -71.3814, 41.9477 ], [ -71.3814, 41.9155 ], [ -71.3849, 41.9199 ], [ -71.3964, 41.9192 ], [ -71.4037, 41.9464 ], [ -71.3814, 41.9477 ] ] ] } },
{ "type": "Feature", "properties": { "GEOIDFQ": "1400000US44007017100", "NAME": "171", "NAMELSAD": "Census Tract 171" }, "geometry": { "type": "Polygon", "coordinates": [ [ [ -71.3728, 41.879 ], [ -71.3649, 41.8805 ], [ -71.3637, 41.8585 ], [ -71.3767, 41.8575 ], [ -71.3728, 41.879 ] ] ] } },
{ "type": "Feature", "properties": { "GEOIDFQ": "1400000US44007001700", "NAME": "17", "NAMELSAD": "Census Tract 17" }, "geometry": { "type": "Polygon", "coordinates": [ [ [ -71.4616, 41.8122 ], [ -71.4554, 41.8132 ], [ -71.4523, 41.8061 ], [ -71.4648, 41.8059 ], [ -71.4616, 41.8122 ] ] ] } },
{ "type": "Feature", "properties": { "GEOIDFQ": "1400000US44007003200", "NAME": "32", "NAMELSAD": "Census Tract 32" }, "geometry": { "type": "Polygon", "coordinates": [ [ [ -71.4052, 41.8468 ], [ -71.3913, 41.8466 ], [ -71.3926, 41.8413 ], [ -71.408, 41.842 ], [ -71.4052, 41.8468 ] ] ] } },
{ "type": "Feature", "properties": { "GEOIDFQ": "1400000US44007014000", "NAME": "140", "NAMELSAD": "Census Tract 140" }, "geometry": { "type": "Polygon", "coordinates": [ [ [ -71.4511, 41.7839 ], [ -71.4504, 41.7939 ], [ -71.4306, 41.7827 ], [ -71.4538, 41.7707 ], [ -71.4561, 41.7843 ], [ -71.4511, 41.7839 ] ] ] } },
{ "type": "Feature", "properties": { "GEOIDFQ": "1400000US44007016400", "NAME": "164", "NAMELSAD": "Census Tract 164" }, "geometry": { "type": "Polygon", "coordinates": [ [ [ -71.4021, 41.8674 ], [ -71.3882, 41.8697 ], [ -71.3996, 41.8568 ], [ -71.4055, 41.8568 ], [ -71.4021, 41.8674 ] ] ] } },
{ "type": "Feature", "properties": { "GEOIDFQ": "1400000US44007016600", "NAME": "166", "NAMELSAD": "Census Tract 166" }, "geometry": { "type": "Polygon", "coordinates": [ [ [ -71.3846, 41.8726 ], [ -71.3767, 41.8575 ], [ -71.3837, 41.8571 ], [ -71.3839, 41.8653 ], [ -71.3912, 41.8664 ], [ -71.3846, 41.8726 ] ] ] } },
{ "type": "Feature", "properties": { "GEOIDFQ": "1400000US44007016700", "NAME": "167", "NAMELSAD": "Census Tract 167" }, "geometry": { "type": "Polygon", "coordinates": [ [ [ -71.373, 41.8777 ], [ -71.3786, 41.8637 ], [ -71.3804, 41.8685 ], [ -71.3847, 41.8735 ], [ -71.373, 41.8777 ] ] ] } },
{ "type": "Feature", "properties": { "GEOIDFQ": "1400000US44007016800", "NAME": "168", "NAMELSAD": "Census Tract 168" }, "geometry": { "type": "Polygon", "coordinates": [ [ [ -71.3543, 41.8784 ], [ -71.3544, 41.8702 ], [ -71.3644, 41.8704 ], [ -71.3649, 41.8805 ], [ -71.3543, 41.8784 ] ] ] } },
{ "type": "Feature", "properties": { "GEOIDFQ": "1400000US44007016900", "NAME": "169", "NAMELSAD": "Census Tract 169" }, "geometry": { "type": "Polygon", "coordinates": [ [ [ -71.3543, 41.8785 ], [ -71.3389, 41.8761 ], [ -71.334, 41.8626 ], [ -71.3544, 41.8665 ], [ -71.3543, 41.8785 ] ] ] } },
{ "type": "Feature", "properties": { "GEOIDFQ": "1400000US44007017000", "NAME": "170", "NAMELSAD": "Census Tract 170" }, "geometry": { "type": "Polygon", "coordinates": [ [ [ -71.3544, 41.8702 ], [ -71.3392, 41.8638 ], [ -71.3637, 41.8585 ], [ -71.3644, 41.8704 ], [ -71.3544, 41.8702 ] ] ] } },
{ "type": "Feature", "properties": { "GEOIDFQ": "1400000US44009050500", "NAME": "505", "NAMELSAD": "Census Tract 505" }, "geometry": { "type": "Polygon", "coordinates": [ [ [ -71.7892, 41.5968 ], [ -71.5224, 41.6026 ], [ -71.5196, 41.5299 ], [ -71.5079, 41.5001 ], [ -71.6126, 41.5248 ], [ -71.6207, 41.5643 ], [ -71.7914, 41.5464 ], [ -71.7892, 41.5968 ] ] ] } },
{ "type": "Feature", "properties": { "GEOIDFQ": "1400000US44009050103", "NAME": "501.03", "NAMELSAD": "Census Tract 501.03" }, "geometry": { "type": "Polygon", "coordinates": [ [ [ -71.4696, 41.6346 ], [ -71.4577, 41.6146 ], [ -71.4451, 41.6204 ], [ -71.4411, 41.617 ], [ -71.4228, 41.6201 ], [ -71.4048, 41.6349 ], [ -71.4, 41.616 ], [ -71.4151, 41.6055 ], [ -71.401, 41.6021 ], [ -71.4019, 41.5899 ], [ -71.4059, 41.585 ], [ -71.4314, 41.5834 ], [ -71.457, 41.6033 ], [ -71.464, 41.5997 ], [ -71.4611, 41.6032 ], [ -71.4689, 41.5998 ], [ -71.4845, 41.6037 ], [ -71.4881, 41.6163 ], [ -71.4696, 41.6346 ] ] ] } },
{ "type": "Feature", "properties": { "GEOIDFQ": "1400000US44009050901", "NAME": "509.01", "NAMELSAD": "Census Tract 509.01" }, "geometry": { "type": "Polygon", "coordinates": [ [ [ -71.8397, 41.4122 ], [ -71.8194, 41.4196 ], [ -71.7965, 41.4164 ], [ -71.796, 41.4073 ], [ -71.8035, 41.4041 ], [ -71.7941, 41.3973 ], [ -71.7972, 41.3932 ], [ -71.7626, 41.379 ], [ -71.7732, 41.3644 ], [ -71.7684, 41.3515 ], [ -71.7863, 41.3509 ], [ -71.8089, 41.358 ], [ -71.8207, 41.374 ], [ -71.8121, 41.3849 ], [ -71.825, 41.3833 ], [ -71.8223, 41.4004 ], [ -71.8342, 41.3908 ], [ -71.8417, 41.3946 ], [ -71.8397, 41.4122 ] ] ] } },
{ "type": "Feature", "properties": { "GEOIDFQ": "1400000US44009050600", "NAME": "506", "NAMELSAD": "Census Tract 506" }, "geometry": { "type": "Polygon", "coordinates": [ [ [ -71.711, 41.4563 ], [ -71.7217, 41.4608 ], [ -71.7122, 41.4843 ], [ -71.7178, 41.486 ], [ -71.7165, 41.5031 ], [ -71.6871, 41.528 ], [ -71.6965, 41.5301 ], [ -71.7004, 41.5487 ], [ -71.7092, 41.5476 ], [ -71.715, 41.5542 ], [ -71.6207, 41.5643 ], [ -71.5986, 41.458 ], [ -71.627, 41.4452 ], [ -71.6493, 41.4488 ], [ -71.655, 41.459 ], [ -71.6714, 41.4612 ], [ -71.6858, 41.4345 ], [ -71.6998, 41.4303 ], [ -71.7166, 41.4342 ], [ -71.719, 41.4283 ], [ -71.7226, 41.4376 ], [ -71.711, 41.4563 ] ] ] } },
{ "type": "Feature", "properties": { "GEOIDFQ": "1400000US44009051304", "NAME": "513.04", "NAMELSAD": "Census Tract 513.04" }, "geometry": { "type": "Polygon", "coordinates": [ [ [ -71.6001, 41.4325 ], [ -71.552, 41.4272 ], [ -71.5306, 41.4347 ], [ -71.5173, 41.4307 ], [ -71.5051, 41.4357 ], [ -71.4988, 41.4286 ], [ -71.5226, 41.4262 ], [ -71.5341, 41.4029 ], [ -71.5451, 41.3979 ], [ -71.6139, 41.3938 ], [ -71.6001, 41.4325 ] ] ] } },
{ "type": "Feature", "properties": { "GEOIDFQ": "1400000US44009051306", "NAME": "513.06", "NAMELSAD": "Census Tract 513.06" }, "geometry": { "type": "Polygon", "coordinates": [ [ [ -71.5305, 41.5038 ], [ -71.5511, 41.4826 ], [ -71.5209, 41.4801 ], [ -71.5127, 41.4686 ], [ -71.5094, 41.4623 ], [ -71.5282, 41.454 ], [ -71.5173, 41.4307 ], [ -71.5304, 41.4347 ], [ -71.5521, 41.4272 ], [ -71.6001, 41.4325 ], [ -71.5951, 41.4462 ], [ -71.6089, 41.4522 ], [ -71.5968, 41.4618 ], [ -71.6056, 41.4742 ], [ -71.6008, 41.4805 ], [ -71.6089, 41.4877 ], [ -71.613, 41.5251 ], [ -71.5305, 41.5038 ] ] ] } },
{ "type": "Feature", "properties": { "GEOIDFQ": "1400000US44003021700", "NAME": "217", "NAMELSAD": "Census Tract 217" }, "geometry": { "type": "Polygon", "coordinates": [ [ [ -71.3867, 41.7012 ], [ -71.3932, 41.6696 ], [ -71.4041, 41.6907 ], [ -71.4203, 41.7041 ], [ -71.3867, 41.7012 ] ] ] } },
{ "type": "Feature", "properties": { "GEOIDFQ": "1400000US44007017300", "NAME": "173", "NAMELSAD": "Census Tract 173" }, "geometry": { "type": "Polygon", "coordinates": [ [ [ -71.5289, 42.0151 ], [ -71.5116, 42.0163 ], [ -71.5182, 42.0046 ], [ -71.5249, 42.0045 ], [ -71.5289, 42.0151 ] ] ] } },
{ "type": "Feature", "properties": { "GEOIDFQ": "1400000US44009050801", "NAME": "508.01", "NAMELSAD": "Census Tract 508.01" }, "geometry": { "type": "Polygon", "coordinates": [ [ [ -71.8342, 41.3908 ], [ -71.8223, 41.4004 ], [ -71.825, 41.3833 ], [ -71.8121, 41.3849 ], [ -71.8268, 41.3681 ], [ -71.841, 41.3941 ], [ -71.8342, 41.3908 ] ] ] } },
{ "type": "Feature", "properties": { "GEOIDFQ": "1400000US44009051502", "NAME": "515.02", "NAMELSAD": "Census Tract 515.02" }, "geometry": { "type": "Polygon", "coordinates": [ [ [ -71.4501, 41.5018 ], [ -71.4184, 41.5041 ], [ -71.4171, 41.4735 ], [ -71.4191, 41.468 ], [ -71.4293, 41.4706 ], [ -71.4251, 41.4529 ], [ -71.4381, 41.4389 ], [ -71.4522, 41.4525 ], [ -71.4501, 41.5018 ] ] ] } },
{ "type": "Feature", "properties": { "GEOIDFQ": "1400000US44007014400", "NAME": "144", "NAMELSAD": "Census Tract 144" }, "geometry": { "type": "Polygon", "coordinates": [ [ [ -71.4733, 41.7671 ], [ -71.4729, 41.7671 ], [ -71.4602, 41.7585 ], [ -71.4828, 41.7355 ], [ -71.4733, 41.7671 ] ] ] } },
{ "type": "Feature", "properties": { "GEOIDFQ": "1400000US44007014502", "NAME": "145.02", "NAMELSAD": "Census Tract 145.02" }, "geometry": { "type": "Polygon", "coordinates": [ [ [ -71.4826, 41.7782 ], [ -71.4611, 41.7835 ], [ -71.4795, 41.7464 ], [ -71.4822, 41.767 ], [ -71.5004, 41.7804 ], [ -71.4826, 41.7782 ] ] ] } },
{ "type": "Feature", "properties": { "GEOIDFQ": "1400000US44007014800", "NAME": "148", "NAMELSAD": "Census Tract 148" }, "geometry": { "type": "Polygon", "coordinates": [ [ [ -71.4797, 41.7969 ], [ -71.4722, 41.7914 ], [ -71.4723, 41.781 ], [ -71.5007, 41.7804 ], [ -71.5061, 41.7889 ], [ -71.4797, 41.7969 ] ] ] } },
{ "type": "Feature", "properties": { "GEOIDFQ": "1400000US44007015000", "NAME": "150", "NAMELSAD": "Census Tract 150" }, "geometry": { "type": "Polygon", "coordinates": [ [ [ -71.4064, 41.8807 ], [ -71.4056, 41.8733 ], [ -71.4199, 41.8698 ], [ -71.4219, 41.8787 ], [ -71.4064, 41.8807 ] ] ] } },
{ "type": "Feature", "properties": { "GEOIDFQ": "1400000US44007015100", "NAME": "151", "NAMELSAD": "Census Tract 151" }, "geometry": { "type": "Polygon", "coordinates": [ [ [ -71.3923, 41.8826 ], [ -71.3894, 41.8803 ], [ -71.4017, 41.8703 ], [ -71.4064, 41.8807 ], [ -71.3923, 41.8826 ] ] ] } },
{ "type": "Feature", "properties": { "GEOIDFQ": "1400000US44003020603", "NAME": "206.03", "NAMELSAD": "Census Tract 206.03" }, "geometry": { "type": "Polygon", "coordinates": [ [ [ -71.5808, 41.679 ], [ -71.5494, 41.6854 ], [ -71.533, 41.6798 ], [ -71.5334, 41.6622 ], [ -71.5895, 41.6607 ], [ -71.5808, 41.679 ] ] ] } },
{ "type": "Feature", "properties": { "GEOIDFQ": "1400000US44003021200", "NAME": "212", "NAMELSAD": "Census Tract 212" }, "geometry": { "type": "Polygon", "coordinates": [ [ [ -71.4175, 41.7515 ], [ -71.4048, 41.7603 ], [ -71.4081, 41.7374 ], [ -71.4171, 41.7367 ], [ -71.4272, 41.7456 ], [ -71.4175, 41.7515 ] ] ] } },
{ "type": "Feature", "properties": { "GEOIDFQ": "1400000US44007002900", "NAME": "29", "NAMELSAD": "Census Tract 29" }, "geometry": { "type": "Polygon", "coordinates": [ [ [ -71.4055, 41.8567 ], [ -71.4154, 41.8362 ], [ -71.426, 41.8517 ], [ -71.4299, 41.8613 ], [ -71.4055, 41.8567 ] ] ] } },
{ "type": "Feature", "properties": { "GEOIDFQ": "1400000US44007010400", "NAME": "104", "NAMELSAD": "Census Tract 104" }, "geometry": { "type": "Polygon", "coordinates": [ [ [ -71.3856, 41.819 ], [ -71.3628, 41.8131 ], [ -71.3667, 41.8014 ], [ -71.3741, 41.8028 ], [ -71.3808, 41.7963 ], [ -71.3953, 41.8117 ], [ -71.3856, 41.819 ] ] ] } },
{ "type": "Feature", "properties": { "GEOIDFQ": "1400000US44007014700", "NAME": "147", "NAMELSAD": "Census Tract 147" }, "geometry": { "type": "Polygon", "coordinates": [ [ [ -71.4523, 41.8061 ], [ -71.4511, 41.7839 ], [ -71.4723, 41.781 ], [ -71.4722, 41.7914 ], [ -71.4797, 41.7969 ], [ -71.4523, 41.8061 ] ] ] } },
{ "type": "Feature", "properties": { "GEOIDFQ": "1400000US44007001800", "NAME": "18", "NAMELSAD": "Census Tract 18" }, "geometry": { "type": "Polygon", "coordinates": [ [ [ -71.4486, 41.8171 ], [ -71.4671, 41.8045 ], [ -71.4693, 41.8053 ], [ -71.4709, 41.8219 ], [ -71.4486, 41.8171 ] ] ] } },
{ "type": "Feature", "properties": { "GEOIDFQ": "1400000US44007002400", "NAME": "24", "NAMELSAD": "Census Tract 24" }, "geometry": { "type": "Polygon", "coordinates": [ [ [ -71.4467, 41.854 ], [ -71.4294, 41.8442 ], [ -71.4452, 41.8426 ], [ -71.4565, 41.8321 ], [ -71.4645, 41.8337 ], [ -71.4646, 41.8421 ], [ -71.4467, 41.854 ] ] ] } },
{ "type": "Feature", "properties": { "GEOIDFQ": "1400000US44007001400", "NAME": "14", "NAMELSAD": "Census Tract 14" }, "geometry": { "type": "Polygon", "coordinates": [ [ [ -71.4417, 41.8084 ], [ -71.4296, 41.8126 ], [ -71.4318, 41.8005 ], [ -71.4417, 41.8084 ] ] ] } },
{ "type": "Feature", "properties": { "GEOIDFQ": "1400000US44003021002", "NAME": "210.02", "NAMELSAD": "Census Tract 210.02" }, "geometry": { "type": "Polygon", "coordinates": [ [ [ -71.3885, 41.7638 ], [ -71.375, 41.7496 ], [ -71.4046, 41.7485 ], [ -71.4052, 41.7676 ], [ -71.3885, 41.7638 ] ] ] } },
{ "type": "Feature", "properties": { "GEOIDFQ": "1400000US44005040304", "NAME": "403.04", "NAMELSAD": "Census Tract 403.04" }, "geometry": { "type": "Polygon", "coordinates": [ [ [ -71.2917, 41.538 ], [ -71.2908, 41.5542 ], [ -71.2657, 41.5383 ], [ -71.2763, 41.5259 ], [ -71.3008, 41.5164 ], [ -71.2917, 41.538 ] ] ] } },
{ "type": "Feature", "properties": { "GEOIDFQ": "1400000US44009041500", "NAME": "415", "NAMELSAD": "Census Tract 415" }, "geometry": { "type": "Polygon", "coordinates": [ [ [ -71.5946, 41.2012 ], [ -71.5907, 41.1981 ], [ -71.581, 41.2051 ], [ -71.5766, 41.2333 ], [ -71.5541, 41.216 ], [ -71.5644, 41.1854 ], [ -71.5596, 41.1762 ], [ -71.5517, 41.1784 ], [ -71.5434, 41.1568 ], [ -71.5517, 41.1503 ], [ -71.5993, 41.1457 ], [ -71.6111, 41.151 ], [ -71.6142, 41.1612 ], [ -71.5946, 41.2012 ] ] ] } },
{ "type": "Feature", "properties": { "GEOIDFQ": "1400000US44009051305", "NAME": "513.05", "NAMELSAD": "Census Tract 513.05" }, "geometry": { "type": "Polygon", "coordinates": [ [ [ -71.5149, 41.5013 ], [ -71.4919, 41.4972 ], [ -71.4501, 41.5018 ], [ -71.4516, 41.4532 ], [ -71.479, 41.4399 ], [ -71.4635, 41.4664 ], [ -71.5094, 41.4623 ], [ -71.5224, 41.4803 ], [ -71.5149, 41.5013 ] ] ] } },
{ "type": "Feature", "properties": { "GEOIDFQ": "1400000US44009050402", "NAME": "504.02", "NAMELSAD": "Census Tract 504.02" }, "geometry": { "type": "Polygon", "coordinates": [ [ [ -71.4679, 41.5439 ], [ -71.4413, 41.5486 ], [ -71.4447, 41.5601 ], [ -71.4338, 41.5637 ], [ -71.4333, 41.5591 ], [ -71.4161, 41.5557 ], [ -71.4238, 41.5442 ], [ -71.4141, 41.5301 ], [ -71.4184, 41.5041 ], [ -71.4581, 41.4991 ], [ -71.4679, 41.5439 ] ] ] } },
{ "type": "Feature", "properties": { "GEOIDFQ": "1400000US44009050102", "NAME": "501.02", "NAMELSAD": "Census Tract 501.02" }, "geometry": { "type": "Polygon", "coordinates": [ [ [ -71.4689, 41.5998 ], [ -71.4663, 41.6043 ], [ -71.464, 41.5997 ], [ -71.457, 41.6033 ], [ -71.4296, 41.5829 ], [ -71.4357, 41.5726 ], [ -71.4651, 41.5895 ], [ -71.5184, 41.594 ], [ -71.5221, 41.6026 ], [ -71.4689, 41.5998 ] ] ] } },
{ "type": "Feature", "properties": { "GEOIDFQ": "1400000US44009051000", "NAME": "510", "NAMELSAD": "Census Tract 510" }, "geometry": { "type": "Polygon", "coordinates": [ [ [ -71.8665, 41.3192 ], [ -71.8306, 41.3413 ], [ -71.8317, 41.3292 ], [ -71.8228, 41.3269 ], [ -71.7301, 41.3517 ], [ -71.7298, 41.3306 ], [ -71.8133, 41.3193 ], [ -71.8584, 41.302 ], [ -71.8643, 41.3092 ], [ -71.8896, 41.3039 ], [ -71.8868, 41.3213 ], [ -71.8931, 41.3274 ], [ -71.8665, 41.3192 ] ] ] } }
]
}
