{
"type": "FeatureCollection",
"name": "state_66_tracts_simplified",
"crs": { "type": "name", "properties": { "name": "urn:ogc:def:crs:OGC:1.3:CRS84" } },
"features": [
{ "type": "Feature", "properties": { "GEOIDFQ": "1400000US66010950701", "NAME": "9507.01", "NAMELSAD": "Census Tract 9507.01" }, "geometry": { "type": "Polygon", "coordinates": [ [ [ 144.8492, 13.5304 ], [ 144.865, 13.5327 ], [ 144.8637, 13.5173 ], [ 144.8437, 13.5143 ], [ 144.8492, 13.5304 ] ] ] } },
{ "type": "Feature", "properties": { "GEOIDFQ": "1400000US66010980100", "NAME": "9801", "NAMELSAD": "Census Tract 9801" }, "geometry": { "type": "Polygon", "coordinates": [ [ [ 144.6922, 13.3941 ], [ 144.7095, 13.3939 ], [ 144.7096, 13.388 ], [ 144.7223, 13.3877 ], [ 144.7221, 13.3576 ], [ 144.7022, 13.3524 ], [ 144.6703, 13.3817 ], [ 144.6922, 13.3941 ] ] ] } },
{ "type": "Feature", "properties": { "GEOIDFQ": "1400000US66010980300", "NAME": "9803", "NAMELSAD": "Census Tract 9803" }, "geometry": { "type": "Polygon", "coordinates": [ [ [ 144.7052, 13.345 ], [ 144.7088, 13.3419 ], [ 144.6843, 13.3155 ], [ 144.6724, 13.3294 ], [ 144.7052, 13.345 ] ] ] } },
{ "type": "Feature", "properties": { "GEOIDFQ": "1400000US66010980400", "NAME": "9804", "NAMELSAD": "Census Tract 9804" }, "geometry": { "type": "Polygon", "coordinates": [ [ [ 144.8458, 13.5145 ], [ 144.8708, 13.5196 ], [ 144.8708, 13.4997 ], [ 144.8458, 13.5044 ], [ 144.8458, 13.5145 ] ] ] } },
{ "type": "Feature", "properties": { "GEOIDFQ": "1400000US66010954000", "NAME": "9540", "NAMELSAD": "Census Tract 9540" }, "geometry": { "type": "Polygon", "coordinates": [ [ [ 144.7343, 13.3995 ], [ 144.74, 13.3877 ], [ 144.7483, 13.3868 ], [ 144.7538, 13.4006 ], [ 144.7779, 13.3876 ], [ 144.7703, 13.3657 ], [ 144.7583, 13.3722 ], [ 144.7221, 13.3681 ], [ 144.7178, 13.3948 ], [ 144.7343, 13.3995 ] ] ] } },
{ "type": "Feature", "properties": { "GEOIDFQ": "1400000US66010955200", "NAME": "9552", "NAMELSAD": "Census Tract 9552" }, "geometry": { "type": "MultiPolygon", "coordinates": [ [ [ [ 144.7448, 13.2693 ], [ 144.7456, 13.2686 ], [ 144.7448, 13.2684 ], [ 144.7448, 13.2693 ] ] ], [ [ [ 144.7319, 13.2508 ], [ 144.7323, 13.2507 ], [ 144.7319, 13.2498 ], [ 144.7319, 13.2508 ] ] ], [ [ [ 144.7254, 13.2463 ], [ 144.726, 13.248 ], [ 144.7256, 13.2462 ], [ 144.7254, 13.2463 ] ] ], [ [ [ 144.7279, 13.3105 ], [ 144.7541, 13.3379 ], [ 144.7713, 13.3341 ], [ 144.7698, 13.2961 ], [ 144.7571, 13.2773 ], [ 144.7485, 13.2789 ], [ 144.7502, 13.2723 ], [ 144.7383, 13.2681 ], [ 144.7435, 13.2649 ], [ 144.7273, 13.2465 ], [ 144.7094, 13.27 ], [ 144.6934, 13.2779 ], [ 144.6884, 13.3 ], [ 144.7279, 13.3105 ] ] ] ] } },
{ "type": "Feature", "properties": { "GEOIDFQ": "1400000US66010953900", "NAME": "9539", "NAMELSAD": "Census Tract 9539" }, "geometry": { "type": "Polygon", "coordinates": [ [ [ 144.7084, 13.4364 ], [ 144.7284, 13.4445 ], [ 144.7405, 13.435 ], [ 144.7568, 13.4374 ], [ 144.7889, 13.4135 ], [ 144.7765, 13.395 ], [ 144.7624, 13.3913 ], [ 144.7538, 13.4006 ], [ 144.7468, 13.3867 ], [ 144.7343, 13.3995 ], [ 144.7177, 13.3946 ], [ 144.6996, 13.4222 ], [ 144.7084, 13.4364 ] ] ] } },
{ "type": "Feature", "properties": { "GEOIDFQ": "1400000US66010951100", "NAME": "9511", "NAMELSAD": "Census Tract 9511" }, "geometry": { "type": "Polygon", "coordinates": [ [ [ 144.8198, 13.5093 ], [ 144.8348, 13.5155 ], [ 144.8458, 13.5145 ], [ 144.8459, 13.5039 ], [ 144.8571, 13.5039 ], [ 144.8486, 13.4976 ], [ 144.8197, 13.5018 ], [ 144.8198, 13.5093 ] ] ] } },
{ "type": "Feature", "properties": { "GEOIDFQ": "1400000US66010954400", "NAME": "9544", "NAMELSAD": "Census Tract 9544" }, "geometry": { "type": "Polygon", "coordinates": [ [ [ 144.6383, 13.4648 ], [ 144.6862, 13.468 ], [ 144.6988, 13.4504 ], [ 144.7072, 13.4509 ], [ 144.7109, 13.4368 ], [ 144.7002, 13.4155 ], [ 144.6888, 13.4109 ], [ 144.667, 13.4364 ], [ 144.6668, 13.4458 ], [ 144.624, 13.4547 ], [ 144.6383, 13.4648 ] ] ] } },
{ "type": "Feature", "properties": { "GEOIDFQ": "1400000US66010950300", "NAME": "9503", "NAMELSAD": "Census Tract 9503" }, "geometry": { "type": "Polygon", "coordinates": [ [ [ 144.8365, 13.5916 ], [ 144.8369, 13.6246 ], [ 144.8598, 13.6544 ], [ 144.8718, 13.5858 ], [ 144.8625, 13.5881 ], [ 144.8499, 13.5748 ], [ 144.8234, 13.5236 ], [ 144.8154, 13.5211 ], [ 144.8081, 13.5444 ], [ 144.8365, 13.5916 ] ] ] } },
{ "type": "Feature", "properties": { "GEOIDFQ": "1400000US66010952300", "NAME": "9523", "NAMELSAD": "Census Tract 9523" }, "geometry": { "type": "Polygon", "coordinates": [ [ [ 144.7961, 13.5033 ], [ 144.7993, 13.5015 ], [ 144.784, 13.4875 ], [ 144.7809, 13.5036 ], [ 144.7961, 13.5033 ] ] ] } },
{ "type": "Feature", "properties": { "GEOIDFQ": "1400000US66010950200", "NAME": "9502", "NAMELSAD": "Census Tract 9502" }, "geometry": { "type": "Polygon", "coordinates": [ [ [ 144.8788, 13.6457 ], [ 144.9023, 13.6172 ], [ 144.9077, 13.6054 ], [ 144.8968, 13.6048 ], [ 144.8991, 13.5945 ], [ 144.924, 13.5636 ], [ 144.9165, 13.5568 ], [ 144.8992, 13.5634 ], [ 144.8887, 13.5828 ], [ 144.8718, 13.5858 ], [ 144.8599, 13.6544 ], [ 144.8788, 13.6457 ] ] ] } },
{ "type": "Feature", "properties": { "GEOIDFQ": "1400000US66010954300", "NAME": "9543", "NAMELSAD": "Census Tract 9543" }, "geometry": { "type": "Polygon", "coordinates": [ [ [ 144.7067, 13.4717 ], [ 144.7093, 13.4467 ], [ 144.6979, 13.4512 ], [ 144.6977, 13.4583 ], [ 144.6894, 13.4586 ], [ 144.7067, 13.4717 ] ] ] } },
{ "type": "Feature", "properties": { "GEOIDFQ": "1400000US66010952900", "NAME": "9529", "NAMELSAD": "Census Tract 9529" }, "geometry": { "type": "Polygon", "coordinates": [ [ [ 144.8076, 13.4571 ], [ 144.8074, 13.4498 ], [ 144.8217, 13.4501 ], [ 144.8259, 13.4428 ], [ 144.7926, 13.4379 ], [ 144.7857, 13.4409 ], [ 144.7813, 13.4613 ], [ 144.8076, 13.4571 ] ] ] } },
{ "type": "Feature", "properties": { "GEOIDFQ": "1400000US66010951800", "NAME": "9518", "NAMELSAD": "Census Tract 9518" }, "geometry": { "type": "Polygon", "coordinates": [ [ [ 144.8155, 13.4987 ], [ 144.822, 13.4956 ], [ 144.8026, 13.4699 ], [ 144.7797, 13.4802 ], [ 144.8155, 13.4987 ] ] ] } },
{ "type": "Feature", "properties": { "GEOIDFQ": "1400000US66010952700", "NAME": "9527", "NAMELSAD": "Census Tract 9527" }, "geometry": { "type": "Polygon", "coordinates": [ [ [ 144.8014, 13.47 ], [ 144.8048, 13.4571 ], [ 144.7905, 13.4562 ], [ 144.7803, 13.4753 ], [ 144.8014, 13.47 ] ] ] } },
{ "type": "Feature", "properties": { "GEOIDFQ": "1400000US66010953102", "NAME": "9531.02", "NAMELSAD": "Census Tract 9531.02" }, "geometry": { "type": "Polygon", "coordinates": [ [ [ 144.7804, 13.4617 ], [ 144.7857, 13.4409 ], [ 144.7926, 13.4379 ], [ 144.78, 13.4342 ], [ 144.7583, 13.4521 ], [ 144.7804, 13.4617 ] ] ] } },
{ "type": "Feature", "properties": { "GEOIDFQ": "1400000US66010954500", "NAME": "9545", "NAMELSAD": "Census Tract 9545" }, "geometry": { "type": "MultiPolygon", "coordinates": [ [ [ [ 144.6465, 13.415 ], [ 144.6483, 13.4135 ], [ 144.6468, 13.4131 ], [ 144.6465, 13.415 ] ] ], [ [ [ 144.624, 13.4547 ], [ 144.6668, 13.4458 ], [ 144.6777, 13.4242 ], [ 144.6761, 13.4109 ], [ 144.6631, 13.4011 ], [ 144.6181, 13.4478 ], [ 144.624, 13.4547 ] ] ] ] } },
{ "type": "Feature", "properties": { "GEOIDFQ": "1400000US66010955400", "NAME": "9554", "NAMELSAD": "Census Tract 9554" }, "geometry": { "type": "MultiPolygon", "coordinates": [ [ [ [ 144.6554, 13.3069 ], [ 144.6554, 13.3066 ], [ 144.6553, 13.3066 ], [ 144.6554, 13.3069 ] ] ], [ [ [ 144.6709, 13.3299 ], [ 144.6928, 13.2789 ], [ 144.6789, 13.2868 ], [ 144.6596, 13.2865 ], [ 144.6629, 13.2985 ], [ 144.653, 13.3111 ], [ 144.6577, 13.3154 ], [ 144.6499, 13.3219 ], [ 144.6524, 13.328 ], [ 144.6354, 13.3413 ], [ 144.6709, 13.3299 ] ] ] ] } },
{ "type": "Feature", "properties": { "GEOIDFQ": "1400000US66010955600", "NAME": "9556", "NAMELSAD": "Census Tract 9556" }, "geometry": { "type": "Polygon", "coordinates": [ [ [ 144.8091, 13.4717 ], [ 144.8076, 13.4571 ], [ 144.8048, 13.4571 ], [ 144.8007, 13.4664 ], [ 144.8091, 13.4717 ] ] ] } },
{ "type": "Feature", "properties": { "GEOIDFQ": "1400000US66010950402", "NAME": "9504.02", "NAMELSAD": "Census Tract 9504.02" }, "geometry": { "type": "Polygon", "coordinates": [ [ [ 144.8674, 13.5886 ], [ 144.8759, 13.5756 ], [ 144.8757, 13.5596 ], [ 144.8642, 13.5575 ], [ 144.8643, 13.5682 ], [ 144.8486, 13.5725 ], [ 144.8674, 13.5886 ] ] ] } },
{ "type": "Feature", "properties": { "GEOIDFQ": "1400000US66010950802", "NAME": "9508.02", "NAMELSAD": "Census Tract 9508.02" }, "geometry": { "type": "Polygon", "coordinates": [ [ [ 144.8332, 13.5418 ], [ 144.8543, 13.5415 ], [ 144.8454, 13.5221 ], [ 144.8235, 13.5238 ], [ 144.8332, 13.5418 ] ] ] } },
{ "type": "Feature", "properties": { "GEOIDFQ": "1400000US66010951902", "NAME": "9519.02", "NAMELSAD": "Census Tract 9519.02" }, "geometry": { "type": "Polygon", "coordinates": [ [ [ 144.7905, 13.5043 ], [ 144.801, 13.5095 ], [ 144.8085, 13.5441 ], [ 144.8154, 13.5211 ], [ 144.8084, 13.5053 ], [ 144.8197, 13.5093 ], [ 144.8201, 13.4987 ], [ 144.7984, 13.4915 ], [ 144.7993, 13.5015 ], [ 144.7852, 13.5024 ], [ 144.7822, 13.508 ], [ 144.7905, 13.5043 ] ] ] } },
{ "type": "Feature", "properties": { "GEOIDFQ": "1400000US66010950502", "NAME": "9505.02", "NAMELSAD": "Census Tract 9505.02" }, "geometry": { "type": "Polygon", "coordinates": [ [ [ 144.8758, 13.5641 ], [ 144.8918, 13.5795 ], [ 144.8992, 13.5634 ], [ 144.8836, 13.5258 ], [ 144.8761, 13.5213 ], [ 144.8758, 13.5641 ] ] ] } },
{ "type": "Feature", "properties": { "GEOIDFQ": "1400000US66010950401", "NAME": "9504.01", "NAMELSAD": "Census Tract 9504.01" }, "geometry": { "type": "Polygon", "coordinates": [ [ [ 144.8486, 13.5725 ], [ 144.8644, 13.5682 ], [ 144.8642, 13.5575 ], [ 144.8408, 13.5577 ], [ 144.8486, 13.5725 ] ] ] } },
{ "type": "Feature", "properties": { "GEOIDFQ": "1400000US66010951901", "NAME": "9519.01", "NAMELSAD": "Census Tract 9519.01" }, "geometry": { "type": "Polygon", "coordinates": [ [ [ 144.8123, 13.5189 ], [ 144.8154, 13.5211 ], [ 144.8197, 13.5093 ], [ 144.8084, 13.5053 ], [ 144.8123, 13.5189 ] ] ] } },
{ "type": "Feature", "properties": { "GEOIDFQ": "1400000US66010950702", "NAME": "9507.02", "NAMELSAD": "Census Tract 9507.02" }, "geometry": { "type": "Polygon", "coordinates": [ [ [ 144.855, 13.5575 ], [ 144.8757, 13.5596 ], [ 144.8761, 13.5213 ], [ 144.8637, 13.5173 ], [ 144.865, 13.5327 ], [ 144.8493, 13.5305 ], [ 144.855, 13.5575 ] ] ] } },
{ "type": "Feature", "properties": { "GEOIDFQ": "1400000US66010950801", "NAME": "9508.01", "NAMELSAD": "Census Tract 9508.01" }, "geometry": { "type": "Polygon", "coordinates": [ [ [ 144.8407, 13.5575 ], [ 144.855, 13.5575 ], [ 144.8543, 13.5415 ], [ 144.8333, 13.542 ], [ 144.8407, 13.5575 ] ] ] } },
{ "type": "Feature", "properties": { "GEOIDFQ": "1400000US66010953101", "NAME": "9531.01", "NAMELSAD": "Census Tract 9531.01" }, "geometry": { "type": "Polygon", "coordinates": [ [ [ 144.7587, 13.4559 ], [ 144.78, 13.4342 ], [ 144.7923, 13.4379 ], [ 144.7928, 13.4265 ], [ 144.7784, 13.42 ], [ 144.7568, 13.4374 ], [ 144.7475, 13.4346 ], [ 144.7404, 13.456 ], [ 144.7587, 13.4559 ] ] ] } },
{ "type": "Feature", "properties": { "GEOIDFQ": "1400000US66010950501", "NAME": "9505.01", "NAMELSAD": "Census Tract 9505.01" }, "geometry": { "type": "Polygon", "coordinates": [ [ [ 144.8918, 13.5795 ], [ 144.8789, 13.5699 ], [ 144.8805, 13.5643 ], [ 144.8718, 13.5858 ], [ 144.8918, 13.5795 ] ] ] } },
{ "type": "Feature", "properties": { "GEOIDFQ": "1400000US66010955800", "NAME": "9558", "NAMELSAD": "Census Tract 9558" }, "geometry": { "type": "Polygon", "coordinates": [ [ [ 144.8992, 13.5634 ], [ 144.9165, 13.5568 ], [ 144.9026, 13.528 ], [ 144.8828, 13.5074 ], [ 144.8992, 13.5634 ] ] ] } },
{ "type": "Feature", "properties": { "GEOIDFQ": "1400000US66010955900", "NAME": "9559", "NAMELSAD": "Census Tract 9559" }, "geometry": { "type": "MultiPolygon", "coordinates": [ [ [ [ 144.7711, 13.4934 ], [ 144.7715, 13.4929 ], [ 144.7705, 13.4923 ], [ 144.7711, 13.4934 ] ] ], [ [ [ 144.7752, 13.4909 ], [ 144.7704, 13.5024 ], [ 144.7822, 13.5081 ], [ 144.777, 13.485 ], [ 144.7676, 13.48 ], [ 144.7752, 13.4909 ] ] ] ] } },
{ "type": "Feature", "properties": { "GEOIDFQ": "1400000US66010955700", "NAME": "9557", "NAMELSAD": "Census Tract 9557" }, "geometry": { "type": "Polygon", "coordinates": [ [ [ 144.833, 13.4611 ], [ 144.8346, 13.4979 ], [ 144.8708, 13.4997 ], [ 144.8703, 13.4846 ], [ 144.8594, 13.4718 ], [ 144.8259, 13.4428 ], [ 144.8217, 13.4501 ], [ 144.833, 13.4611 ] ] ] } },
{ "type": "Feature", "properties": { "GEOIDFQ": "1400000US66010956000", "NAME": "9560", "NAMELSAD": "Census Tract 9560" }, "geometry": { "type": "Polygon", "coordinates": [ [ [ 144.7797, 13.4817 ], [ 144.7844, 13.4617 ], [ 144.7726, 13.4604 ], [ 144.778, 13.4686 ], [ 144.7686, 13.476 ], [ 144.7797, 13.4817 ] ] ] } },
{ "type": "Feature", "properties": { "GEOIDFQ": "1400000US66010956100", "NAME": "9561", "NAMELSAD": "Census Tract 9561" }, "geometry": { "type": "MultiPolygon", "coordinates": [ [ [ [ 144.7286, 13.479 ], [ 144.7416, 13.4688 ], [ 144.7383, 13.4597 ], [ 144.7474, 13.4356 ], [ 144.7284, 13.4445 ], [ 144.7111, 13.4351 ], [ 144.7066, 13.4745 ], [ 144.7286, 13.479 ] ] ], [ [ [ 144.7055, 13.4805 ], [ 144.7056, 13.4801 ], [ 144.7053, 13.4801 ], [ 144.7055, 13.4805 ] ] ] ] } },
{ "type": "Feature", "properties": { "GEOIDFQ": "1400000US66010956200", "NAME": "9562", "NAMELSAD": "Census Tract 9562" }, "geometry": { "type": "Polygon", "coordinates": [ [ [ 144.6761, 13.4109 ], [ 144.6777, 13.4242 ], [ 144.6888, 13.4109 ], [ 144.7012, 13.4183 ], [ 144.7222, 13.3879 ], [ 144.6922, 13.3941 ], [ 144.6695, 13.3812 ], [ 144.6643, 13.401 ], [ 144.6761, 13.4109 ] ] ] } },
{ "type": "Feature", "properties": { "GEOIDFQ": "1400000US66010952400", "NAME": "9524", "NAMELSAD": "Census Tract 9524" }, "geometry": { "type": "Polygon", "coordinates": [ [ [ 144.7942, 13.4947 ], [ 144.8004, 13.4917 ], [ 144.7805, 13.4819 ], [ 144.7676, 13.4798 ], [ 144.7942, 13.4947 ] ] ] } },
{ "type": "Feature", "properties": { "GEOIDFQ": "1400000US66010952200", "NAME": "9522", "NAMELSAD": "Census Tract 9522" }, "geometry": { "type": "Polygon", "coordinates": [ [ [ 144.7817, 13.4976 ], [ 144.784, 13.4875 ], [ 144.777, 13.485 ], [ 144.7817, 13.4976 ] ] ] } },
{ "type": "Feature", "properties": { "GEOIDFQ": "1400000US66010952800", "NAME": "9528", "NAMELSAD": "Census Tract 9528" }, "geometry": { "type": "Polygon", "coordinates": [ [ [ 144.8076, 13.4571 ], [ 144.8295, 13.4569 ], [ 144.8244, 13.4508 ], [ 144.8074, 13.4499 ], [ 144.8076, 13.4571 ] ] ] } },
{ "type": "Feature", "properties": { "GEOIDFQ": "1400000US66010953600", "NAME": "9536", "NAMELSAD": "Census Tract 9536" }, "geometry": { "type": "Polygon", "coordinates": [ [ [ 144.7513, 13.4704 ], [ 144.752, 13.4571 ], [ 144.7404, 13.456 ], [ 144.7417, 13.4685 ], [ 144.7322, 13.4753 ], [ 144.7513, 13.4704 ] ] ] } },
{ "type": "Feature", "properties": { "GEOIDFQ": "1400000US66010953000", "NAME": "9530", "NAMELSAD": "Census Tract 9530" }, "geometry": { "type": "Polygon", "coordinates": [ [ [ 144.8003, 13.4415 ], [ 144.8166, 13.4398 ], [ 144.8058, 13.4265 ], [ 144.7928, 13.4265 ], [ 144.7923, 13.4379 ], [ 144.8003, 13.4415 ] ] ] } },
{ "type": "Feature", "properties": { "GEOIDFQ": "1400000US66010950900", "NAME": "9509", "NAMELSAD": "Census Tract 9509" }, "geometry": { "type": "Polygon", "coordinates": [ [ [ 144.8241, 13.5235 ], [ 144.8346, 13.5149 ], [ 144.8198, 13.5093 ], [ 144.8154, 13.5211 ], [ 144.8241, 13.5235 ] ] ] } },
{ "type": "Feature", "properties": { "GEOIDFQ": "1400000US66010953200", "NAME": "9532", "NAMELSAD": "Census Tract 9532" }, "geometry": { "type": "Polygon", "coordinates": [ [ [ 144.7522, 13.4673 ], [ 144.7726, 13.4604 ], [ 144.7663, 13.4517 ], [ 144.752, 13.4571 ], [ 144.7522, 13.4673 ] ] ] } },
{ "type": "Feature", "properties": { "GEOIDFQ": "1400000US66010953300", "NAME": "9533", "NAMELSAD": "Census Tract 9533" }, "geometry": { "type": "Polygon", "coordinates": [ [ [ 144.7687, 13.4795 ], [ 144.778, 13.4686 ], [ 144.7723, 13.4603 ], [ 144.7584, 13.4745 ], [ 144.7687, 13.4795 ] ] ] } },
{ "type": "Feature", "properties": { "GEOIDFQ": "1400000US66010955100", "NAME": "9551", "NAMELSAD": "Census Tract 9551" }, "geometry": { "type": "Polygon", "coordinates": [ [ [ 144.6843, 13.3155 ], [ 144.6907, 13.3188 ], [ 144.709, 13.3402 ], [ 144.7028, 13.3466 ], [ 144.7066, 13.358 ], [ 144.7221, 13.3576 ], [ 144.7222, 13.3681 ], [ 144.7583, 13.3722 ], [ 144.7719, 13.3624 ], [ 144.7702, 13.3364 ], [ 144.7541, 13.3379 ], [ 144.7495, 13.3276 ], [ 144.7379, 13.3269 ], [ 144.7193, 13.3064 ], [ 144.7147, 13.3101 ], [ 144.707, 13.3019 ], [ 144.6875, 13.2995 ], [ 144.6746, 13.3254 ], [ 144.6843, 13.3155 ] ] ] } },
{ "type": "Feature", "properties": { "GEOIDFQ": "1400000US66010953400", "NAME": "9534", "NAMELSAD": "Census Tract 9534" }, "geometry": { "type": "Polygon", "coordinates": [ [ [ 144.7515, 13.4823 ], [ 144.7547, 13.4771 ], [ 144.7676, 13.48 ], [ 144.759, 13.4768 ], [ 144.7581, 13.4636 ], [ 144.7284, 13.4802 ], [ 144.7515, 13.4823 ] ] ] } },
{ "type": "Feature", "properties": { "GEOIDFQ": "1400000US66010955300", "NAME": "9553", "NAMELSAD": "Census Tract 9553" }, "geometry": { "type": "MultiPolygon", "coordinates": [ [ [ [ 144.7171, 13.2488 ], [ 144.7173, 13.2489 ], [ 144.7175, 13.247 ], [ 144.7171, 13.2488 ] ] ], [ [ [ 144.7086, 13.2453 ], [ 144.7085, 13.243 ], [ 144.7081, 13.2432 ], [ 144.7086, 13.2453 ] ] ], [ [ [ 144.7061, 13.2449 ], [ 144.7067, 13.2441 ], [ 144.7056, 13.2444 ], [ 144.7061, 13.2449 ] ] ], [ [ [ 144.707, 13.2442 ], [ 144.7071, 13.244 ], [ 144.7068, 13.2437 ], [ 144.707, 13.2442 ] ] ], [ [ [ 144.7013, 13.2453 ], [ 144.7012, 13.2448 ], [ 144.7009, 13.2448 ], [ 144.7013, 13.2453 ] ] ], [ [ [ 144.6974, 13.2451 ], [ 144.6977, 13.2451 ], [ 144.6973, 13.2447 ], [ 144.6974, 13.2451 ] ] ], [ [ [ 144.6784, 13.241 ], [ 144.6785, 13.2408 ], [ 144.6753, 13.2399 ], [ 144.6784, 13.241 ] ] ], [ [ [ 144.6627, 13.2856 ], [ 144.6789, 13.2868 ], [ 144.7094, 13.27 ], [ 144.7191, 13.2511 ], [ 144.7062, 13.2463 ], [ 144.6775, 13.2545 ], [ 144.6619, 13.2715 ], [ 144.6627, 13.2856 ] ] ], [ [ [ 144.6572, 13.2426 ], [ 144.659, 13.2413 ], [ 144.6498, 13.2356 ], [ 144.6433, 13.2341 ], [ 144.6572, 13.2426 ] ] ] ] } },
{ "type": "Feature", "properties": { "GEOIDFQ": "1400000US66010980200", "NAME": "9802", "NAMELSAD": "Census Tract 9802" }, "geometry": { "type": "Polygon", "coordinates": [ [ [ 144.672, 13.3452 ], [ 144.6695, 13.3812 ], [ 144.7052, 13.345 ], [ 144.6715, 13.3291 ], [ 144.6641, 13.3398 ], [ 144.672, 13.3452 ] ] ] } },
{ "type": "Feature", "properties": { "GEOIDFQ": "1400000US66010950100", "NAME": "9501", "NAMELSAD": "Census Tract 9501" }, "geometry": { "type": "Polygon", "coordinates": [ [ [ 144.9561, 13.5994 ], [ 144.938, 13.5482 ], [ 144.9165, 13.5568 ], [ 144.924, 13.5636 ], [ 144.9123, 13.5712 ], [ 144.911, 13.5847 ], [ 144.8964, 13.6041 ], [ 144.9561, 13.5994 ] ] ] } },
{ "type": "Feature", "properties": { "GEOIDFQ": "1400000US66010954700", "NAME": "9547", "NAMELSAD": "Census Tract 9547" }, "geometry": { "type": "MultiPolygon", "coordinates": [ [ [ [ 144.6604, 13.4022 ], [ 144.6607, 13.402 ], [ 144.6604, 13.4018 ], [ 144.6604, 13.4022 ] ] ], [ [ [ 144.6604, 13.4016 ], [ 144.6603, 13.4012 ], [ 144.66, 13.4012 ], [ 144.6604, 13.4016 ] ] ], [ [ [ 144.6545, 13.3875 ], [ 144.6557, 13.3865 ], [ 144.6554, 13.3862 ], [ 144.6545, 13.3875 ] ] ], [ [ [ 144.6606, 13.3904 ], [ 144.6631, 13.4011 ], [ 144.6642, 13.401 ], [ 144.6681, 13.3843 ], [ 144.6539, 13.3817 ], [ 144.6606, 13.3904 ] ] ] ] } },
{ "type": "Feature", "properties": { "GEOIDFQ": "1400000US66010954800", "NAME": "9548", "NAMELSAD": "Census Tract 9548" }, "geometry": { "type": "MultiPolygon", "coordinates": [ [ [ [ 144.6513, 13.38 ], [ 144.6515, 13.3797 ], [ 144.6512, 13.3795 ], [ 144.6513, 13.38 ] ] ], [ [ [ 144.6504, 13.3778 ], [ 144.651, 13.378 ], [ 144.6505, 13.3769 ], [ 144.6504, 13.3778 ] ] ], [ [ [ 144.6469, 13.3813 ], [ 144.648, 13.3813 ], [ 144.647, 13.3799 ], [ 144.6469, 13.3813 ] ] ], [ [ [ 144.6375, 13.3589 ], [ 144.6383, 13.3586 ], [ 144.6368, 13.3566 ], [ 144.6375, 13.3589 ] ] ], [ [ [ 144.6539, 13.3817 ], [ 144.6681, 13.3843 ], [ 144.672, 13.3452 ], [ 144.664, 13.3398 ], [ 144.6709, 13.3299 ], [ 144.6355, 13.3414 ], [ 144.6539, 13.3817 ] ] ], [ [ [ 144.6331, 13.342 ], [ 144.6335, 13.3415 ], [ 144.6325, 13.3411 ], [ 144.6331, 13.342 ] ] ] ] } },
{ "type": "Feature", "properties": { "GEOIDFQ": "1400000US66010953500", "NAME": "9535", "NAMELSAD": "Census Tract 9535" }, "geometry": { "type": "Polygon", "coordinates": [ [ [ 144.7438, 13.4754 ], [ 144.7473, 13.472 ], [ 144.7379, 13.472 ], [ 144.7327, 13.4751 ], [ 144.7438, 13.4754 ] ] ] } },
{ "type": "Feature", "properties": { "GEOIDFQ": "1400000US66010951000", "NAME": "9510", "NAMELSAD": "Census Tract 9510" }, "geometry": { "type": "Polygon", "coordinates": [ [ [ 144.836, 13.5237 ], [ 144.8454, 13.5221 ], [ 144.8437, 13.5143 ], [ 144.8277, 13.521 ], [ 144.836, 13.5237 ] ] ] } },
{ "type": "Feature", "properties": { "GEOIDFQ": "1400000US66010951600", "NAME": "9516", "NAMELSAD": "Census Tract 9516" }, "geometry": { "type": "Polygon", "coordinates": [ [ [ 144.8145, 13.4837 ], [ 144.8328, 13.484 ], [ 144.833, 13.4611 ], [ 144.8076, 13.4571 ], [ 144.8061, 13.4731 ], [ 144.8145, 13.4837 ] ] ] } },
{ "type": "Feature", "properties": { "GEOIDFQ": "1400000US66010951700", "NAME": "9517", "NAMELSAD": "Census Tract 9517" }, "geometry": { "type": "Polygon", "coordinates": [ [ [ 144.8228, 13.5007 ], [ 144.8346, 13.4997 ], [ 144.8328, 13.484 ], [ 144.8136, 13.4837 ], [ 144.8228, 13.5007 ] ] ] } },
{ "type": "Feature", "properties": { "GEOIDFQ": "1400000US66010990000", "NAME": "9900", "NAMELSAD": "Census Tract 9900" }, "geometry": { "type": "Polygon", "coordinates": [ [ [ 144.5767, 13.4811 ], [ 144.6112, 13.5102 ], [ 144.6374, 13.5176 ], [ 144.6631, 13.5152 ], [ 144.693, 13.529 ], [ 144.7255, 13.5317 ], [ 144.75, 13.5519 ], [ 144.7774, 13.5986 ], [ 144.7896, 13.6533 ], [ 144.8119, 13.6844 ], [ 144.8385, 13.7027 ], [ 144.8604, 13.7059 ], [ 144.8892, 13.6982 ], [ 144.9126, 13.683 ], [ 144.9405, 13.6506 ], [ 144.9816, 13.6412 ], [ 145.0031, 13.6181 ], [ 145.0082, 13.5862 ], [ 144.972, 13.5 ], [ 144.9541, 13.4789 ], [ 144.9323, 13.4694 ], [ 144.8266, 13.3815 ], [ 144.818, 13.2804 ], [ 144.8027, 13.2512 ], [ 144.7707, 13.2157 ], [ 144.7406, 13.1952 ], [ 144.6358, 13.1825 ], [ 144.6152, 13.189 ], [ 144.5962, 13.2077 ], [ 144.5909, 13.2393 ], [ 144.6084, 13.2706 ], [ 144.603, 13.2951 ], [ 144.5809, 13.3199 ], [ 144.5776, 13.344 ], [ 144.593, 13.3924 ], [ 144.5722, 13.4139 ], [ 144.5634, 13.4481 ], [ 144.5767, 13.4811 ] ], [ [ 144.6386, 13.4307 ], [ 144.6424, 13.4185 ], [ 144.658, 13.4126 ], [ 144.6633, 13.4007 ], [ 144.6354, 13.3413 ], [ 144.647, 13.3353 ], [ 144.6574, 13.3165 ], [ 144.653, 13.3111 ], [ 144.6629, 13.2985 ], [ 144.6571, 13.2935 ], [ 144.6619, 13.2714 ], [ 144.6775, 13.2545 ], [ 144.7012, 13.247 ], [ 144.7192, 13.2511 ], [ 144.7218, 13.2469 ], [ 144.7259, 13.2481 ], [ 144.726, 13.248 ], [ 144.7273, 13.2465 ], [ 144.7435, 13.2649 ], [ 144.7383, 13.2681 ], [ 144.7502, 13.2723 ], [ 144.7485, 13.2789 ], [ 144.759, 13.2792 ], [ 144.7724, 13.3033 ], [ 144.7696, 13.367 ], [ 144.7779, 13.3876 ], [ 144.7716, 13.3934 ], [ 144.7889, 13.4135 ], [ 144.7845, 13.4226 ], [ 144.8073, 13.4272 ], [ 144.8706, 13.486 ], [ 144.8867, 13.4922 ], [ 144.8918, 13.5063 ], [ 144.9259, 13.5211 ], [ 144.9568, 13.5981 ], [ 144.9079, 13.6053 ], [ 144.8803, 13.6444 ], [ 144.8592, 13.6543 ], [ 144.8367, 13.6241 ], [ 144.8312, 13.5777 ], [ 144.8021, 13.5358 ], [ 144.8051, 13.5157 ], [ 144.797, 13.5062 ], [ 144.7715, 13.5039 ], [ 144.7752, 13.4909 ], [ 144.7694, 13.4811 ], [ 144.7074, 13.4769 ], [ 144.69, 13.4636 ], [ 144.6383, 13.4648 ], [ 144.6181, 13.4478 ], [ 144.6386, 13.4307 ] ], [ [ 144.7254, 13.2463 ], [ 144.7256, 13.2462 ], [ 144.726, 13.248 ], [ 144.7254, 13.2463 ] ], [ [ 144.6325, 13.3411 ], [ 144.6335, 13.3415 ], [ 144.6331, 13.342 ], [ 144.6325, 13.3411 ] ], [ [ 144.6368, 13.3566 ], [ 144.6383, 13.3586 ], [ 144.6372, 13.3588 ], [ 144.6368, 13.3566 ] ], [ [ 144.6498, 13.2356 ], [ 144.659, 13.2413 ], [ 144.6572, 13.2426 ], [ 144.6432, 13.2339 ], [ 144.6498, 13.2356 ] ], [ [ 144.6471, 13.4131 ], [ 144.6483, 13.4137 ], [ 144.6465, 13.415 ], [ 144.6471, 13.4131 ] ], [ [ 144.6471, 13.38 ], [ 144.648, 13.3813 ], [ 144.6467, 13.3811 ], [ 144.6471, 13.38 ] ], [ [ 144.6506, 13.377 ], [ 144.651, 13.378 ], [ 144.6504, 13.3778 ], [ 144.6506, 13.377 ] ], [ [ 144.6514, 13.3796 ], [ 144.6513, 13.38 ], [ 144.6512, 13.3799 ], [ 144.6514, 13.3796 ] ], [ [ 144.6554, 13.3862 ], [ 144.6557, 13.3865 ], [ 144.6544, 13.3875 ], [ 144.6554, 13.3862 ] ], [ [ 144.6553, 13.3066 ], [ 144.6554, 13.3066 ], [ 144.6554, 13.3069 ], [ 144.6553, 13.3066 ] ], [ [ 144.6601, 13.4012 ], [ 144.6603, 13.4012 ], [ 144.6601, 13.4018 ], [ 144.6601, 13.4012 ] ], [ [ 144.6605, 13.4018 ], [ 144.6607, 13.402 ], [ 144.6603, 13.4022 ], [ 144.6605, 13.4018 ] ], [ [ 144.6768, 13.2401 ], [ 144.6785, 13.2408 ], [ 144.672, 13.2402 ], [ 144.6768, 13.2401 ] ], [ [ 144.6973, 13.2447 ], [ 144.6977, 13.2451 ], [ 144.6974, 13.2451 ], [ 144.6973, 13.2447 ] ], [ [ 144.7012, 13.2448 ], [ 144.7013, 13.2453 ], [ 144.701, 13.2453 ], [ 144.7012, 13.2448 ] ], [ [ 144.7053, 13.4801 ], [ 144.7056, 13.4801 ], [ 144.7055, 13.4805 ], [ 144.7053, 13.4801 ] ], [ [ 144.7068, 13.2437 ], [ 144.7071, 13.2441 ], [ 144.7063, 13.2439 ], [ 144.7055, 13.244 ], [ 144.7068, 13.2437 ] ], [ [ 144.7063, 13.244 ], [ 144.7067, 13.2441 ], [ 144.706, 13.2449 ], [ 144.7063, 13.244 ] ], [ [ 144.7081, 13.2432 ], [ 144.7085, 13.243 ], [ 144.7086, 13.2453 ], [ 144.7081, 13.2432 ] ], [ [ 144.7175, 13.247 ], [ 144.7173, 13.2489 ], [ 144.7165, 13.2479 ], [ 144.7175, 13.247 ] ], [ [ 144.7319, 13.2498 ], [ 144.7323, 13.2507 ], [ 144.7317, 13.2507 ], [ 144.7319, 13.2498 ] ], [ [ 144.7449, 13.2683 ], [ 144.7456, 13.2686 ], [ 144.7448, 13.2693 ], [ 144.7449, 13.2683 ] ], [ [ 144.7705, 13.4923 ], [ 144.7715, 13.4929 ], [ 144.77, 13.4931 ], [ 144.7705, 13.4923 ] ] ] } },
{ "type": "Feature", "properties": { "GEOIDFQ": "1400000US66010956300", "NAME": "9563", "NAMELSAD": "Census Tract 9563" }, "geometry": { "type": "Polygon", "coordinates": [ [ [ 144.8708, 13.5196 ], [ 144.8828, 13.5248 ], [ 144.8828, 13.5074 ], [ 144.9026, 13.528 ], [ 144.9165, 13.5568 ], [ 144.9378, 13.548 ], [ 144.9258, 13.5211 ], [ 144.892, 13.5064 ], [ 144.8853, 13.4915 ], [ 144.8711, 13.486 ], [ 144.8708, 13.5196 ] ] ] } }
]
}
