{
"type": "FeatureCollection",
"name": "state_78_tracts_simplified",
"crs": { "type": "name", "properties": { "name": "urn:ogc:def:crs:OGC:1.3:CRS84" } },
"features": [
{ "type": "Feature", "properties": { "GEOIDFQ": "1400000US78020990000", "NAME": "9900", "NAMELSAD": "Census Tract 9900" }, "geometry": { "type": "Polygon", "coordinates": [ [ [ -64.8003, 18.4076 ], [ -64.785, 18.4038 ], [ -64.778, 18.3862 ], [ -64.7569, 18.3767 ], [ -64.6404, 18.364 ], [ -64.6377, 18.3198 ], [ -64.6639, 18.2854 ], [ -64.6643, 18.2613 ], [ -64.6945, 18.2488 ], [ -64.7202, 18.2507 ], [ -64.7487, 18.2631 ], [ -64.7683, 18.2603 ], [ -64.7999, 18.3168 ], [ -64.8437, 18.3495 ], [ -64.8437, 18.3937 ], [ -64.8003, 18.4076 ] ], [ [ -64.8338, 18.3571 ], [ -64.8262, 18.3603 ], [ -64.8342, 18.3598 ], [ -64.8399, 18.3569 ], [ -64.8338, 18.3571 ] ], [ [ -64.8166, 18.3581 ], [ -64.815, 18.3593 ], [ -64.8155, 18.3605 ], [ -64.8254, 18.3602 ], [ -64.8166, 18.3581 ] ], [ [ -64.8171, 18.3427 ], [ -64.8172, 18.343 ], [ -64.8176, 18.3426 ], [ -64.8171, 18.3427 ] ], [ [ -64.817, 18.3433 ], [ -64.8167, 18.3435 ], [ -64.817, 18.3437 ], [ -64.817, 18.3433 ] ], [ [ -64.8095, 18.3585 ], [ -64.7978, 18.3636 ], [ -64.8017, 18.3655 ], [ -64.8134, 18.3616 ], [ -64.8095, 18.3585 ] ], [ [ -64.8041, 18.3668 ], [ -64.7976, 18.3691 ], [ -64.8034, 18.3685 ], [ -64.8041, 18.3668 ] ], [ [ -64.8075, 18.3294 ], [ -64.8068, 18.3286 ], [ -64.8072, 18.3311 ], [ -64.8075, 18.3294 ] ], [ [ -64.805, 18.3284 ], [ -64.8049, 18.3285 ], [ -64.805, 18.3285 ], [ -64.805, 18.3284 ] ], [ [ -64.8025, 18.3596 ], [ -64.8025, 18.3597 ], [ -64.8027, 18.3597 ], [ -64.8025, 18.3596 ] ], [ [ -64.7815, 18.3105 ], [ -64.7372, 18.3168 ], [ -64.7039, 18.3042 ], [ -64.7028, 18.2982 ], [ -64.6621, 18.3336 ], [ -64.6606, 18.3434 ], [ -64.691, 18.3612 ], [ -64.7497, 18.3729 ], [ -64.7705, 18.3516 ], [ -64.7869, 18.3529 ], [ -64.7998, 18.3265 ], [ -64.7815, 18.3105 ] ], [ [ -64.7968, 18.3555 ], [ -64.7964, 18.3564 ], [ -64.7971, 18.356 ], [ -64.7968, 18.3555 ] ], [ [ -64.7954, 18.3642 ], [ -64.7953, 18.3643 ], [ -64.7955, 18.3643 ], [ -64.7954, 18.3642 ] ], [ [ -64.7944, 18.3695 ], [ -64.7938, 18.3698 ], [ -64.7941, 18.3699 ], [ -64.7944, 18.3695 ] ], [ [ -64.7923, 18.3519 ], [ -64.7916, 18.3521 ], [ -64.793, 18.3545 ], [ -64.7923, 18.3519 ] ], [ [ -64.7893, 18.3544 ], [ -64.7887, 18.3546 ], [ -64.7892, 18.3558 ], [ -64.7893, 18.3544 ] ], [ [ -64.777, 18.3537 ], [ -64.7767, 18.354 ], [ -64.7768, 18.3544 ], [ -64.777, 18.3537 ] ], [ [ -64.7556, 18.3693 ], [ -64.755, 18.3707 ], [ -64.7574, 18.3712 ], [ -64.7556, 18.3693 ] ], [ [ -64.7099, 18.3019 ], [ -64.7098, 18.3019 ], [ -64.7096, 18.3024 ], [ -64.7099, 18.3019 ] ], [ [ -64.6502, 18.324 ], [ -64.6487, 18.3282 ], [ -64.6512, 18.328 ], [ -64.6502, 18.324 ] ] ] } },
{ "type": "Feature", "properties": { "GEOIDFQ": "1400000US78030960700", "NAME": "9607", "NAMELSAD": "Census Tract 9607" }, "geometry": { "type": "MultiPolygon", "coordinates": [ [ [ [ -64.8786, 18.3237 ], [ -64.8668, 18.3255 ], [ -64.8669, 18.3339 ], [ -64.8529, 18.3246 ], [ -64.8449, 18.3305 ], [ -64.8332, 18.3265 ], [ -64.812, 18.2946 ], [ -64.8292, 18.2978 ], [ -64.8459, 18.3116 ], [ -64.8623, 18.307 ], [ -64.8624, 18.3175 ], [ -64.8815, 18.3171 ], [ -64.8786, 18.3237 ] ] ] ] } },
{ "type": "Feature", "properties": { "GEOIDFQ": "1400000US78030961100", "NAME": "9611", "NAMELSAD": "Census Tract 9611" }, "geometry": { "type": "Polygon", "coordinates": [ [ [ -64.9194, 18.3346 ], [ -64.9214, 18.3504 ], [ -64.9048, 18.344 ], [ -64.9062, 18.3275 ], [ -64.9265, 18.3303 ], [ -64.9194, 18.3346 ] ] ] } },
{ "type": "Feature", "properties": { "GEOIDFQ": "1400000US78030960200", "NAME": "9602", "NAMELSAD": "Census Tract 9602" }, "geometry": { "type": "Polygon", "coordinates": [ [ [ -64.9048, 18.344 ], [ -64.8785, 18.3442 ], [ -64.8668, 18.3255 ], [ -64.8831, 18.329 ], [ -64.8953, 18.3227 ], [ -64.9064, 18.3305 ], [ -64.9048, 18.344 ] ] ] } },
{ "type": "Feature", "properties": { "GEOIDFQ": "1400000US78030960900", "NAME": "9609", "NAMELSAD": "Census Tract 9609" }, "geometry": { "type": "MultiPolygon", "coordinates": [ [ [ [ -64.8519, 18.2325 ], [ -64.8508, 18.2305 ], [ -64.8528, 18.2308 ], [ -64.8519, 18.2325 ] ] ], [ [ [ -64.8937, 18.2798 ], [ -64.8856, 18.2763 ], [ -64.8964, 18.2742 ], [ -64.8937, 18.2798 ] ] ], [ [ [ -64.908, 18.3094 ], [ -64.9078, 18.3094 ], [ -64.9081, 18.3092 ], [ -64.908, 18.3094 ] ] ], [ [ [ -64.9083, 18.3101 ], [ -64.9079, 18.3102 ], [ -64.9081, 18.3096 ], [ -64.9083, 18.3101 ] ] ], [ [ [ -64.9181, 18.3132 ], [ -64.9181, 18.3131 ], [ -64.9182, 18.3131 ], [ -64.9181, 18.3132 ] ] ], [ [ [ -64.8953, 18.3227 ], [ -64.8831, 18.329 ], [ -64.8815, 18.3171 ], [ -64.8624, 18.3174 ], [ -64.8622, 18.307 ], [ -64.8785, 18.3027 ], [ -64.8876, 18.3107 ], [ -64.9061, 18.3109 ], [ -64.9272, 18.3209 ], [ -64.9288, 18.3289 ], [ -64.8953, 18.3227 ] ] ] ] } },
{ "type": "Feature", "properties": { "GEOIDFQ": "1400000US78010990000", "NAME": "9900", "NAMELSAD": "Census Tract 9900" }, "geometry": { "type": "Polygon", "coordinates": [ [ [ -64.9389, 17.7175 ], [ -64.9468, 17.748 ], [ -64.9342, 17.7847 ], [ -64.9106, 17.809 ], [ -64.8827, 17.8203 ], [ -64.8421, 17.8148 ], [ -64.7981, 17.8331 ], [ -64.7471, 17.8352 ], [ -64.7244, 17.8292 ], [ -64.6975, 17.8088 ], [ -64.6523, 17.8424 ], [ -64.6121, 17.8435 ], [ -64.58, 17.8309 ], [ -64.5298, 17.793 ], [ -64.5132, 17.7604 ], [ -64.5247, 17.7227 ], [ -64.5487, 17.703 ], [ -64.6337, 17.6646 ], [ -64.7564, 17.6306 ], [ -64.8017, 17.6247 ], [ -64.8656, 17.6353 ], [ -64.8925, 17.6242 ], [ -64.9159, 17.6252 ], [ -64.9436, 17.6441 ], [ -64.9567, 17.679 ], [ -64.9389, 17.7175 ] ], [ [ -64.9004, 17.6739 ], [ -64.8843, 17.6857 ], [ -64.854, 17.6868 ], [ -64.8391, 17.6797 ], [ -64.7894, 17.6959 ], [ -64.7663, 17.6898 ], [ -64.7613, 17.6824 ], [ -64.6378, 17.7221 ], [ -64.6099, 17.7328 ], [ -64.5982, 17.7452 ], [ -64.5779, 17.7455 ], [ -64.5652, 17.7551 ], [ -64.583, 17.7619 ], [ -64.5972, 17.7565 ], [ -64.6408, 17.7595 ], [ -64.6553, 17.7659 ], [ -64.682, 17.7603 ], [ -64.698, 17.7478 ], [ -64.7088, 17.7469 ], [ -64.7485, 17.7836 ], [ -64.8049, 17.7791 ], [ -64.8365, 17.7616 ], [ -64.8721, 17.7712 ], [ -64.8885, 17.7609 ], [ -64.894, 17.7474 ], [ -64.8852, 17.7212 ], [ -64.9038, 17.6797 ], [ -64.9004, 17.6739 ] ], [ [ -64.7027, 17.7486 ], [ -64.7019, 17.7506 ], [ -64.7032, 17.7506 ], [ -64.7027, 17.7486 ] ], [ [ -64.6657, 17.7648 ], [ -64.6642, 17.7691 ], [ -64.6659, 17.7683 ], [ -64.6657, 17.7648 ] ], [ [ -64.6219, 17.7836 ], [ -64.6112, 17.7872 ], [ -64.6239, 17.7901 ], [ -64.6284, 17.7888 ], [ -64.6219, 17.7836 ] ] ] } },
{ "type": "Feature", "properties": { "GEOIDFQ": "1400000US78010970300", "NAME": "9703", "NAMELSAD": "Census Tract 9703" }, "geometry": { "type": "Polygon", "coordinates": [ [ [ -64.7363, 17.7675 ], [ -64.7136, 17.752 ], [ -64.7134, 17.7397 ], [ -64.7312, 17.7508 ], [ -64.7424, 17.7473 ], [ -64.7452, 17.7554 ], [ -64.7363, 17.7675 ] ] ] } },
{ "type": "Feature", "properties": { "GEOIDFQ": "1400000US78010970800", "NAME": "9708", "NAMELSAD": "Census Tract 9708" }, "geometry": { "type": "Polygon", "coordinates": [ [ [ -64.7913, 17.7592 ], [ -64.7908, 17.7413 ], [ -64.7725, 17.747 ], [ -64.7765, 17.7368 ], [ -64.771, 17.7204 ], [ -64.7834, 17.7107 ], [ -64.7852, 17.7158 ], [ -64.7938, 17.7134 ], [ -64.7966, 17.7215 ], [ -64.8022, 17.7198 ], [ -64.8132, 17.7525 ], [ -64.7913, 17.7592 ] ] ] } },
{ "type": "Feature", "properties": { "GEOIDFQ": "1400000US78010971200", "NAME": "9712", "NAMELSAD": "Census Tract 9712" }, "geometry": { "type": "Polygon", "coordinates": [ [ [ -64.8592, 17.7023 ], [ -64.8619, 17.7103 ], [ -64.8564, 17.7121 ], [ -64.8391, 17.6799 ], [ -64.854, 17.6868 ], [ -64.8783, 17.6841 ], [ -64.882, 17.6951 ], [ -64.8592, 17.7023 ] ] ] } },
{ "type": "Feature", "properties": { "GEOIDFQ": "1400000US78010971400", "NAME": "9714", "NAMELSAD": "Census Tract 9714" }, "geometry": { "type": "Polygon", "coordinates": [ [ [ -64.7966, 17.7215 ], [ -64.7938, 17.7134 ], [ -64.7852, 17.7158 ], [ -64.7834, 17.7107 ], [ -64.7655, 17.7222 ], [ -64.7571, 17.7154 ], [ -64.7455, 17.7189 ], [ -64.7396, 17.701 ], [ -64.7323, 17.7045 ], [ -64.7176, 17.6984 ], [ -64.7613, 17.6824 ], [ -64.7663, 17.6898 ], [ -64.7893, 17.6959 ], [ -64.8222, 17.6868 ], [ -64.8364, 17.7094 ], [ -64.7966, 17.7215 ] ] ] } },
{ "type": "Feature", "properties": { "GEOIDFQ": "1400000US78010971300", "NAME": "9713", "NAMELSAD": "Census Tract 9713" }, "geometry": { "type": "Polygon", "coordinates": [ [ [ -64.8419, 17.7255 ], [ -64.8221, 17.6862 ], [ -64.8392, 17.6798 ], [ -64.8592, 17.7203 ], [ -64.8419, 17.7255 ] ] ] } },
{ "type": "Feature", "properties": { "GEOIDFQ": "1400000US78010970200", "NAME": "9702", "NAMELSAD": "Census Tract 9702" }, "geometry": { "type": "MultiPolygon", "coordinates": [ [ [ [ -64.7032, 17.7506 ], [ -64.7019, 17.7506 ], [ -64.7027, 17.7486 ], [ -64.7032, 17.7506 ] ] ], [ [ [ -64.6796, 17.7522 ], [ -64.6868, 17.7502 ], [ -64.6801, 17.7316 ], [ -64.6914, 17.7279 ], [ -64.7021, 17.7372 ], [ -64.7097, 17.7349 ], [ -64.7152, 17.7458 ], [ -64.6796, 17.7522 ] ] ] ] } },
{ "type": "Feature", "properties": { "GEOIDFQ": "1400000US78010971100", "NAME": "9711", "NAMELSAD": "Census Tract 9711" }, "geometry": { "type": "Polygon", "coordinates": [ [ [ -64.8852, 17.7213 ], [ -64.8677, 17.7269 ], [ -64.8648, 17.7185 ], [ -64.8592, 17.7203 ], [ -64.8592, 17.7023 ], [ -64.882, 17.6951 ], [ -64.8783, 17.6841 ], [ -64.9004, 17.6739 ], [ -64.9038, 17.6797 ], [ -64.8852, 17.7213 ] ] ] } },
{ "type": "Feature", "properties": { "GEOIDFQ": "1400000US78010971000", "NAME": "9710", "NAMELSAD": "Census Tract 9710" }, "geometry": { "type": "Polygon", "coordinates": [ [ [ -64.8779, 17.7699 ], [ -64.8366, 17.7616 ], [ -64.8168, 17.7694 ], [ -64.8143, 17.7612 ], [ -64.8206, 17.7592 ], [ -64.8049, 17.728 ], [ -64.8276, 17.721 ], [ -64.8327, 17.7378 ], [ -64.8474, 17.7236 ], [ -64.8648, 17.7185 ], [ -64.8677, 17.7269 ], [ -64.8852, 17.7213 ], [ -64.8943, 17.7453 ], [ -64.8779, 17.7699 ] ] ] } },
{ "type": "Feature", "properties": { "GEOIDFQ": "1400000US78030960600", "NAME": "9606", "NAMELSAD": "Census Tract 9606" }, "geometry": { "type": "Polygon", "coordinates": [ [ [ -64.9549, 18.3522 ], [ -64.9509, 18.3615 ], [ -64.9386, 18.3441 ], [ -64.9481, 18.3451 ], [ -64.9474, 18.3378 ], [ -64.9531, 18.3371 ], [ -64.9641, 18.3546 ], [ -64.9549, 18.3522 ] ] ] } },
{ "type": "Feature", "properties": { "GEOIDFQ": "1400000US78010970900", "NAME": "9709", "NAMELSAD": "Census Tract 9709" }, "geometry": { "type": "Polygon", "coordinates": [ [ [ -64.8327, 17.7378 ], [ -64.8276, 17.721 ], [ -64.8049, 17.728 ], [ -64.8022, 17.7198 ], [ -64.8364, 17.7094 ], [ -64.8448, 17.7319 ], [ -64.8327, 17.7378 ] ] ] } },
{ "type": "Feature", "properties": { "GEOIDFQ": "1400000US78010970500", "NAME": "9705", "NAMELSAD": "Census Tract 9705" }, "geometry": { "type": "Polygon", "coordinates": [ [ [ -64.7538, 17.7437 ], [ -64.756, 17.7545 ], [ -64.7452, 17.7554 ], [ -64.7424, 17.7473 ], [ -64.7312, 17.7508 ], [ -64.7269, 17.7441 ], [ -64.7397, 17.739 ], [ -64.7314, 17.7234 ], [ -64.7512, 17.7171 ], [ -64.7594, 17.742 ], [ -64.7538, 17.7437 ] ] ] } },
{ "type": "Feature", "properties": { "GEOIDFQ": "1400000US78010970700", "NAME": "9707", "NAMELSAD": "Census Tract 9707" }, "geometry": { "type": "Polygon", "coordinates": [ [ [ -64.8067, 17.7785 ], [ -64.7785, 17.7838 ], [ -64.7679, 17.7484 ], [ -64.7908, 17.7413 ], [ -64.7913, 17.7592 ], [ -64.8179, 17.7511 ], [ -64.8206, 17.7592 ], [ -64.8067, 17.7785 ] ] ] } },
{ "type": "Feature", "properties": { "GEOIDFQ": "1400000US78010970100", "NAME": "9701", "NAMELSAD": "Census Tract 9701" }, "geometry": { "type": "MultiPolygon", "coordinates": [ [ [ [ -64.6239, 17.7901 ], [ -64.6112, 17.7872 ], [ -64.6219, 17.7836 ], [ -64.6284, 17.7889 ], [ -64.6239, 17.7901 ] ] ], [ [ [ -64.6659, 17.7683 ], [ -64.6642, 17.7691 ], [ -64.6657, 17.7648 ], [ -64.6659, 17.7683 ] ] ], [ [ [ -64.6945, 17.7553 ], [ -64.682, 17.7603 ], [ -64.6553, 17.7659 ], [ -64.6408, 17.7595 ], [ -64.5972, 17.7565 ], [ -64.583, 17.7619 ], [ -64.5652, 17.7551 ], [ -64.5779, 17.7455 ], [ -64.5982, 17.7452 ], [ -64.6099, 17.7328 ], [ -64.6391, 17.7218 ], [ -64.6519, 17.7495 ], [ -64.6602, 17.7469 ], [ -64.6564, 17.7347 ], [ -64.6677, 17.7311 ], [ -64.6716, 17.7434 ], [ -64.6833, 17.7398 ], [ -64.6868, 17.7502 ], [ -64.6836, 17.7473 ], [ -64.6796, 17.7522 ], [ -64.696, 17.75 ], [ -64.6945, 17.7553 ] ] ] ] } },
{ "type": "Feature", "properties": { "GEOIDFQ": "1400000US78010970600", "NAME": "9706", "NAMELSAD": "Census Tract 9706" }, "geometry": { "type": "MultiPolygon", "coordinates": [ [ [ [ -64.7493, 17.7872 ], [ -64.7492, 17.7871 ], [ -64.7493, 17.787 ], [ -64.7493, 17.7872 ] ] ], [ [ [ -64.7669, 17.7579 ], [ -64.7752, 17.7824 ], [ -64.7484, 17.7836 ], [ -64.7374, 17.7713 ], [ -64.7396, 17.7571 ], [ -64.7572, 17.7541 ], [ -64.7538, 17.7437 ], [ -64.7765, 17.737 ], [ -64.7669, 17.7579 ] ] ] ] } },
{ "type": "Feature", "properties": { "GEOIDFQ": "1400000US78010971500", "NAME": "9715", "NAMELSAD": "Census Tract 9715" }, "geometry": { "type": "Polygon", "coordinates": [ [ [ -64.7595, 17.7419 ], [ -64.7512, 17.7171 ], [ -64.771, 17.7204 ], [ -64.7765, 17.7367 ], [ -64.7595, 17.7419 ] ] ] } },
{ "type": "Feature", "properties": { "GEOIDFQ": "1400000US78010970400", "NAME": "9704", "NAMELSAD": "Census Tract 9704" }, "geometry": { "type": "Polygon", "coordinates": [ [ [ -64.7314, 17.7234 ], [ -64.7397, 17.739 ], [ -64.7293, 17.7436 ], [ -64.7021, 17.7372 ], [ -64.6914, 17.7279 ], [ -64.6801, 17.7316 ], [ -64.6833, 17.7398 ], [ -64.6716, 17.7434 ], [ -64.6677, 17.7311 ], [ -64.6564, 17.7347 ], [ -64.6602, 17.7469 ], [ -64.6519, 17.7495 ], [ -64.6391, 17.7218 ], [ -64.7178, 17.6983 ], [ -64.7323, 17.7045 ], [ -64.7396, 17.701 ], [ -64.7455, 17.7189 ], [ -64.7314, 17.7234 ] ] ] } },
{ "type": "Feature", "properties": { "GEOIDFQ": "1400000US78020950200", "NAME": "9502", "NAMELSAD": "Census Tract 9502" }, "geometry": { "type": "MultiPolygon", "coordinates": [ [ [ [ -64.7988, 18.3332 ], [ -64.7733, 18.3372 ], [ -64.7563, 18.3262 ], [ -64.7563, 18.3166 ], [ -64.7815, 18.3105 ], [ -64.7998, 18.3266 ], [ -64.7988, 18.3332 ] ] ], [ [ [ -64.8072, 18.3311 ], [ -64.8068, 18.3286 ], [ -64.8075, 18.3294 ], [ -64.8072, 18.3311 ] ] ] ] } },
{ "type": "Feature", "properties": { "GEOIDFQ": "1400000US78020950100", "NAME": "9501", "NAMELSAD": "Census Tract 9501" }, "geometry": { "type": "MultiPolygon", "coordinates": [ [ [ [ -64.6512, 18.328 ], [ -64.6487, 18.3282 ], [ -64.6502, 18.324 ], [ -64.6512, 18.328 ] ] ], [ [ [ -64.7096, 18.3024 ], [ -64.7098, 18.3019 ], [ -64.7099, 18.3019 ], [ -64.7096, 18.3024 ] ] ], [ [ [ -64.7574, 18.3712 ], [ -64.755, 18.3707 ], [ -64.7558, 18.3692 ], [ -64.7574, 18.3712 ] ] ], [ [ [ -64.7768, 18.3544 ], [ -64.7767, 18.354 ], [ -64.777, 18.3537 ], [ -64.7768, 18.3544 ] ] ], [ [ [ -64.7892, 18.3558 ], [ -64.7887, 18.3546 ], [ -64.7893, 18.3544 ], [ -64.7892, 18.3558 ] ] ], [ [ [ -64.793, 18.3545 ], [ -64.7916, 18.3521 ], [ -64.7923, 18.3519 ], [ -64.793, 18.3545 ] ] ], [ [ [ -64.7941, 18.3699 ], [ -64.7938, 18.3698 ], [ -64.7944, 18.3695 ], [ -64.7941, 18.3699 ] ] ], [ [ [ -64.7966, 18.3564 ], [ -64.7964, 18.3564 ], [ -64.7968, 18.3555 ], [ -64.7966, 18.3564 ] ] ], [ [ [ -64.7869, 18.3529 ], [ -64.7705, 18.3516 ], [ -64.7488, 18.373 ], [ -64.691, 18.3612 ], [ -64.6606, 18.3434 ], [ -64.6621, 18.3336 ], [ -64.7029, 18.2982 ], [ -64.7039, 18.3042 ], [ -64.7351, 18.3162 ], [ -64.7563, 18.3166 ], [ -64.7563, 18.3262 ], [ -64.7733, 18.3372 ], [ -64.7931, 18.3323 ], [ -64.799, 18.3367 ], [ -64.7869, 18.3529 ] ] ], [ [ [ -64.8025, 18.3597 ], [ -64.8025, 18.3596 ], [ -64.8027, 18.3596 ], [ -64.8025, 18.3597 ] ] ], [ [ [ -64.8019, 18.3688 ], [ -64.7976, 18.3691 ], [ -64.8041, 18.3668 ], [ -64.8019, 18.3688 ] ] ], [ [ [ -64.8017, 18.3655 ], [ -64.7978, 18.3636 ], [ -64.8097, 18.3585 ], [ -64.8134, 18.3616 ], [ -64.8017, 18.3655 ] ] ], [ [ [ -64.8169, 18.3436 ], [ -64.8167, 18.3435 ], [ -64.817, 18.3433 ], [ -64.8169, 18.3436 ] ] ], [ [ [ -64.8174, 18.3427 ], [ -64.8172, 18.343 ], [ -64.8172, 18.3426 ], [ -64.8174, 18.3427 ] ] ], [ [ [ -64.8155, 18.3605 ], [ -64.815, 18.3593 ], [ -64.8166, 18.3581 ], [ -64.8254, 18.3603 ], [ -64.8155, 18.3605 ] ] ], [ [ [ -64.8342, 18.3598 ], [ -64.8262, 18.3603 ], [ -64.8342, 18.357 ], [ -64.8399, 18.3569 ], [ -64.8342, 18.3598 ] ] ] ] } },
{ "type": "Feature", "properties": { "GEOIDFQ": "1400000US78030961200", "NAME": "9612", "NAMELSAD": "Census Tract 9612" }, "geometry": { "type": "Polygon", "coordinates": [ [ [ -64.9286, 18.3515 ], [ -64.9214, 18.3504 ], [ -64.9194, 18.3346 ], [ -64.9288, 18.3289 ], [ -64.9286, 18.3515 ] ] ] } },
{ "type": "Feature", "properties": { "GEOIDFQ": "1400000US78030960800", "NAME": "9608", "NAMELSAD": "Census Tract 9608" }, "geometry": { "type": "MultiPolygon", "coordinates": [ [ [ [ -64.9574, 18.3062 ], [ -64.9574, 18.3061 ], [ -64.9576, 18.3061 ], [ -64.9574, 18.3062 ] ] ], [ [ [ -64.9711, 18.3468 ], [ -64.9708, 18.357 ], [ -64.9641, 18.3546 ], [ -64.9531, 18.3371 ], [ -64.9451, 18.338 ], [ -64.9401, 18.3174 ], [ -64.9512, 18.3171 ], [ -64.9536, 18.3075 ], [ -64.9602, 18.3076 ], [ -64.9588, 18.3185 ], [ -64.9748, 18.3353 ], [ -64.9839, 18.3356 ], [ -64.9858, 18.3452 ], [ -64.9711, 18.3468 ] ] ] ] } },
{ "type": "Feature", "properties": { "GEOIDFQ": "1400000US78030960100", "NAME": "9601", "NAMELSAD": "Census Tract 9601" }, "geometry": { "type": "MultiPolygon", "coordinates": [ [ [ [ -64.8447, 18.3376 ], [ -64.8441, 18.3376 ], [ -64.8444, 18.3372 ], [ -64.8447, 18.3376 ] ] ], [ [ [ -64.8584, 18.3466 ], [ -64.8583, 18.3465 ], [ -64.8584, 18.3464 ], [ -64.8584, 18.3466 ] ] ], [ [ [ -64.8761, 18.3609 ], [ -64.8758, 18.3608 ], [ -64.8763, 18.3605 ], [ -64.8761, 18.3609 ] ] ], [ [ [ -64.8865, 18.3582 ], [ -64.8797, 18.3546 ], [ -64.8708, 18.3634 ], [ -64.8537, 18.363 ], [ -64.8474, 18.3575 ], [ -64.8626, 18.3494 ], [ -64.8616, 18.3444 ], [ -64.8449, 18.3295 ], [ -64.8529, 18.3246 ], [ -64.8894, 18.3545 ], [ -64.8865, 18.3582 ] ] ] ] } },
{ "type": "Feature", "properties": { "GEOIDFQ": "1400000US78030990000", "NAME": "9900", "NAMELSAD": "Census Tract 9900" }, "geometry": { "type": "Polygon", "coordinates": [ [ [ -65.1507, 18.3028 ], [ -65.1377, 18.3206 ], [ -65.1351, 18.3509 ], [ -65.1174, 18.3802 ], [ -65.1122, 18.4188 ], [ -65.0918, 18.4471 ], [ -65.0607, 18.4597 ], [ -65.0415, 18.4591 ], [ -65.0078, 18.4407 ], [ -64.9824, 18.4507 ], [ -64.9505, 18.4463 ], [ -64.933, 18.4596 ], [ -64.9076, 18.465 ], [ -64.891, 18.4622 ], [ -64.8739, 18.4063 ], [ -64.865, 18.3959 ], [ -64.8437, 18.3937 ], [ -64.8437, 18.3495 ], [ -64.7999, 18.3168 ], [ -64.7683, 18.2603 ], [ -64.8013, 18.2451 ], [ -64.8028, 18.2134 ], [ -64.8185, 18.1921 ], [ -64.858, 18.1796 ], [ -64.8898, 18.1942 ], [ -64.9062, 18.2242 ], [ -64.9337, 18.238 ], [ -64.9465, 18.2572 ], [ -65.0198, 18.2524 ], [ -65.0502, 18.2691 ], [ -65.0677, 18.2439 ], [ -65.1008, 18.2326 ], [ -65.1173, 18.2348 ], [ -65.1426, 18.2508 ], [ -65.1539, 18.2811 ], [ -65.1507, 18.3028 ] ], [ [ -65.1006, 18.2828 ], [ -65.1002, 18.2829 ], [ -65.1004, 18.2835 ], [ -65.1006, 18.2828 ] ], [ [ -65.075, 18.3388 ], [ -65.075, 18.3468 ], [ -65.0847, 18.3391 ], [ -65.075, 18.3388 ] ], [ [ -65.0715, 18.3412 ], [ -65.0716, 18.3415 ], [ -65.0717, 18.3414 ], [ -65.0715, 18.3412 ] ], [ [ -65.064, 18.3778 ], [ -65.0638, 18.3782 ], [ -65.0641, 18.3782 ], [ -65.064, 18.3778 ] ], [ [ -65.0612, 18.3781 ], [ -65.0592, 18.3811 ], [ -65.0612, 18.3817 ], [ -65.0612, 18.3781 ] ], [ [ -65.0605, 18.403 ], [ -65.0574, 18.4033 ], [ -65.0593, 18.4062 ], [ -65.0605, 18.403 ] ], [ [ -65.0578, 18.3495 ], [ -65.0572, 18.3495 ], [ -65.0578, 18.3516 ], [ -65.0578, 18.3495 ] ], [ [ -65.0267, 18.3411 ], [ -64.986, 18.3452 ], [ -64.9839, 18.3356 ], [ -64.9748, 18.3353 ], [ -64.9588, 18.3185 ], [ -64.9577, 18.3062 ], [ -64.9512, 18.3171 ], [ -64.9329, 18.3225 ], [ -64.9061, 18.3109 ], [ -64.8876, 18.3107 ], [ -64.8785, 18.3027 ], [ -64.8459, 18.3116 ], [ -64.8292, 18.2978 ], [ -64.812, 18.2946 ], [ -64.8332, 18.3265 ], [ -64.8613, 18.3436 ], [ -64.8626, 18.3494 ], [ -64.8494, 18.3606 ], [ -64.8708, 18.3634 ], [ -64.8834, 18.355 ], [ -64.9406, 18.3833 ], [ -64.9601, 18.3714 ], [ -64.9681, 18.3811 ], [ -64.967, 18.3932 ], [ -64.9754, 18.4019 ], [ -64.9823, 18.3726 ], [ -65.0179, 18.3611 ], [ -65.0569, 18.3632 ], [ -65.0267, 18.3411 ] ], [ [ -65.0497, 18.4089 ], [ -65.0496, 18.4074 ], [ -65.0491, 18.4091 ], [ -65.0497, 18.4089 ] ], [ [ -64.998, 18.3051 ], [ -65.0003, 18.3092 ], [ -65.0012, 18.3089 ], [ -64.998, 18.3051 ] ], [ [ -64.99, 18.3849 ], [ -64.9898, 18.3851 ], [ -64.9906, 18.3858 ], [ -64.99, 18.3849 ] ], [ [ -64.9896, 18.3156 ], [ -64.9886, 18.3178 ], [ -64.9902, 18.3173 ], [ -64.9896, 18.3156 ] ], [ [ -64.9537, 18.3769 ], [ -64.9536, 18.3768 ], [ -64.9537, 18.3773 ], [ -64.9537, 18.3769 ] ], [ [ -64.9076, 18.3874 ], [ -64.8994, 18.3924 ], [ -64.9057, 18.4031 ], [ -64.9175, 18.4043 ], [ -64.9076, 18.3874 ] ], [ [ -64.9068, 18.4065 ], [ -64.9028, 18.4078 ], [ -64.9047, 18.4119 ], [ -64.9104, 18.4111 ], [ -64.9068, 18.4065 ] ], [ [ -64.9096, 18.4144 ], [ -64.9082, 18.4137 ], [ -64.908, 18.415 ], [ -64.9096, 18.4144 ] ], [ [ -64.9081, 18.3096 ], [ -64.9079, 18.3102 ], [ -64.9083, 18.3101 ], [ -64.9081, 18.3096 ] ], [ [ -64.9081, 18.3092 ], [ -64.9078, 18.3094 ], [ -64.908, 18.3094 ], [ -64.9081, 18.3092 ] ], [ [ -64.9047, 18.4126 ], [ -64.9041, 18.4132 ], [ -64.905, 18.4133 ], [ -64.9047, 18.4126 ] ], [ [ -64.9027, 18.4098 ], [ -64.9025, 18.4098 ], [ -64.9028, 18.4101 ], [ -64.9027, 18.4098 ] ], [ [ -64.9008, 18.3842 ], [ -64.9007, 18.3843 ], [ -64.9011, 18.385 ], [ -64.9008, 18.3842 ] ], [ [ -64.8964, 18.2742 ], [ -64.8856, 18.2763 ], [ -64.8937, 18.2798 ], [ -64.8964, 18.2742 ] ], [ [ -64.8583, 18.3465 ], [ -64.8585, 18.3465 ], [ -64.8584, 18.3464 ], [ -64.8583, 18.3465 ] ], [ [ -64.8528, 18.2308 ], [ -64.8508, 18.2305 ], [ -64.8519, 18.2325 ], [ -64.8528, 18.2308 ] ], [ [ -64.8444, 18.3372 ], [ -64.8441, 18.3376 ], [ -64.8447, 18.3376 ], [ -64.8444, 18.3372 ] ], [ [ -64.8759, 18.3609 ], [ -64.8765, 18.3608 ], [ -64.8763, 18.3605 ], [ -64.8759, 18.3609 ] ], [ [ -64.9576, 18.3061 ], [ -64.9574, 18.3061 ], [ -64.9574, 18.3062 ], [ -64.9576, 18.3061 ] ] ] } },
{ "type": "Feature", "properties": { "GEOIDFQ": "1400000US78030960400", "NAME": "9604", "NAMELSAD": "Census Tract 9604" }, "geometry": { "type": "MultiPolygon", "coordinates": [ [ [ [ -64.9011, 18.385 ], [ -64.9007, 18.3843 ], [ -64.9013, 18.3846 ], [ -64.9011, 18.385 ] ] ], [ [ [ -64.9025, 18.41 ], [ -64.9025, 18.4098 ], [ -64.9027, 18.4098 ], [ -64.9025, 18.41 ] ] ], [ [ [ -64.905, 18.4133 ], [ -64.9041, 18.4132 ], [ -64.9047, 18.4126 ], [ -64.905, 18.4133 ] ] ], [ [ [ -64.908, 18.415 ], [ -64.9082, 18.4137 ], [ -64.9096, 18.4144 ], [ -64.908, 18.415 ] ] ], [ [ [ -64.9047, 18.4119 ], [ -64.9028, 18.4078 ], [ -64.9068, 18.4065 ], [ -64.9104, 18.4112 ], [ -64.9047, 18.4119 ] ] ], [ [ [ -64.9057, 18.4031 ], [ -64.8994, 18.3924 ], [ -64.9076, 18.3874 ], [ -64.9175, 18.4043 ], [ -64.9057, 18.4031 ] ] ], [ [ [ -64.9312, 18.352 ], [ -64.9319, 18.3602 ], [ -64.922, 18.3661 ], [ -64.935, 18.3765 ], [ -64.9409, 18.3827 ], [ -64.9406, 18.3833 ], [ -64.8865, 18.3582 ], [ -64.8884, 18.3498 ], [ -64.9009, 18.3435 ], [ -64.9286, 18.3515 ], [ -64.9292, 18.3448 ], [ -64.9389, 18.3454 ], [ -64.9415, 18.353 ], [ -64.9312, 18.352 ] ] ] ] } },
{ "type": "Feature", "properties": { "GEOIDFQ": "1400000US78030961000", "NAME": "9610", "NAMELSAD": "Census Tract 9610" }, "geometry": { "type": "Polygon", "coordinates": [ [ [ -64.9311, 18.3463 ], [ -64.9272, 18.3209 ], [ -64.9402, 18.3176 ], [ -64.948, 18.3452 ], [ -64.9311, 18.3463 ] ] ] } },
{ "type": "Feature", "properties": { "GEOIDFQ": "1400000US78030960500", "NAME": "9605", "NAMELSAD": "Census Tract 9605" }, "geometry": { "type": "MultiPolygon", "coordinates": [ [ [ [ -64.9535, 18.3771 ], [ -64.9536, 18.3768 ], [ -64.9537, 18.3769 ], [ -64.9535, 18.3771 ] ] ], [ [ [ -64.9889, 18.3179 ], [ -64.9886, 18.3178 ], [ -64.9896, 18.3156 ], [ -64.9889, 18.3179 ] ] ], [ [ [ -64.9906, 18.3858 ], [ -64.9898, 18.3851 ], [ -64.9913, 18.3852 ], [ -64.9906, 18.3858 ] ] ], [ [ [ -65.0012, 18.3089 ], [ -65.0003, 18.3092 ], [ -64.998, 18.3051 ], [ -65.0012, 18.3089 ] ] ], [ [ [ -65.0491, 18.4091 ], [ -65.0496, 18.4074 ], [ -65.0497, 18.4089 ], [ -65.0491, 18.4091 ] ] ], [ [ [ -65.0179, 18.3611 ], [ -64.9823, 18.3726 ], [ -64.9754, 18.4019 ], [ -64.9601, 18.3714 ], [ -64.9409, 18.3832 ], [ -64.922, 18.3661 ], [ -64.9319, 18.3602 ], [ -64.9312, 18.352 ], [ -64.9511, 18.3615 ], [ -64.9549, 18.3522 ], [ -64.9708, 18.357 ], [ -64.9711, 18.3468 ], [ -65.0235, 18.3412 ], [ -65.0569, 18.3632 ], [ -65.0179, 18.3611 ] ] ], [ [ [ -65.0578, 18.3516 ], [ -65.0572, 18.3495 ], [ -65.0578, 18.3495 ], [ -65.0578, 18.3516 ] ] ], [ [ [ -65.0593, 18.4062 ], [ -65.0574, 18.4033 ], [ -65.0605, 18.403 ], [ -65.0593, 18.4062 ] ] ], [ [ [ -65.0612, 18.3817 ], [ -65.0592, 18.3811 ], [ -65.0612, 18.3781 ], [ -65.0612, 18.3817 ] ] ], [ [ [ -65.0638, 18.3782 ], [ -65.0638, 18.3779 ], [ -65.0643, 18.3778 ], [ -65.0638, 18.3782 ] ] ], [ [ [ -65.0716, 18.3415 ], [ -65.0715, 18.3412 ], [ -65.0717, 18.3412 ], [ -65.0716, 18.3415 ] ] ], [ [ [ -65.0847, 18.3391 ], [ -65.075, 18.3468 ], [ -65.075, 18.3388 ], [ -65.0847, 18.3391 ] ] ], [ [ [ -65.1004, 18.2835 ], [ -65.1002, 18.2829 ], [ -65.1006, 18.2828 ], [ -65.1004, 18.2835 ] ] ] ] } },
{ "type": "Feature", "properties": { "GEOIDFQ": "1400000US78030960300", "NAME": "9603", "NAMELSAD": "Census Tract 9603" }, "geometry": { "type": "Polygon", "coordinates": [ [ [ -64.8939, 18.3506 ], [ -64.8799, 18.3445 ], [ -64.8875, 18.34 ], [ -64.9017, 18.3461 ], [ -64.8939, 18.3506 ] ] ] } }
]
}
