{
"type": "FeatureCollection",
"name": "state_60_tracts_simplified",
"crs": { "type": "name", "properties": { "name": "urn:ogc:def:crs:OGC:1.3:CRS84" } },
"features": [
{ "type": "Feature", "properties": { "GEOIDFQ": "1400000US60010950200", "NAME": "9502", "NAMELSAD": "Census Tract 9502" }, "geometry": { "type": "Polygon", "coordinates": [ [ [ -170.6062, -14.2671 ], [ -170.5939, -14.272 ], [ -170.5782, -14.2619 ], [ -170.5436, -14.2827 ], [ -170.5381, -14.3361 ], [ -170.6035, -14.3343 ], [ -170.6138, -14.2967 ], [ -170.6062, -14.2671 ] ] ] } },
{ "type": "Feature", "properties": { "GEOIDFQ": "1400000US60010950500", "NAME": "9505", "NAMELSAD": "Census Tract 9505" }, "geometry": { "type": "Polygon", "coordinates": [ [ [ -170.6592, -14.2641 ], [ -170.6539, -14.2714 ], [ -170.6687, -14.2915 ], [ -170.6826, -14.2728 ], [ -170.6892, -14.2743 ], [ -170.6898, -14.2648 ], [ -170.6592, -14.2641 ] ] ] } },
{ "type": "Feature", "properties": { "GEOIDFQ": "1400000US60010950600", "NAME": "9506", "NAMELSAD": "Census Tract 9506" }, "geometry": { "type": "Polygon", "coordinates": [ [ [ -170.7061, -14.205 ], [ -170.686, -14.2646 ], [ -170.7037, -14.2951 ], [ -170.7193, -14.2974 ], [ -170.7116, -14.2849 ], [ -170.746, -14.2338 ], [ -170.7061, -14.205 ] ] ] } },
{ "type": "Feature", "properties": { "GEOIDFQ": "1400000US60050951300", "NAME": "9513", "NAMELSAD": "Census Tract 9513" }, "geometry": { "type": "Polygon", "coordinates": [ [ [ -170.7909, -14.3462 ], [ -170.7824, -14.3449 ], [ -170.7779, -14.3516 ], [ -170.7618, -14.346 ], [ -170.7709, -14.3389 ], [ -170.7574, -14.3417 ], [ -170.7436, -14.4196 ], [ -170.7743, -14.4131 ], [ -170.7947, -14.3989 ], [ -170.7909, -14.3462 ] ] ] } },
{ "type": "Feature", "properties": { "GEOIDFQ": "1400000US60020951800", "NAME": "9518", "NAMELSAD": "Census Tract 9518" }, "geometry": { "type": "Polygon", "coordinates": [ [ [ -169.7205, -14.1377 ], [ -169.7023, -14.1203 ], [ -169.6657, -14.1094 ], [ -169.6305, -14.1137 ], [ -169.6099, -14.1059 ], [ -169.59, -14.1075 ], [ -169.5624, -14.125 ], [ -169.5476, -14.1636 ], [ -169.547, -14.1843 ], [ -169.5, -14.1661 ], [ -169.3856, -14.1746 ], [ -169.3669, -14.2021 ], [ -169.3707, -14.2795 ], [ -169.3974, -14.3072 ], [ -169.4195, -14.3114 ], [ -169.446, -14.3048 ], [ -169.4827, -14.3172 ], [ -169.5, -14.313 ], [ -169.5189, -14.3018 ], [ -169.5329, -14.274 ], [ -169.5589, -14.2589 ], [ -169.5668, -14.2215 ], [ -169.6086, -14.2379 ], [ -169.6314, -14.228 ], [ -169.6804, -14.2306 ], [ -169.7228, -14.1894 ], [ -169.7205, -14.1377 ] ] ] } },
{ "type": "Feature", "properties": { "GEOIDFQ": "1400000US60050951203", "NAME": "9512.03", "NAMELSAD": "Census Tract 9512.03" }, "geometry": { "type": "Polygon", "coordinates": [ [ [ -170.7436, -14.3349 ], [ -170.7229, -14.3379 ], [ -170.6937, -14.3945 ], [ -170.7258, -14.4159 ], [ -170.7436, -14.4196 ], [ -170.7563, -14.3417 ], [ -170.7436, -14.3349 ] ] ] } },
{ "type": "Feature", "properties": { "GEOIDFQ": "1400000US60050951000", "NAME": "9510", "NAMELSAD": "Census Tract 9510" }, "geometry": { "type": "Polygon", "coordinates": [ [ [ -170.7392, -14.3 ], [ -170.7321, -14.2976 ], [ -170.7238, -14.3073 ], [ -170.7152, -14.3182 ], [ -170.74, -14.3255 ], [ -170.7468, -14.3191 ], [ -170.7392, -14.3 ] ] ] } },
{ "type": "Feature", "properties": { "GEOIDFQ": "1400000US60050951202", "NAME": "9512.02", "NAMELSAD": "Census Tract 9512.02" }, "geometry": { "type": "Polygon", "coordinates": [ [ [ -170.7389, -14.3243 ], [ -170.7208, -14.3338 ], [ -170.7332, -14.3407 ], [ -170.7436, -14.3348 ], [ -170.7389, -14.3243 ] ] ] } },
{ "type": "Feature", "properties": { "GEOIDFQ": "1400000US60050951600", "NAME": "9516", "NAMELSAD": "Census Tract 9516" }, "geometry": { "type": "Polygon", "coordinates": [ [ [ -170.875, -14.2876 ], [ -170.8505, -14.2647 ], [ -170.8168, -14.2477 ], [ -170.7972, -14.2466 ], [ -170.7902, -14.3107 ], [ -170.768, -14.3188 ], [ -170.777, -14.3376 ], [ -170.7618, -14.346 ], [ -170.7779, -14.3516 ], [ -170.7824, -14.3449 ], [ -170.7909, -14.3462 ], [ -170.7947, -14.3989 ], [ -170.8123, -14.3888 ], [ -170.8231, -14.3718 ], [ -170.8659, -14.3586 ], [ -170.8837, -14.3427 ], [ -170.8903, -14.3172 ], [ -170.875, -14.2876 ] ] ] } },
{ "type": "Feature", "properties": { "GEOIDFQ": "1400000US60050951100", "NAME": "9511", "NAMELSAD": "Census Tract 9511" }, "geometry": { "type": "Polygon", "coordinates": [ [ [ -170.7496, -14.3144 ], [ -170.7391, -14.3255 ], [ -170.7469, -14.34 ], [ -170.7585, -14.3381 ], [ -170.7629, -14.3213 ], [ -170.7496, -14.3144 ] ] ] } },
{ "type": "Feature", "properties": { "GEOIDFQ": "1400000US60050951201", "NAME": "9512.01", "NAMELSAD": "Census Tract 9512.01" }, "geometry": { "type": "Polygon", "coordinates": [ [ [ -170.7153, -14.3182 ], [ -170.6663, -14.3758 ], [ -170.6937, -14.3945 ], [ -170.7208, -14.3338 ], [ -170.7349, -14.3244 ], [ -170.7153, -14.3182 ] ] ] } },
{ "type": "Feature", "properties": { "GEOIDFQ": "1400000US60010950300", "NAME": "9503", "NAMELSAD": "Census Tract 9503" }, "geometry": { "type": "Polygon", "coordinates": [ [ [ -170.6544, -14.2729 ], [ -170.6604, -14.2612 ], [ -170.6528, -14.2485 ], [ -170.6001, -14.2 ], [ -170.5903, -14.1981 ], [ -170.5901, -14.2531 ], [ -170.5963, -14.2708 ], [ -170.6033, -14.2647 ], [ -170.6103, -14.272 ], [ -170.6148, -14.2997 ], [ -170.6035, -14.3343 ], [ -170.6375, -14.3369 ], [ -170.6519, -14.3562 ], [ -170.6722, -14.2992 ], [ -170.6544, -14.2729 ] ] ] } },
{ "type": "Feature", "properties": { "GEOIDFQ": "1400000US60010950100", "NAME": "9501", "NAMELSAD": "Census Tract 9501" }, "geometry": { "type": "MultiPolygon", "coordinates": [ [ [ [ -170.5901, -14.2531 ], [ -170.5903, -14.1981 ], [ -170.5368, -14.2043 ], [ -170.5106, -14.2321 ], [ -170.5065, -14.2543 ], [ -170.4947, -14.266 ], [ -170.4915, -14.3017 ], [ -170.5094, -14.3288 ], [ -170.5381, -14.3361 ], [ -170.5391, -14.2949 ], [ -170.5474, -14.2782 ], [ -170.5782, -14.2619 ], [ -170.5962, -14.2707 ], [ -170.5901, -14.2531 ] ] ], [ [ [ -170.6871, -14.1822 ], [ -170.6553, -14.1755 ], [ -170.6366, -14.1787 ], [ -170.6001, -14.2 ], [ -170.6528, -14.2485 ], [ -170.6597, -14.2642 ], [ -170.686, -14.2646 ], [ -170.7039, -14.2034 ], [ -170.6871, -14.1822 ] ] ] ] } },
{ "type": "Feature", "properties": { "GEOIDFQ": "1400000US60030951900", "NAME": "9519", "NAMELSAD": "Census Tract 9519" }, "geometry": { "type": "Polygon", "coordinates": [ [ [ -168.2185, -14.5118 ], [ -168.1995, -14.4901 ], [ -168.1522, -14.4778 ], [ -168.1159, -14.5002 ], [ -168.1047, -14.5248 ], [ -168.1022, -14.554 ], [ -168.1104, -14.5792 ], [ -168.1291, -14.5973 ], [ -168.1735, -14.6013 ], [ -168.2068, -14.5901 ], [ -168.2235, -14.5613 ], [ -168.2185, -14.5118 ] ] ] } },
{ "type": "Feature", "properties": { "GEOIDFQ": "1400000US60040952000", "NAME": "9520", "NAMELSAD": "Census Tract 9520" }, "geometry": { "type": "Polygon", "coordinates": [ [ [ -171.1375, -11.0301 ], [ -171.1114, -11.0038 ], [ -171.0746, -10.9972 ], [ -171.0363, -11.0029 ], [ -171.0193, -11.0122 ], [ -171.0141, -11.0237 ], [ -171.0114, -11.0781 ], [ -171.0322, -11.1051 ], [ -171.0983, -11.1079 ], [ -171.1339, -11.0905 ], [ -171.1412, -11.0466 ], [ -171.1375, -11.0301 ] ] ] } },
{ "type": "Feature", "properties": { "GEOIDFQ": "1400000US60010950700", "NAME": "9507", "NAMELSAD": "Census Tract 9507" }, "geometry": { "type": "Polygon", "coordinates": [ [ [ -170.6927, -14.2736 ], [ -170.6826, -14.2728 ], [ -170.6688, -14.2894 ], [ -170.6719, -14.2992 ], [ -170.6964, -14.291 ], [ -170.7037, -14.295 ], [ -170.6927, -14.2736 ] ] ] } },
{ "type": "Feature", "properties": { "GEOIDFQ": "1400000US60010950900", "NAME": "9509", "NAMELSAD": "Census Tract 9509" }, "geometry": { "type": "Polygon", "coordinates": [ [ [ -170.7475, -14.2366 ], [ -170.7116, -14.2849 ], [ -170.7193, -14.2974 ], [ -170.6978, -14.2908 ], [ -170.6739, -14.2994 ], [ -170.6519, -14.3562 ], [ -170.6604, -14.3714 ], [ -170.6663, -14.3758 ], [ -170.7321, -14.2976 ], [ -170.7942, -14.2464 ], [ -170.7475, -14.2366 ] ] ] } },
{ "type": "Feature", "properties": { "GEOIDFQ": "1400000US60050951500", "NAME": "9515", "NAMELSAD": "Census Tract 9515" }, "geometry": { "type": "Polygon", "coordinates": [ [ [ -170.7935, -14.2495 ], [ -170.7321, -14.2976 ], [ -170.7392, -14.3 ], [ -170.7468, -14.3191 ], [ -170.7608, -14.317 ], [ -170.7563, -14.3417 ], [ -170.776, -14.3411 ], [ -170.7775, -14.3289 ], [ -170.768, -14.3188 ], [ -170.7902, -14.3107 ], [ -170.7935, -14.2495 ] ] ] } }
]
}
