{
"type": "FeatureCollection",
"name": "state_50_tracts_simplified",
"crs": { "type": "name", "properties": { "name": "urn:ogc:def:crs:OGC:1.3:CRS84" } },
"features": [
{ "type": "Feature", "properties": { "GEOIDFQ": "1400000US50017959102", "NAME": "9591.02", "NAMELSAD": "Census Tract 9591.02" }, "geometry": { "type": "Polygon", "coordinates": [ [ [ -72.3488, 44.0963 ], [ -72.3314, 44.0924 ], [ -72.3052, 44.1831 ], [ -72.1707, 44.192 ], [ -72.2076, 44.066 ], [ -72.1916, 44.0614 ], [ -72.2414, 43.9794 ], [ -72.3818, 44.0084 ], [ -72.3488, 44.0963 ] ] ] } },
{ "type": "Feature", "properties": { "GEOIDFQ": "1400000US50003971100", "NAME": "9711", "NAMELSAD": "Census Tract 9711" }, "geometry": { "type": "Polygon", "coordinates": [ [ [ -73.2044, 42.8527 ], [ -73.2133, 42.8843 ], [ -73.2022, 42.8806 ], [ -73.204, 42.8747 ], [ -73.1879, 42.8731 ], [ -73.1866, 42.8788 ], [ -73.1498, 42.8832 ], [ -73.1523, 42.8366 ], [ -73.218, 42.8385 ], [ -73.2044, 42.8527 ] ] ] } },
{ "type": "Feature", "properties": { "GEOIDFQ": "1400000US50003971000", "NAME": "9710", "NAMELSAD": "Census Tract 9710" }, "geometry": { "type": "Polygon", "coordinates": [ [ [ -73.2747, 42.9344 ], [ -73.21, 42.9327 ], [ -73.2124, 42.9014 ], [ -73.2023, 42.8947 ], [ -73.2015, 42.8917 ], [ -73.214, 42.8862 ], [ -73.2142, 42.8764 ], [ -73.2044, 42.8527 ], [ -73.2181, 42.8383 ], [ -73.2783, 42.8376 ], [ -73.2747, 42.9344 ] ] ] } },
{ "type": "Feature", "properties": { "GEOIDFQ": "1400000US50003970900", "NAME": "9709", "NAMELSAD": "Census Tract 9709" }, "geometry": { "type": "Polygon", "coordinates": [ [ [ -73.21, 42.9327 ], [ -73.146, 42.931 ], [ -73.1498, 42.8832 ], [ -73.18, 42.8833 ], [ -73.1844, 42.892 ], [ -73.2124, 42.9016 ], [ -73.21, 42.9327 ] ] ] } },
{ "type": "Feature", "properties": { "GEOIDFQ": "1400000US50003970500", "NAME": "9705", "NAMELSAD": "Census Tract 9705" }, "geometry": { "type": "Polygon", "coordinates": [ [ [ -73.0017, 43.2109 ], [ -72.9796, 43.2096 ], [ -72.9753, 43.3042 ], [ -72.8199, 43.2994 ], [ -72.8196, 43.256 ], [ -72.8481, 43.2628 ], [ -72.8516, 43.2048 ], [ -72.8621, 43.2052 ], [ -72.8682, 43.1139 ], [ -72.9973, 43.1154 ], [ -73.0073, 43.1202 ], [ -73.0017, 43.2109 ] ] ] } },
{ "type": "Feature", "properties": { "GEOIDFQ": "1400000US50001960600", "NAME": "9606", "NAMELSAD": "Census Tract 9606" }, "geometry": { "type": "Polygon", "coordinates": [ [ [ -73.0322, 44.045 ], [ -73.0312, 44.0605 ], [ -73.018, 44.0626 ], [ -73.0373, 44.1551 ], [ -72.9341, 44.1628 ], [ -72.9168, 44.0719 ], [ -72.8969, 44.0737 ], [ -72.7422, 44.0296 ], [ -72.81, 43.9361 ], [ -72.8163, 43.9378 ], [ -72.8653, 43.8617 ], [ -72.8753, 43.8677 ], [ -72.8766, 43.9028 ], [ -72.9532, 43.8749 ], [ -72.9801, 43.8829 ], [ -72.9802, 43.864 ], [ -72.9729, 43.8668 ], [ -72.9597, 43.8261 ], [ -73.0171, 43.8049 ], [ -73.0268, 43.8421 ], [ -73.0331, 43.8442 ], [ -73.0378, 43.9228 ], [ -73.0483, 43.9222 ], [ -73.0445, 43.9644 ], [ -73.0581, 43.9629 ], [ -73.0633, 44.0422 ], [ -73.0322, 44.045 ] ] ] } },
{ "type": "Feature", "properties": { "GEOIDFQ": "1400000US50001960300", "NAME": "9603", "NAMELSAD": "Census Tract 9603" }, "geometry": { "type": "Polygon", "coordinates": [ [ [ -73.2434, 44.1803 ], [ -73.2394, 44.1552 ], [ -73.2683, 44.153 ], [ -73.2727, 44.177 ], [ -73.2434, 44.1803 ] ] ] } },
{ "type": "Feature", "properties": { "GEOIDFQ": "1400000US50001960200", "NAME": "9602", "NAMELSAD": "Census Tract 9602" }, "geometry": { "type": "Polygon", "coordinates": [ [ [ -73.39, 44.1919 ], [ -73.3623, 44.2085 ], [ -73.3434, 44.2382 ], [ -73.3237, 44.2442 ], [ -73.3133, 44.2641 ], [ -73.2704, 44.2601 ], [ -73.1968, 44.2666 ], [ -73.1737, 44.1536 ], [ -73.2403, 44.1641 ], [ -73.2434, 44.1803 ], [ -73.2727, 44.177 ], [ -73.2706, 44.1653 ], [ -73.4007, 44.1534 ], [ -73.39, 44.1919 ] ] ] } },
{ "type": "Feature", "properties": { "GEOIDFQ": "1400000US50001960100", "NAME": "9601", "NAMELSAD": "Census Tract 9601" }, "geometry": { "type": "Polygon", "coordinates": [ [ [ -73.0706, 44.2839 ], [ -73.07, 44.2799 ], [ -73.0165, 44.2854 ], [ -73.0204, 44.3037 ], [ -72.9759, 44.295 ], [ -72.9522, 44.1614 ], [ -73.0164, 44.1551 ], [ -73.0231, 44.1921 ], [ -73.1771, 44.1739 ], [ -73.1968, 44.2666 ], [ -73.0706, 44.2839 ] ] ] } },
{ "type": "Feature", "properties": { "GEOIDFQ": "1400000US50001960800", "NAME": "9608", "NAMELSAD": "Census Tract 9608" }, "geometry": { "type": "Polygon", "coordinates": [ [ [ -73.1771, 44.0199 ], [ -73.1804, 44.0463 ], [ -73.1639, 44.0478 ], [ -73.1666, 44.0141 ], [ -73.1175, 43.9758 ], [ -73.1168, 43.957 ], [ -73.1699, 43.9518 ], [ -73.1735, 43.9676 ], [ -73.1898, 43.988 ], [ -73.1905, 44.0189 ], [ -73.1771, 44.0199 ] ] ] } },
{ "type": "Feature", "properties": { "GEOIDFQ": "1400000US50005957900", "NAME": "9579", "NAMELSAD": "Census Tract 9579" }, "geometry": { "type": "Polygon", "coordinates": [ [ [ -72.0451, 44.399 ], [ -72.0353, 44.3885 ], [ -71.9332, 44.4411 ], [ -71.8379, 44.348 ], [ -71.8716, 44.3367 ], [ -71.9106, 44.3484 ], [ -71.934, 44.336 ], [ -71.9814, 44.3374 ], [ -72.0091, 44.3222 ], [ -72.0298, 44.3222 ], [ -72.0329, 44.3022 ], [ -72.0586, 44.2865 ], [ -72.0679, 44.2734 ], [ -72.0669, 44.2681 ], [ -72.0583, 44.2701 ], [ -72.0592, 44.2558 ], [ -72.1881, 44.2766 ], [ -72.0451, 44.399 ] ] ] } },
{ "type": "Feature", "properties": { "GEOIDFQ": "1400000US50001960700", "NAME": "9607", "NAMELSAD": "Census Tract 9607" }, "geometry": { "type": "Polygon", "coordinates": [ [ [ -73.1639, 44.0478 ], [ -73.0647, 44.0576 ], [ -73.0581, 43.9629 ], [ -73.1168, 43.957 ], [ -73.1171, 43.9753 ], [ -73.1596, 44.0051 ], [ -73.1677, 44.0284 ], [ -73.1639, 44.0478 ] ] ] } },
{ "type": "Feature", "properties": { "GEOIDFQ": "1400000US50017959200", "NAME": "9592", "NAMELSAD": "Census Tract 9592" }, "geometry": { "type": "Polygon", "coordinates": [ [ [ -72.5866, 44.1603 ], [ -72.564, 44.1548 ], [ -72.5597, 44.1629 ], [ -72.4555, 44.1333 ], [ -72.5024, 44.0504 ], [ -72.6291, 44.0878 ], [ -72.5866, 44.1603 ] ] ] } },
{ "type": "Feature", "properties": { "GEOIDFQ": "1400000US50017959300", "NAME": "9593", "NAMELSAD": "Census Tract 9593" }, "geometry": { "type": "Polygon", "coordinates": [ [ [ -72.7422, 44.0296 ], [ -72.6829, 44.0128 ], [ -72.6345, 44.0893 ], [ -72.5382, 44.0625 ], [ -72.5103, 43.9662 ], [ -72.6373, 44.0007 ], [ -72.7028, 43.9094 ], [ -72.7123, 43.908 ], [ -72.7735, 43.9245 ], [ -72.7711, 43.9391 ], [ -72.79, 43.9453 ], [ -72.7852, 43.9522 ], [ -72.7916, 43.9542 ], [ -72.7422, 44.0296 ] ] ] } },
{ "type": "Feature", "properties": { "GEOIDFQ": "1400000US50017959500", "NAME": "9595", "NAMELSAD": "Census Tract 9595" }, "geometry": { "type": "Polygon", "coordinates": [ [ [ -72.5103, 43.9662 ], [ -72.5382, 44.0625 ], [ -72.3819, 44.0082 ], [ -72.2414, 43.9794 ], [ -72.2845, 43.9036 ], [ -72.2715, 43.8998 ], [ -72.3393, 43.8104 ], [ -72.4616, 43.8369 ], [ -72.5734, 43.8732 ], [ -72.5103, 43.9662 ] ] ] } },
{ "type": "Feature", "properties": { "GEOIDFQ": "1400000US50027965100", "NAME": "9651", "NAMELSAD": "Census Tract 9651" }, "geometry": { "type": "Polygon", "coordinates": [ [ [ -72.5736, 43.8731 ], [ -72.4595, 43.8381 ], [ -72.5283, 43.7565 ], [ -72.6445, 43.7903 ], [ -72.5736, 43.8731 ] ] ] } },
{ "type": "Feature", "properties": { "GEOIDFQ": "1400000US50027965600", "NAME": "9656", "NAMELSAD": "Census Tract 9656" }, "geometry": { "type": "Polygon", "coordinates": [ [ [ -72.3458, 43.6445 ], [ -72.3386, 43.6399 ], [ -72.321, 43.6616 ], [ -72.3154, 43.6823 ], [ -72.3104, 43.6799 ], [ -72.3064, 43.6841 ], [ -72.3013, 43.6745 ], [ -72.3136, 43.6569 ], [ -72.3142, 43.6427 ], [ -72.3291, 43.6355 ], [ -72.3348, 43.618 ], [ -72.3284, 43.6057 ], [ -72.354, 43.6108 ], [ -72.3458, 43.6445 ] ] ] } },
{ "type": "Feature", "properties": { "GEOIDFQ": "1400000US50027965800", "NAME": "9658", "NAMELSAD": "Census Tract 9658" }, "geometry": { "type": "Polygon", "coordinates": [ [ [ -72.5768, 43.6591 ], [ -72.5683, 43.6571 ], [ -72.5653, 43.6613 ], [ -72.4714, 43.638 ], [ -72.4662, 43.6311 ], [ -72.5293, 43.533 ], [ -72.6377, 43.5589 ], [ -72.5768, 43.6591 ] ] ] } },
{ "type": "Feature", "properties": { "GEOIDFQ": "1400000US50027966200", "NAME": "9662", "NAMELSAD": "Census Tract 9662" }, "geometry": { "type": "Polygon", "coordinates": [ [ [ -72.6606, 43.4571 ], [ -72.5304, 43.4436 ], [ -72.5454, 43.3452 ], [ -72.6625, 43.3511 ], [ -72.6606, 43.4571 ] ] ] } },
{ "type": "Feature", "properties": { "GEOIDFQ": "1400000US50027966300", "NAME": "9663", "NAMELSAD": "Census Tract 9663" }, "geometry": { "type": "Polygon", "coordinates": [ [ [ -72.7384, 43.417 ], [ -72.7242, 43.4683 ], [ -72.6608, 43.4536 ], [ -72.6625, 43.3511 ], [ -72.6792, 43.352 ], [ -72.6814, 43.3224 ], [ -72.7585, 43.3533 ], [ -72.7624, 43.3714 ], [ -72.7384, 43.417 ] ] ] } },
{ "type": "Feature", "properties": { "GEOIDFQ": "1400000US50021963700", "NAME": "9637", "NAMELSAD": "Census Tract 9637" }, "geometry": { "type": "Polygon", "coordinates": [ [ [ -73.2813, 43.6689 ], [ -73.2386, 43.6671 ], [ -73.2456, 43.5395 ], [ -73.2486, 43.5539 ], [ -73.2675, 43.572 ], [ -73.2973, 43.5794 ], [ -73.291, 43.5992 ], [ -73.3028, 43.6098 ], [ -73.2813, 43.6689 ] ] ] } },
{ "type": "Feature", "properties": { "GEOIDFQ": "1400000US50021962100", "NAME": "9621", "NAMELSAD": "Census Tract 9621" }, "geometry": { "type": "Polygon", "coordinates": [ [ [ -72.8745, 43.8581 ], [ -72.8739, 43.8396 ], [ -72.8383, 43.8293 ], [ -72.8307, 43.8391 ], [ -72.7969, 43.8292 ], [ -72.7829, 43.804 ], [ -72.8193, 43.7463 ], [ -72.8039, 43.741 ], [ -72.82, 43.7167 ], [ -72.8456, 43.7234 ], [ -72.8578, 43.6951 ], [ -72.9396, 43.6657 ], [ -73.0035, 43.7569 ], [ -73.0171, 43.8049 ], [ -72.8745, 43.8581 ] ] ] } },
{ "type": "Feature", "properties": { "GEOIDFQ": "1400000US50021962600", "NAME": "9626", "NAMELSAD": "Census Tract 9626" }, "geometry": { "type": "Polygon", "coordinates": [ [ [ -73.0553, 43.6651 ], [ -73.0496, 43.6302 ], [ -73.044, 43.6272 ], [ -73.0474, 43.6147 ], [ -73.0328, 43.6107 ], [ -73.0186, 43.5916 ], [ -73.011, 43.592 ], [ -73.0106, 43.5717 ], [ -73.0777, 43.5702 ], [ -73.1045, 43.6634 ], [ -73.0553, 43.6651 ] ] ] } },
{ "type": "Feature", "properties": { "GEOIDFQ": "1400000US50021962700", "NAME": "9627", "NAMELSAD": "Census Tract 9627" }, "geometry": { "type": "Polygon", "coordinates": [ [ [ -73.0202, 43.614 ], [ -73.0229, 43.6186 ], [ -73.0277, 43.6154 ], [ -73.0254, 43.6223 ], [ -73.0303, 43.6197 ], [ -73.0321, 43.6245 ], [ -73.0244, 43.6255 ], [ -73.0232, 43.6377 ], [ -73.0151, 43.6377 ], [ -73.0167, 43.6467 ], [ -73.0079, 43.6495 ], [ -73.0086, 43.6588 ], [ -73.0188, 43.6589 ], [ -73.019, 43.6642 ], [ -73.0141, 43.6612 ], [ -73.0136, 43.6664 ], [ -72.94, 43.6695 ], [ -72.9342, 43.5748 ], [ -73.0106, 43.5717 ], [ -73.011, 43.592 ], [ -73.0186, 43.5916 ], [ -73.0318, 43.6107 ], [ -73.0202, 43.614 ] ], [ [ -73.0026, 43.6021 ], [ -73.0112, 43.5998 ], [ -72.9916, 43.5867 ], [ -72.9464, 43.594 ], [ -72.9477, 43.6218 ], [ -72.9546, 43.6201 ], [ -72.9624, 43.6244 ], [ -72.9596, 43.6278 ], [ -72.9755, 43.627 ], [ -72.9779, 43.6313 ], [ -73.0069, 43.6297 ], [ -73.0057, 43.6086 ], [ -73.0109, 43.6056 ], [ -73.0026, 43.6021 ] ] ] } },
{ "type": "Feature", "properties": { "GEOIDFQ": "1400000US50021962500", "NAME": "9625", "NAMELSAD": "Census Tract 9625" }, "geometry": { "type": "Polygon", "coordinates": [ [ [ -73.0396, 43.6924 ], [ -73.0391, 43.6765 ], [ -73.0276, 43.6739 ], [ -73.0347, 43.6657 ], [ -73.0136, 43.6664 ], [ -73.0188, 43.6589 ], [ -73.0086, 43.6588 ], [ -73.0151, 43.6377 ], [ -73.0232, 43.6377 ], [ -73.0244, 43.6255 ], [ -73.0322, 43.6243 ], [ -73.0303, 43.6197 ], [ -73.0254, 43.6223 ], [ -73.0273, 43.6151 ], [ -73.0215, 43.6176 ], [ -73.0245, 43.6109 ], [ -73.0474, 43.6147 ], [ -73.044, 43.6272 ], [ -73.0496, 43.6302 ], [ -73.0476, 43.6434 ], [ -73.0608, 43.6869 ], [ -73.0396, 43.6924 ] ] ] } },
{ "type": "Feature", "properties": { "GEOIDFQ": "1400000US50021962300", "NAME": "9623", "NAMELSAD": "Census Tract 9623" }, "geometry": { "type": "Polygon", "coordinates": [ [ [ -73.4177, 43.6217 ], [ -73.4284, 43.6355 ], [ -73.4265, 43.6426 ], [ -73.4155, 43.6525 ], [ -73.4047, 43.6902 ], [ -73.3706, 43.7253 ], [ -73.3628, 43.7531 ], [ -73.2063, 43.7668 ], [ -73.219, 43.8373 ], [ -73.1556, 43.8397 ], [ -73.1082, 43.676 ], [ -73.2372, 43.6802 ], [ -73.2386, 43.6671 ], [ -73.2813, 43.6689 ], [ -73.2975, 43.626 ], [ -73.3342, 43.628 ], [ -73.3488, 43.6215 ], [ -73.3543, 43.6262 ], [ -73.3719, 43.6245 ], [ -73.3725, 43.6048 ], [ -73.3835, 43.5974 ], [ -73.3828, 43.5788 ], [ -73.392, 43.5699 ], [ -73.4039, 43.5703 ], [ -73.431, 43.5891 ], [ -73.4177, 43.6217 ] ] ] } },
{ "type": "Feature", "properties": { "GEOIDFQ": "1400000US50021962400", "NAME": "9624", "NAMELSAD": "Census Tract 9624" }, "geometry": { "type": "Polygon", "coordinates": [ [ [ -73.0802, 43.7544 ], [ -73.0776, 43.7589 ], [ -73.06, 43.7507 ], [ -73.0564, 43.7552 ], [ -73.0028, 43.757 ], [ -72.94, 43.6695 ], [ -73.0347, 43.6657 ], [ -73.0276, 43.6739 ], [ -73.0386, 43.6759 ], [ -73.0396, 43.6924 ], [ -73.0467, 43.6923 ], [ -73.0614, 43.6867 ], [ -73.0553, 43.6651 ], [ -73.1045, 43.6634 ], [ -73.1315, 43.7523 ], [ -73.0802, 43.7544 ] ] ] } },
{ "type": "Feature", "properties": { "GEOIDFQ": "1400000US50007000600", "NAME": "6", "NAMELSAD": "Census Tract 6" }, "geometry": { "type": "Polygon", "coordinates": [ [ [ -73.1828, 44.489 ], [ -73.1762, 44.4846 ], [ -73.19, 44.4725 ], [ -73.1909, 44.4838 ], [ -73.2057, 44.4807 ], [ -73.2061, 44.4887 ], [ -73.1828, 44.489 ] ] ] } },
{ "type": "Feature", "properties": { "GEOIDFQ": "1400000US50007000800", "NAME": "8", "NAMELSAD": "Census Tract 8" }, "geometry": { "type": "Polygon", "coordinates": [ [ [ -73.201, 44.4629 ], [ -73.1985, 44.4547 ], [ -73.2142, 44.4554 ], [ -73.2152, 44.471 ], [ -73.201, 44.4629 ] ] ] } },
{ "type": "Feature", "properties": { "GEOIDFQ": "1400000US50007000900", "NAME": "9", "NAMELSAD": "Census Tract 9" }, "geometry": { "type": "Polygon", "coordinates": [ [ [ -73.2055, 44.4762 ], [ -73.2076, 44.4634 ], [ -73.2135, 44.4715 ], [ -73.2055, 44.4762 ] ] ] } },
{ "type": "Feature", "properties": { "GEOIDFQ": "1400000US50007001100", "NAME": "11", "NAMELSAD": "Census Tract 11" }, "geometry": { "type": "Polygon", "coordinates": [ [ [ -73.229, 44.4595 ], [ -73.2086, 44.4551 ], [ -73.2094, 44.4459 ], [ -73.2315, 44.4469 ], [ -73.2371, 44.4536 ], [ -73.229, 44.4595 ] ] ] } },
{ "type": "Feature", "properties": { "GEOIDFQ": "1400000US50007002101", "NAME": "21.01", "NAMELSAD": "Census Tract 21.01" }, "geometry": { "type": "Polygon", "coordinates": [ [ [ -73.2511, 44.6415 ], [ -73.2331, 44.6499 ], [ -73.2289, 44.7228 ], [ -73.1044, 44.6767 ], [ -73.1097, 44.6558 ], [ -73.1246, 44.6391 ], [ -73.1396, 44.637 ], [ -73.1452, 44.6448 ], [ -73.1578, 44.6424 ], [ -73.173, 44.6304 ], [ -73.178, 44.6152 ], [ -73.1957, 44.613 ], [ -73.2025, 44.6034 ], [ -73.2326, 44.6135 ], [ -73.2545, 44.6107 ], [ -73.2511, 44.6415 ] ] ] } },
{ "type": "Feature", "properties": { "GEOIDFQ": "1400000US50007002602", "NAME": "26.02", "NAMELSAD": "Census Tract 26.02" }, "geometry": { "type": "Polygon", "coordinates": [ [ [ -73.0957, 44.5018 ], [ -73.0815, 44.4975 ], [ -73.0987, 44.4723 ], [ -73.1156, 44.4823 ], [ -73.0957, 44.5018 ] ] ] } },
{ "type": "Feature", "properties": { "GEOIDFQ": "1400000US50005957100", "NAME": "9571", "NAMELSAD": "Census Tract 9571" }, "geometry": { "type": "Polygon", "coordinates": [ [ [ -71.9732, 44.6796 ], [ -71.8424, 44.6109 ], [ -71.9089, 44.5479 ], [ -71.8567, 44.4963 ], [ -71.9033, 44.4547 ], [ -71.9332, 44.4411 ], [ -71.9582, 44.4913 ], [ -71.9316, 44.5802 ], [ -71.999, 44.5929 ], [ -71.9732, 44.6796 ] ] ] } },
{ "type": "Feature", "properties": { "GEOIDFQ": "1400000US50005957400", "NAME": "9574", "NAMELSAD": "Census Tract 9574" }, "geometry": { "type": "Polygon", "coordinates": [ [ [ -72.0005, 44.4976 ], [ -72.0165, 44.4784 ], [ -72.0119, 44.4775 ], [ -72.0178, 44.4447 ], [ -72.0182, 44.4319 ], [ -72.0104, 44.4235 ], [ -72.014, 44.4105 ], [ -72.023, 44.3948 ], [ -72.0353, 44.3885 ], [ -72.0477, 44.4048 ], [ -72.0835, 44.5104 ], [ -72.0005, 44.4976 ] ] ] } },
{ "type": "Feature", "properties": { "GEOIDFQ": "1400000US50005957000", "NAME": "9570", "NAMELSAD": "Census Tract 9570" }, "geometry": { "type": "Polygon", "coordinates": [ [ [ -72.146, 44.7045 ], [ -72.0893, 44.6851 ], [ -72.1144, 44.7498 ], [ -72.0115, 44.6988 ], [ -71.9393, 44.7694 ], [ -71.8371, 44.7164 ], [ -71.9102, 44.6468 ], [ -71.9732, 44.6796 ], [ -71.9998, 44.5902 ], [ -72.0577, 44.5984 ], [ -72.0835, 44.5104 ], [ -72.1378, 44.5186 ], [ -72.2106, 44.4197 ], [ -72.3201, 44.4648 ], [ -72.146, 44.7045 ] ] ] } },
{ "type": "Feature", "properties": { "GEOIDFQ": "1400000US50005957700", "NAME": "9577", "NAMELSAD": "Census Tract 9577" }, "geometry": { "type": "Polygon", "coordinates": [ [ [ -72.3739, 44.5842 ], [ -72.2629, 44.5425 ], [ -72.3214, 44.4632 ], [ -72.4341, 44.506 ], [ -72.3739, 44.5842 ] ] ] } },
{ "type": "Feature", "properties": { "GEOIDFQ": "1400000US50005957300", "NAME": "9573", "NAMELSAD": "Census Tract 9573" }, "geometry": { "type": "Polygon", "coordinates": [ [ [ -72.0577, 44.5984 ], [ -71.9817, 44.5876 ], [ -71.9895, 44.5643 ], [ -72.003, 44.5481 ], [ -72.0008, 44.521 ], [ -72.0192, 44.5007 ], [ -72.0832, 44.5113 ], [ -72.0577, 44.5984 ] ] ] } },
{ "type": "Feature", "properties": { "GEOIDFQ": "1400000US50005957800", "NAME": "9578", "NAMELSAD": "Census Tract 9578" }, "geometry": { "type": "MultiPolygon", "coordinates": [ [ [ [ -72.0396, 44.1572 ], [ -72.0389, 44.1563 ], [ -72.0396, 44.156 ], [ -72.0396, 44.1572 ] ] ], [ [ [ -72.3167, 44.2722 ], [ -72.3168, 44.2988 ], [ -72.27, 44.3405 ], [ -72.2278, 44.3969 ], [ -72.1677, 44.3853 ], [ -72.1709, 44.3714 ], [ -72.0942, 44.3572 ], [ -72.1881, 44.2766 ], [ -72.0592, 44.2558 ], [ -72.0477, 44.239 ], [ -72.0662, 44.1901 ], [ -72.0436, 44.1571 ], [ -72.1744, 44.1927 ], [ -72.3052, 44.1831 ], [ -72.3689, 44.2039 ], [ -72.3167, 44.2722 ] ] ] ] } },
{ "type": "Feature", "properties": { "GEOIDFQ": "1400000US50005957600", "NAME": "9576", "NAMELSAD": "Census Tract 9576" }, "geometry": { "type": "Polygon", "coordinates": [ [ [ -72.2238, 44.4249 ], [ -72.2106, 44.4197 ], [ -72.1378, 44.5186 ], [ -72.0835, 44.5104 ], [ -72.0451, 44.399 ], [ -72.0942, 44.3572 ], [ -72.1709, 44.3714 ], [ -72.1677, 44.3853 ], [ -72.2278, 44.3969 ], [ -72.2171, 44.4113 ], [ -72.2223, 44.4231 ], [ -72.229, 44.4206 ], [ -72.2238, 44.4249 ] ] ] } },
{ "type": "Feature", "properties": { "GEOIDFQ": "1400000US50005957200", "NAME": "9572", "NAMELSAD": "Census Tract 9572" }, "geometry": { "type": "Polygon", "coordinates": [ [ [ -72.0008, 44.521 ], [ -72.003, 44.5481 ], [ -71.9895, 44.5643 ], [ -71.9817, 44.5876 ], [ -71.9316, 44.5802 ], [ -71.9582, 44.4913 ], [ -72.0192, 44.5008 ], [ -72.0008, 44.521 ] ] ] } },
{ "type": "Feature", "properties": { "GEOIDFQ": "1400000US50005957500", "NAME": "9575", "NAMELSAD": "Census Tract 9575" }, "geometry": { "type": "Polygon", "coordinates": [ [ [ -72.0174, 44.4023 ], [ -72.0104, 44.4235 ], [ -72.0182, 44.4321 ], [ -72.0152, 44.4804 ], [ -72.0007, 44.498 ], [ -71.9582, 44.4913 ], [ -71.9332, 44.4411 ], [ -72.023, 44.3948 ], [ -72.0174, 44.4023 ] ] ] } },
{ "type": "Feature", "properties": { "GEOIDFQ": "1400000US50007002400", "NAME": "24", "NAMELSAD": "Census Tract 24" }, "geometry": { "type": "Polygon", "coordinates": [ [ [ -73.1921, 44.506 ], [ -73.1824, 44.5025 ], [ -73.1865, 44.4922 ], [ -73.2023, 44.4924 ], [ -73.1921, 44.506 ] ] ] } },
{ "type": "Feature", "properties": { "GEOIDFQ": "1400000US50017959101", "NAME": "9591.01", "NAMELSAD": "Census Tract 9591.01" }, "geometry": { "type": "Polygon", "coordinates": [ [ [ -72.4555, 44.1333 ], [ -72.4434, 44.1288 ], [ -72.4192, 44.2208 ], [ -72.3052, 44.1831 ], [ -72.3314, 44.0924 ], [ -72.3488, 44.0963 ], [ -72.3819, 44.0082 ], [ -72.5024, 44.0504 ], [ -72.4555, 44.1333 ] ] ] } },
{ "type": "Feature", "properties": { "GEOIDFQ": "1400000US50027965902", "NAME": "9659.02", "NAMELSAD": "Census Tract 9659.02" }, "geometry": { "type": "Polygon", "coordinates": [ [ [ -72.6449, 43.5599 ], [ -72.5293, 43.533 ], [ -72.4503, 43.525 ], [ -72.4549, 43.4352 ], [ -72.6606, 43.4576 ], [ -72.6449, 43.5599 ] ] ] } },
{ "type": "Feature", "properties": { "GEOIDFQ": "1400000US50027966501", "NAME": "9665.01", "NAMELSAD": "Census Tract 9665.01" }, "geometry": { "type": "Polygon", "coordinates": [ [ [ -72.6792, 43.352 ], [ -72.5454, 43.3452 ], [ -72.5491, 43.2359 ], [ -72.6854, 43.2227 ], [ -72.6792, 43.352 ] ] ] } },
{ "type": "Feature", "properties": { "GEOIDFQ": "1400000US50027966800", "NAME": "9668", "NAMELSAD": "Census Tract 9668" }, "geometry": { "type": "Polygon", "coordinates": [ [ [ -72.9801, 43.8829 ], [ -72.9532, 43.8749 ], [ -72.8766, 43.9028 ], [ -72.8753, 43.8677 ], [ -72.8653, 43.8617 ], [ -72.8163, 43.9378 ], [ -72.81, 43.9361 ], [ -72.791, 43.9622 ], [ -72.7918, 43.954 ], [ -72.7852, 43.9522 ], [ -72.79, 43.9453 ], [ -72.7711, 43.9391 ], [ -72.7735, 43.9245 ], [ -72.5736, 43.8731 ], [ -72.6447, 43.7901 ], [ -72.771, 43.8246 ], [ -72.7829, 43.804 ], [ -72.7969, 43.8292 ], [ -72.8307, 43.8391 ], [ -72.8383, 43.8293 ], [ -72.8739, 43.8396 ], [ -72.8745, 43.8581 ], [ -72.9597, 43.8261 ], [ -72.9729, 43.8668 ], [ -72.9802, 43.864 ], [ -72.9801, 43.8829 ] ] ] } },
{ "type": "Feature", "properties": { "GEOIDFQ": "1400000US50027966502", "NAME": "9665.02", "NAMELSAD": "Census Tract 9665.02" }, "geometry": { "type": "Polygon", "coordinates": [ [ [ -72.865, 43.3487 ], [ -72.8547, 43.3493 ], [ -72.8524, 43.3763 ], [ -72.822, 43.3757 ], [ -72.8219, 43.3806 ], [ -72.6814, 43.3224 ], [ -72.6854, 43.2226 ], [ -72.8196, 43.256 ], [ -72.8199, 43.2994 ], [ -72.8686, 43.3008 ], [ -72.865, 43.3487 ] ] ] } },
{ "type": "Feature", "properties": { "GEOIDFQ": "1400000US50027965901", "NAME": "9659.01", "NAMELSAD": "Census Tract 9659.01" }, "geometry": { "type": "Polygon", "coordinates": [ [ [ -72.7715, 43.5911 ], [ -72.7579, 43.5874 ], [ -72.6939, 43.6933 ], [ -72.5768, 43.6591 ], [ -72.6381, 43.558 ], [ -72.6449, 43.5599 ], [ -72.6608, 43.4536 ], [ -72.7714, 43.4786 ], [ -72.7691, 43.4915 ], [ -72.7899, 43.4948 ], [ -72.7715, 43.5911 ] ] ] } },
{ "type": "Feature", "properties": { "GEOIDFQ": "1400000US50021964000", "NAME": "9640", "NAMELSAD": "Census Tract 9640" }, "geometry": { "type": "Polygon", "coordinates": [ [ [ -73.0144, 43.4451 ], [ -73.0072, 43.4481 ], [ -73.0053, 43.4927 ], [ -72.9633, 43.4951 ], [ -72.9558, 43.4838 ], [ -72.9288, 43.4817 ], [ -72.9287, 43.4779 ], [ -72.7943, 43.4838 ], [ -72.7242, 43.4682 ], [ -72.7384, 43.417 ], [ -72.7624, 43.3714 ], [ -72.7585, 43.3533 ], [ -72.8219, 43.3806 ], [ -72.822, 43.3757 ], [ -72.8524, 43.3763 ], [ -72.8535, 43.3936 ], [ -73.0217, 43.3993 ], [ -73.0144, 43.4451 ] ] ] } },
{ "type": "Feature", "properties": { "GEOIDFQ": "1400000US50021964200", "NAME": "9642", "NAMELSAD": "Census Tract 9642" }, "geometry": { "type": "Polygon", "coordinates": [ [ [ -73.1209, 43.403 ], [ -72.8535, 43.3936 ], [ -72.8547, 43.3493 ], [ -72.865, 43.3487 ], [ -72.8686, 43.3005 ], [ -72.9753, 43.3042 ], [ -72.9759, 43.2906 ], [ -72.9923, 43.2907 ], [ -72.9876, 43.305 ], [ -73.1227, 43.3097 ], [ -73.1209, 43.403 ] ] ] } },
{ "type": "Feature", "properties": { "GEOIDFQ": "1400000US50021964300", "NAME": "9643", "NAMELSAD": "Census Tract 9643" }, "geometry": { "type": "Polygon", "coordinates": [ [ [ -73.2509, 43.4086 ], [ -73.1208, 43.404 ], [ -73.1227, 43.3087 ], [ -73.2546, 43.3147 ], [ -73.2509, 43.4086 ] ] ] } },
{ "type": "Feature", "properties": { "GEOIDFQ": "1400000US50027966600", "NAME": "9666", "NAMELSAD": "Census Tract 9666" }, "geometry": { "type": "Polygon", "coordinates": [ [ [ -72.5465, 43.3349 ], [ -72.5251, 43.3379 ], [ -72.46, 43.2722 ], [ -72.44, 43.2648 ], [ -72.4304, 43.2665 ], [ -72.4276, 43.261 ], [ -72.439, 43.2512 ], [ -72.4346, 43.2333 ], [ -72.5491, 43.236 ], [ -72.5465, 43.3349 ] ] ] } },
{ "type": "Feature", "properties": { "GEOIDFQ": "1400000US50027966700", "NAME": "9667", "NAMELSAD": "Census Tract 9667" }, "geometry": { "type": "Polygon", "coordinates": [ [ [ -72.5454, 43.3453 ], [ -72.4062, 43.3382 ], [ -72.4105, 43.3307 ], [ -72.3953, 43.3127 ], [ -72.4216, 43.2634 ], [ -72.4276, 43.261 ], [ -72.4304, 43.2665 ], [ -72.44, 43.2648 ], [ -72.46, 43.2722 ], [ -72.5201, 43.3362 ], [ -72.5463, 43.3361 ], [ -72.5454, 43.3453 ] ] ] } },
{ "type": "Feature", "properties": { "GEOIDFQ": "1400000US50027965400", "NAME": "9654", "NAMELSAD": "Census Tract 9654" }, "geometry": { "type": "Polygon", "coordinates": [ [ [ -72.8039, 43.741 ], [ -72.8193, 43.7463 ], [ -72.771, 43.8246 ], [ -72.5283, 43.7565 ], [ -72.4616, 43.8369 ], [ -72.3393, 43.8104 ], [ -72.4264, 43.722 ], [ -72.4786, 43.6392 ], [ -72.5653, 43.6613 ], [ -72.5683, 43.6571 ], [ -72.5768, 43.6591 ], [ -72.6854, 43.6916 ], [ -72.6939, 43.6933 ], [ -72.6985, 43.6842 ], [ -72.82, 43.7167 ], [ -72.8039, 43.741 ] ] ] } },
{ "type": "Feature", "properties": { "GEOIDFQ": "1400000US50027966100", "NAME": "9661", "NAMELSAD": "Census Tract 9661" }, "geometry": { "type": "Polygon", "coordinates": [ [ [ -72.5304, 43.4436 ], [ -72.3961, 43.4286 ], [ -72.4153, 43.3659 ], [ -72.3898, 43.356 ], [ -72.4063, 43.3378 ], [ -72.5454, 43.3453 ], [ -72.5304, 43.4436 ] ] ] } },
{ "type": "Feature", "properties": { "GEOIDFQ": "1400000US50027965700", "NAME": "9657", "NAMELSAD": "Census Tract 9657" }, "geometry": { "type": "Polygon", "coordinates": [ [ [ -72.4662, 43.6311 ], [ -72.3284, 43.6057 ], [ -72.3431, 43.5918 ], [ -72.3798, 43.5742 ], [ -72.3807, 43.5404 ], [ -72.3964, 43.5196 ], [ -72.5293, 43.533 ], [ -72.4662, 43.6311 ] ] ] } },
{ "type": "Feature", "properties": { "GEOIDFQ": "1400000US50023955501", "NAME": "9555.01", "NAMELSAD": "Census Tract 9555.01" }, "geometry": { "type": "Polygon", "coordinates": [ [ [ -72.7639, 44.1498 ], [ -72.771, 44.1538 ], [ -72.7493, 44.1767 ], [ -72.7547, 44.1804 ], [ -72.7408, 44.1971 ], [ -72.7484, 44.2012 ], [ -72.7378, 44.213 ], [ -72.6837, 44.1853 ], [ -72.6466, 44.1758 ], [ -72.6567, 44.1659 ], [ -72.6544, 44.1495 ], [ -72.6597, 44.1499 ], [ -72.6687, 44.1352 ], [ -72.6656, 44.1227 ], [ -72.6866, 44.1109 ], [ -72.7156, 44.1181 ], [ -72.7283, 44.1151 ], [ -72.7824, 44.1309 ], [ -72.7639, 44.1498 ] ] ] } },
{ "type": "Feature", "properties": { "GEOIDFQ": "1400000US50023955502", "NAME": "9555.02", "NAMELSAD": "Census Tract 9555.02" }, "geometry": { "type": "Polygon", "coordinates": [ [ [ -72.7705, 44.1267 ], [ -72.6884, 44.1104 ], [ -72.6656, 44.1227 ], [ -72.6687, 44.1352 ], [ -72.6597, 44.1499 ], [ -72.6544, 44.1495 ], [ -72.6567, 44.1659 ], [ -72.6502, 44.1745 ], [ -72.5866, 44.1603 ], [ -72.6829, 44.0128 ], [ -72.819, 44.0519 ], [ -72.7705, 44.1267 ] ] ] } },
{ "type": "Feature", "properties": { "GEOIDFQ": "1400000US50003971200", "NAME": "9712", "NAMELSAD": "Census Tract 9712" }, "geometry": { "type": "Polygon", "coordinates": [ [ [ -73.2023, 42.8947 ], [ -73.1847, 42.8922 ], [ -73.18, 42.8833 ], [ -73.1653, 42.8846 ], [ -73.1588, 42.8833 ], [ -73.1866, 42.8788 ], [ -73.1879, 42.8731 ], [ -73.204, 42.8747 ], [ -73.2022, 42.8806 ], [ -73.214, 42.8862 ], [ -73.2023, 42.8947 ] ] ] } },
{ "type": "Feature", "properties": { "GEOIDFQ": "1400000US50021963000", "NAME": "9630", "NAMELSAD": "Census Tract 9630" }, "geometry": { "type": "Polygon", "coordinates": [ [ [ -72.9596, 43.6278 ], [ -72.957, 43.6211 ], [ -72.9477, 43.6218 ], [ -72.9456, 43.6084 ], [ -72.9716, 43.6052 ], [ -72.9757, 43.627 ], [ -72.9596, 43.6278 ] ] ] } },
{ "type": "Feature", "properties": { "GEOIDFQ": "1400000US50021963100", "NAME": "9631", "NAMELSAD": "Census Tract 9631" }, "geometry": { "type": "Polygon", "coordinates": [ [ [ -72.9812, 43.6227 ], [ -72.9718, 43.6061 ], [ -72.9787, 43.6054 ], [ -72.9881, 43.6159 ], [ -72.9812, 43.6227 ] ] ] } },
{ "type": "Feature", "properties": { "GEOIDFQ": "1400000US50011010600", "NAME": "106", "NAMELSAD": "Census Tract 106" }, "geometry": { "type": "Polygon", "coordinates": [ [ [ -73.237, 44.8097 ], [ -73.208, 44.8246 ], [ -73.2026, 44.8361 ], [ -73.2071, 44.8519 ], [ -73.1939, 44.8868 ], [ -72.9754, 44.8078 ], [ -73.0848, 44.773 ], [ -73.1491, 44.7963 ], [ -73.2042, 44.7509 ], [ -73.2289, 44.7228 ], [ -73.259, 44.7714 ], [ -73.237, 44.8097 ] ], [ [ -73.0911, 44.8009 ], [ -73.0935, 44.7944 ], [ -73.0874, 44.8012 ], [ -73.0727, 44.803 ], [ -73.0682, 44.8191 ], [ -73.0901, 44.8242 ], [ -73.1014, 44.8083 ], [ -73.0911, 44.8009 ] ] ] } },
{ "type": "Feature", "properties": { "GEOIDFQ": "1400000US50011010500", "NAME": "105", "NAMELSAD": "Census Tract 105" }, "geometry": { "type": "Polygon", "coordinates": [ [ [ -73.1923, 45.0134 ], [ -73.1704, 45.0138 ], [ -73.1499, 44.995 ], [ -73.1545, 44.9814 ], [ -73.1684, 44.9708 ], [ -73.1603, 44.9499 ], [ -73.0554, 44.9107 ], [ -73.0364, 44.8871 ], [ -73.0015, 44.8822 ], [ -73.0084, 44.8515 ], [ -72.9891, 44.825 ], [ -72.9968, 44.816 ], [ -73.1939, 44.8868 ], [ -73.1923, 44.9083 ], [ -73.2249, 44.9185 ], [ -73.2409, 44.9489 ], [ -73.1923, 45.0134 ] ] ] } },
{ "type": "Feature", "properties": { "GEOIDFQ": "1400000US50011010200", "NAME": "102", "NAMELSAD": "Census Tract 102" }, "geometry": { "type": "Polygon", "coordinates": [ [ [ -72.8345, 44.8555 ], [ -72.8393, 44.8564 ], [ -72.8148, 44.9191 ], [ -72.8224, 44.9205 ], [ -72.8322, 45.0164 ], [ -72.7018, 45.0156 ], [ -72.6724, 44.9215 ], [ -72.6616, 44.8401 ], [ -72.8395, 44.8382 ], [ -72.8345, 44.8555 ] ] ] } },
{ "type": "Feature", "properties": { "GEOIDFQ": "1400000US50011010300", "NAME": "103", "NAMELSAD": "Census Tract 103" }, "geometry": { "type": "Polygon", "coordinates": [ [ [ -72.5539, 45.008 ], [ -72.5365, 44.9261 ], [ -72.5414, 44.926 ], [ -72.5333, 44.8341 ], [ -72.5791, 44.7809 ], [ -72.6167, 44.7958 ], [ -72.6136, 44.8004 ], [ -72.6784, 44.8025 ], [ -72.6784, 44.8394 ], [ -72.6616, 44.8401 ], [ -72.6724, 44.9215 ], [ -72.7018, 45.0156 ], [ -72.5539, 45.008 ] ] ] } },
{ "type": "Feature", "properties": { "GEOIDFQ": "1400000US50011010700", "NAME": "107", "NAMELSAD": "Census Tract 107" }, "geometry": { "type": "Polygon", "coordinates": [ [ [ -73.0901, 44.8242 ], [ -73.0812, 44.8229 ], [ -73.0842, 44.8075 ], [ -73.0943, 44.7948 ], [ -73.0911, 44.8009 ], [ -73.1011, 44.8115 ], [ -73.0901, 44.8242 ] ] ] } },
{ "type": "Feature", "properties": { "GEOIDFQ": "1400000US50007002301", "NAME": "23.01", "NAMELSAD": "Census Tract 23.01" }, "geometry": { "type": "Polygon", "coordinates": [ [ [ -73.2545, 44.6107 ], [ -73.2326, 44.6135 ], [ -73.2171, 44.6052 ], [ -73.2025, 44.6034 ], [ -73.1987, 44.6078 ], [ -73.1377, 44.5844 ], [ -73.1584, 44.5751 ], [ -73.1573, 44.5658 ], [ -73.1671, 44.5713 ], [ -73.1719, 44.5661 ], [ -73.178, 44.5719 ], [ -73.1875, 44.5544 ], [ -73.2699, 44.5929 ], [ -73.2545, 44.6107 ] ] ] } },
{ "type": "Feature", "properties": { "GEOIDFQ": "1400000US50003970800", "NAME": "9708", "NAMELSAD": "Census Tract 9708" }, "geometry": { "type": "Polygon", "coordinates": [ [ [ -73.2701, 43.03 ], [ -73.1406, 43.0258 ], [ -73.146, 42.931 ], [ -73.2747, 42.9344 ], [ -73.2701, 43.03 ] ] ] } },
{ "type": "Feature", "properties": { "GEOIDFQ": "1400000US50003971300", "NAME": "9713", "NAMELSAD": "Census Tract 9713" }, "geometry": { "type": "Polygon", "coordinates": [ [ [ -73.2837, 42.8139 ], [ -73.2854, 42.8341 ], [ -73.2783, 42.8374 ], [ -73.1371, 42.8356 ], [ -73.1427, 42.7435 ], [ -73.2764, 42.746 ], [ -73.2909, 42.8019 ], [ -73.2837, 42.8139 ] ] ] } },
{ "type": "Feature", "properties": { "GEOIDFQ": "1400000US50019952000", "NAME": "9520", "NAMELSAD": "Census Tract 9520" }, "geometry": { "type": "Polygon", "coordinates": [ [ [ -72.2589, 44.7441 ], [ -72.146, 44.7045 ], [ -72.2629, 44.5425 ], [ -72.3665, 44.5808 ], [ -72.3718, 44.5882 ], [ -72.2589, 44.7441 ] ] ] } },
{ "type": "Feature", "properties": { "GEOIDFQ": "1400000US50011010400", "NAME": "104", "NAMELSAD": "Census Tract 104" }, "geometry": { "type": "Polygon", "coordinates": [ [ [ -72.9754, 44.8078 ], [ -72.9968, 44.816 ], [ -72.9891, 44.825 ], [ -73.0084, 44.8515 ], [ -73.0015, 44.8822 ], [ -72.8345, 44.8555 ], [ -72.8395, 44.8382 ], [ -72.6784, 44.8394 ], [ -72.6784, 44.8025 ], [ -72.7291, 44.804 ], [ -72.7468, 44.7901 ], [ -72.7458, 44.7759 ], [ -72.755, 44.777 ], [ -72.7585, 44.7636 ], [ -72.7686, 44.765 ], [ -72.7837, 44.7284 ], [ -73.0848, 44.773 ], [ -72.9754, 44.8078 ] ] ] } },
{ "type": "Feature", "properties": { "GEOIDFQ": "1400000US50011011000", "NAME": "110", "NAMELSAD": "Census Tract 110" }, "geometry": { "type": "Polygon", "coordinates": [ [ [ -72.7837, 44.7284 ], [ -72.7932, 44.6907 ], [ -72.8508, 44.7111 ], [ -72.8919, 44.6557 ], [ -72.9043, 44.646 ], [ -72.9267, 44.6475 ], [ -72.9238, 44.6332 ], [ -73.038, 44.6512 ], [ -73.0827, 44.7727 ], [ -72.7837, 44.7284 ] ] ] } },
{ "type": "Feature", "properties": { "GEOIDFQ": "1400000US50021963300", "NAME": "9633", "NAMELSAD": "Census Tract 9633" }, "geometry": { "type": "Polygon", "coordinates": [ [ [ -72.9919, 43.6017 ], [ -72.9841, 43.6075 ], [ -72.9673, 43.6029 ], [ -72.9473, 43.6083 ], [ -72.9464, 43.594 ], [ -72.9916, 43.5867 ], [ -73.0111, 43.6 ], [ -72.9919, 43.6017 ] ] ] } },
{ "type": "Feature", "properties": { "GEOIDFQ": "1400000US50021963400", "NAME": "9634", "NAMELSAD": "Census Tract 9634" }, "geometry": { "type": "Polygon", "coordinates": [ [ [ -73.035, 43.5707 ], [ -72.9342, 43.5748 ], [ -72.9288, 43.4817 ], [ -72.9558, 43.4838 ], [ -72.9633, 43.4951 ], [ -73.0508, 43.4942 ], [ -73.035, 43.5707 ] ] ] } },
{ "type": "Feature", "properties": { "GEOIDFQ": "1400000US50021963500", "NAME": "9635", "NAMELSAD": "Census Tract 9635" }, "geometry": { "type": "Polygon", "coordinates": [ [ [ -73.1785, 43.4962 ], [ -73.1684, 43.496 ], [ -73.1334, 43.5253 ], [ -73.1353, 43.5336 ], [ -73.1201, 43.5334 ], [ -73.111, 43.6323 ], [ -73.0955, 43.6327 ], [ -73.0777, 43.5702 ], [ -73.035, 43.5707 ], [ -73.0508, 43.4942 ], [ -73.0053, 43.4927 ], [ -73.0072, 43.4481 ], [ -73.0144, 43.4451 ], [ -73.0217, 43.3993 ], [ -73.1209, 43.403 ], [ -73.1191, 43.4358 ], [ -73.1795, 43.4659 ], [ -73.1785, 43.4962 ] ] ] } },
{ "type": "Feature", "properties": { "GEOIDFQ": "1400000US50021963600", "NAME": "9636", "NAMELSAD": "Census Tract 9636" }, "geometry": { "type": "Polygon", "coordinates": [ [ [ -73.2372, 43.6802 ], [ -73.1082, 43.676 ], [ -73.0955, 43.6327 ], [ -73.111, 43.6323 ], [ -73.1171, 43.5852 ], [ -73.2433, 43.5883 ], [ -73.2372, 43.6802 ] ] ] } },
{ "type": "Feature", "properties": { "GEOIDFQ": "1400000US50011010800", "NAME": "108", "NAMELSAD": "Census Tract 108" }, "geometry": { "type": "Polygon", "coordinates": [ [ [ -73.0807, 44.8251 ], [ -73.0753, 44.8239 ], [ -73.0682, 44.8191 ], [ -73.0723, 44.8036 ], [ -73.0943, 44.7948 ], [ -73.0807, 44.8251 ] ] ] } },
{ "type": "Feature", "properties": { "GEOIDFQ": "1400000US50011010900", "NAME": "109", "NAMELSAD": "Census Tract 109" }, "geometry": { "type": "Polygon", "coordinates": [ [ [ -73.2042, 44.7509 ], [ -73.1491, 44.7963 ], [ -73.0848, 44.773 ], [ -73.038, 44.6512 ], [ -73.2288, 44.7229 ], [ -73.2042, 44.7509 ] ] ] } },
{ "type": "Feature", "properties": { "GEOIDFQ": "1400000US50007004002", "NAME": "40.02", "NAMELSAD": "Census Tract 40.02" }, "geometry": { "type": "Polygon", "coordinates": [ [ [ -73.1687, 44.4904 ], [ -73.1679, 44.4865 ], [ -73.1442, 44.4898 ], [ -73.1479, 44.4938 ], [ -73.1373, 44.5007 ], [ -73.1449, 44.4808 ], [ -73.1348, 44.4725 ], [ -73.1388, 44.4351 ], [ -73.157, 44.436 ], [ -73.1576, 44.4499 ], [ -73.1693, 44.4569 ], [ -73.1799, 44.4813 ], [ -73.1687, 44.4904 ] ], [ [ -73.1541, 44.463 ], [ -73.136, 44.4622 ], [ -73.1386, 44.4746 ], [ -73.1572, 44.4791 ], [ -73.1625, 44.4854 ], [ -73.1707, 44.4806 ], [ -73.1541, 44.463 ] ] ] } },
{ "type": "Feature", "properties": { "GEOIDFQ": "1400000US50007003301", "NAME": "33.01", "NAMELSAD": "Census Tract 33.01" }, "geometry": { "type": "Polygon", "coordinates": [ [ [ -73.1884, 44.45 ], [ -73.1578, 44.4479 ], [ -73.157, 44.436 ], [ -73.1396, 44.4356 ], [ -73.1463, 44.4279 ], [ -73.1446, 44.4121 ], [ -73.1546, 44.4052 ], [ -73.1967, 44.4172 ], [ -73.1884, 44.45 ] ] ] } },
{ "type": "Feature", "properties": { "GEOIDFQ": "1400000US50011010101", "NAME": "101.01", "NAMELSAD": "Census Tract 101.01" }, "geometry": { "type": "Polygon", "coordinates": [ [ [ -72.9932, 45.0147 ], [ -72.9809, 44.9649 ], [ -72.8997, 44.9347 ], [ -73.0554, 44.9107 ], [ -73.1613, 44.9507 ], [ -73.1682, 44.9717 ], [ -73.1545, 44.9814 ], [ -73.1499, 44.995 ], [ -73.1702, 45.014 ], [ -72.9932, 45.0147 ] ] ] } },
{ "type": "Feature", "properties": { "GEOIDFQ": "1400000US50011010102", "NAME": "101.02", "NAMELSAD": "Census Tract 101.02" }, "geometry": { "type": "Polygon", "coordinates": [ [ [ -72.8997, 44.9347 ], [ -72.9809, 44.9649 ], [ -72.9932, 45.0147 ], [ -72.8322, 45.0164 ], [ -72.8224, 44.9205 ], [ -72.8148, 44.9191 ], [ -72.8393, 44.8564 ], [ -73.0364, 44.8871 ], [ -73.0526, 44.9111 ], [ -72.8997, 44.9347 ] ] ] } },
{ "type": "Feature", "properties": { "GEOIDFQ": "1400000US50021962800", "NAME": "9628", "NAMELSAD": "Census Tract 9628" }, "geometry": { "type": "Polygon", "coordinates": [ [ [ -72.8578, 43.6951 ], [ -72.8456, 43.7234 ], [ -72.6998, 43.6846 ], [ -72.7579, 43.5874 ], [ -72.7715, 43.5911 ], [ -72.7899, 43.4945 ], [ -72.7691, 43.4915 ], [ -72.7714, 43.4788 ], [ -72.7943, 43.4838 ], [ -72.9287, 43.4779 ], [ -72.9396, 43.6657 ], [ -72.8578, 43.6951 ] ] ] } },
{ "type": "Feature", "properties": { "GEOIDFQ": "1400000US50021963200", "NAME": "9632", "NAMELSAD": "Census Tract 9632" }, "geometry": { "type": "Polygon", "coordinates": [ [ [ -73.0057, 43.6086 ], [ -73.0069, 43.6297 ], [ -72.9761, 43.6306 ], [ -72.9739, 43.6174 ], [ -72.9822, 43.6227 ], [ -72.9881, 43.6159 ], [ -72.9806, 43.6078 ], [ -72.9927, 43.6017 ], [ -73.0115, 43.6073 ], [ -73.0057, 43.6086 ] ] ] } },
{ "type": "Feature", "properties": { "GEOIDFQ": "1400000US50021963800", "NAME": "9638", "NAMELSAD": "Census Tract 9638" }, "geometry": { "type": "Polygon", "coordinates": [ [ [ -73.2433, 43.5876 ], [ -73.1171, 43.5852 ], [ -73.1201, 43.5334 ], [ -73.1353, 43.5336 ], [ -73.1334, 43.5253 ], [ -73.1684, 43.496 ], [ -73.1785, 43.4962 ], [ -73.1795, 43.4659 ], [ -73.1191, 43.4358 ], [ -73.1208, 43.404 ], [ -73.2508, 43.4087 ], [ -73.2433, 43.5876 ] ] ] } },
{ "type": "Feature", "properties": { "GEOIDFQ": "1400000US50009950200", "NAME": "9502", "NAMELSAD": "Census Tract 9502" }, "geometry": { "type": "Polygon", "coordinates": [ [ [ -71.8779, 44.8788 ], [ -71.7659, 44.8191 ], [ -71.8575, 44.7269 ], [ -71.9748, 44.7872 ], [ -71.8779, 44.8788 ] ] ] } },
{ "type": "Feature", "properties": { "GEOIDFQ": "1400000US50009950100", "NAME": "9501", "NAMELSAD": "Census Tract 9501" }, "geometry": { "type": "Polygon", "coordinates": [ [ [ -71.8993, 45.0079 ], [ -71.465, 45.0136 ], [ -71.4808, 45.0023 ], [ -71.5085, 45.0079 ], [ -71.537, 44.9935 ], [ -71.5331, 44.9909 ], [ -71.5413, 44.9839 ], [ -71.5229, 44.9662 ], [ -71.518, 44.9677 ], [ -71.5236, 44.9641 ], [ -71.5163, 44.9644 ], [ -71.5148, 44.9437 ], [ -71.5228, 44.9399 ], [ -71.4999, 44.9112 ], [ -71.4932, 44.9114 ], [ -71.4949, 44.9043 ], [ -71.5074, 44.8995 ], [ -71.5161, 44.8845 ], [ -71.5495, 44.8621 ], [ -71.5475, 44.8554 ], [ -71.5558, 44.8486 ], [ -71.5511, 44.837 ], [ -71.5769, 44.8152 ], [ -71.5684, 44.807 ], [ -71.5728, 44.7909 ], [ -71.5925, 44.7827 ], [ -71.6167, 44.7563 ], [ -71.6321, 44.7516 ], [ -71.6251, 44.7434 ], [ -71.6261, 44.7285 ], [ -71.6171, 44.7287 ], [ -71.6186, 44.7222 ], [ -71.5939, 44.6964 ], [ -71.5966, 44.6781 ], [ -71.5815, 44.6732 ], [ -71.5879, 44.6699 ], [ -71.5874, 44.6597 ], [ -71.5752, 44.6558 ], [ -71.5771, 44.6507 ], [ -71.5628, 44.6524 ], [ -71.5578, 44.642 ], [ -71.5637, 44.6372 ], [ -71.5468, 44.6298 ], [ -71.557, 44.6295 ], [ -71.5463, 44.623 ], [ -71.5551, 44.6252 ], [ -71.5536, 44.6061 ], [ -71.5623, 44.6021 ], [ -71.5504, 44.6007 ], [ -71.555, 44.5932 ], [ -71.546, 44.5971 ], [ -71.5469, 44.5908 ], [ -71.5385, 44.5942 ], [ -71.5349, 44.5879 ], [ -71.5458, 44.5779 ], [ -71.5527, 44.584 ], [ -71.5494, 44.5696 ], [ -71.8575, 44.7269 ], [ -71.7659, 44.8191 ], [ -71.9196, 44.9046 ], [ -71.8993, 45.0079 ] ] ] } },
{ "type": "Feature", "properties": { "GEOIDFQ": "1400000US50017959000", "NAME": "9590", "NAMELSAD": "Census Tract 9590" }, "geometry": { "type": "Polygon", "coordinates": [ [ [ -72.1707, 44.192 ], [ -72.0396, 44.156 ], [ -72.042, 44.137 ], [ -72.0333, 44.1314 ], [ -72.0531, 44.1195 ], [ -72.0554, 44.1109 ], [ -72.0479, 44.0966 ], [ -72.0395, 44.1035 ], [ -72.0313, 44.1004 ], [ -72.0333, 44.0905 ], [ -72.0453, 44.0873 ], [ -72.0317, 44.079 ], [ -72.0529, 44.0763 ], [ -72.0486, 44.0692 ], [ -72.0573, 44.0583 ], [ -72.069, 44.0553 ], [ -72.0619, 44.0496 ], [ -72.079, 44.0423 ], [ -72.0767, 44.0305 ], [ -72.2076, 44.066 ], [ -72.1707, 44.192 ] ] ] } },
{ "type": "Feature", "properties": { "GEOIDFQ": "1400000US50017959400", "NAME": "9594", "NAMELSAD": "Census Tract 9594" }, "geometry": { "type": "Polygon", "coordinates": [ [ [ -72.6373, 44.0007 ], [ -72.5103, 43.9662 ], [ -72.5735, 43.8731 ], [ -72.7027, 43.9096 ], [ -72.6373, 44.0007 ] ] ] } },
{ "type": "Feature", "properties": { "GEOIDFQ": "1400000US50017959700", "NAME": "9597", "NAMELSAD": "Census Tract 9597" }, "geometry": { "type": "Polygon", "coordinates": [ [ [ -72.2338, 43.9928 ], [ -72.0991, 43.9573 ], [ -72.1183, 43.9465 ], [ -72.1205, 43.9196 ], [ -72.1505, 43.9021 ], [ -72.1597, 43.8877 ], [ -72.1725, 43.8846 ], [ -72.169, 43.8717 ], [ -72.2845, 43.9036 ], [ -72.2338, 43.9928 ] ] ] } },
{ "type": "Feature", "properties": { "GEOIDFQ": "1400000US50017959600", "NAME": "9596", "NAMELSAD": "Census Tract 9596" }, "geometry": { "type": "Polygon", "coordinates": [ [ [ -72.2715, 43.8998 ], [ -72.1687, 43.8712 ], [ -72.1841, 43.8648 ], [ -72.1879, 43.8564 ], [ -72.1835, 43.809 ], [ -72.2055, 43.7846 ], [ -72.2052, 43.7713 ], [ -72.3392, 43.8107 ], [ -72.2715, 43.8998 ] ] ] } },
{ "type": "Feature", "properties": { "GEOIDFQ": "1400000US50017959800", "NAME": "9598", "NAMELSAD": "Census Tract 9598" }, "geometry": { "type": "Polygon", "coordinates": [ [ [ -72.1916, 44.0614 ], [ -72.0792, 44.0298 ], [ -72.0833, 44.0214 ], [ -72.0954, 44.0218 ], [ -72.0907, 44.0097 ], [ -72.1028, 44.0146 ], [ -72.1041, 44.0024 ], [ -72.117, 43.9942 ], [ -72.1144, 43.9681 ], [ -72.091, 43.9662 ], [ -72.1007, 43.963 ], [ -72.0991, 43.9573 ], [ -72.2327, 43.9927 ], [ -72.1916, 44.0614 ] ] ] } },
{ "type": "Feature", "properties": { "GEOIDFQ": "1400000US50007004200", "NAME": "42", "NAMELSAD": "Census Tract 42" }, "geometry": { "type": "Polygon", "coordinates": [ [ [ -73.2059, 44.4849 ], [ -73.2057, 44.4807 ], [ -73.219, 44.4803 ], [ -73.2223, 44.4844 ], [ -73.2059, 44.4849 ] ] ] } },
{ "type": "Feature", "properties": { "GEOIDFQ": "1400000US50027965502", "NAME": "9655.02", "NAMELSAD": "Census Tract 9655.02" }, "geometry": { "type": "Polygon", "coordinates": [ [ [ -72.4222, 43.7262 ], [ -72.3051, 43.6923 ], [ -72.306, 43.6835 ], [ -72.3154, 43.6823 ], [ -72.322, 43.6605 ], [ -72.3308, 43.6555 ], [ -72.3814, 43.6711 ], [ -72.4265, 43.7219 ], [ -72.4222, 43.7262 ] ] ] } },
{ "type": "Feature", "properties": { "GEOIDFQ": "1400000US50027965501", "NAME": "9655.01", "NAMELSAD": "Census Tract 9655.01" }, "geometry": { "type": "Polygon", "coordinates": [ [ [ -72.4265, 43.7219 ], [ -72.3832, 43.6722 ], [ -72.3308, 43.6555 ], [ -72.3386, 43.6399 ], [ -72.3458, 43.6445 ], [ -72.3483, 43.6399 ], [ -72.354, 43.6108 ], [ -72.4662, 43.6311 ], [ -72.4785, 43.6393 ], [ -72.4265, 43.7219 ] ] ] } },
{ "type": "Feature", "properties": { "GEOIDFQ": "1400000US50021962200", "NAME": "9622", "NAMELSAD": "Census Tract 9622" }, "geometry": { "type": "Polygon", "coordinates": [ [ [ -73.0299, 43.8467 ], [ -73.0035, 43.7569 ], [ -73.0564, 43.7552 ], [ -73.06, 43.7507 ], [ -73.0776, 43.7589 ], [ -73.0802, 43.7544 ], [ -73.1315, 43.7523 ], [ -73.1562, 43.8423 ], [ -73.0299, 43.8467 ] ] ] } },
{ "type": "Feature", "properties": { "GEOIDFQ": "1400000US50019951100", "NAME": "9511", "NAMELSAD": "Census Tract 9511" }, "geometry": { "type": "Polygon", "coordinates": [ [ [ -72.0674, 44.9144 ], [ -72.0975, 44.9303 ], [ -72.0658, 44.931 ], [ -72.0512, 45.0063 ], [ -71.8993, 45.0079 ], [ -71.9201, 44.9015 ], [ -71.8779, 44.8788 ], [ -71.9748, 44.7872 ], [ -72.119, 44.8648 ], [ -72.0674, 44.9144 ] ] ] } },
{ "type": "Feature", "properties": { "GEOIDFQ": "1400000US50019951300", "NAME": "9513", "NAMELSAD": "Census Tract 9513" }, "geometry": { "type": "Polygon", "coordinates": [ [ [ -72.142, 45.0059 ], [ -72.1349, 44.9984 ], [ -72.1244, 44.9828 ], [ -72.1248, 44.9642 ], [ -72.1493, 44.9273 ], [ -72.1524, 44.8822 ], [ -72.188, 44.9009 ], [ -72.1841, 44.9046 ], [ -72.1979, 44.915 ], [ -72.1941, 44.9325 ], [ -72.1767, 44.9347 ], [ -72.1696, 44.9484 ], [ -72.1802, 44.9462 ], [ -72.18, 44.951 ], [ -72.1916, 44.9509 ], [ -72.1926, 44.9631 ], [ -72.2022, 44.9662 ], [ -72.2264, 44.9536 ], [ -72.2318, 44.9856 ], [ -72.2427, 45.0047 ], [ -72.142, 45.0059 ] ] ] } },
{ "type": "Feature", "properties": { "GEOIDFQ": "1400000US50019951700", "NAME": "9517", "NAMELSAD": "Census Tract 9517" }, "geometry": { "type": "Polygon", "coordinates": [ [ [ -72.5333, 44.8341 ], [ -72.4038, 44.8351 ], [ -72.4045, 44.8411 ], [ -72.3319, 44.8422 ], [ -72.3088, 44.8751 ], [ -72.1948, 44.8331 ], [ -72.3684, 44.5928 ], [ -72.4828, 44.6341 ], [ -72.4173, 44.7229 ], [ -72.5781, 44.7821 ], [ -72.5333, 44.8341 ] ] ] } },
{ "type": "Feature", "properties": { "GEOIDFQ": "1400000US50019951400", "NAME": "9514", "NAMELSAD": "Census Tract 9514" }, "geometry": { "type": "Polygon", "coordinates": [ [ [ -72.2062, 44.9332 ], [ -72.2036, 44.9435 ], [ -72.1929, 44.9632 ], [ -72.1926, 44.9631 ], [ -72.1916, 44.9509 ], [ -72.18, 44.951 ], [ -72.1802, 44.9462 ], [ -72.1696, 44.9484 ], [ -72.1755, 44.9355 ], [ -72.1941, 44.9325 ], [ -72.1986, 44.9236 ], [ -72.1967, 44.9117 ], [ -72.1841, 44.9046 ], [ -72.188, 44.9009 ], [ -72.2175, 44.9218 ], [ -72.2062, 44.9332 ] ] ] } },
{ "type": "Feature", "properties": { "GEOIDFQ": "1400000US50019951500", "NAME": "9515", "NAMELSAD": "Census Tract 9515" }, "geometry": { "type": "Polygon", "coordinates": [ [ [ -72.2412, 44.9518 ], [ -72.2339, 44.9505 ], [ -72.2022, 44.9662 ], [ -72.1929, 44.9632 ], [ -72.2175, 44.9218 ], [ -72.2139, 44.9149 ], [ -72.2432, 44.9306 ], [ -72.2412, 44.9518 ] ] ] } },
{ "type": "Feature", "properties": { "GEOIDFQ": "1400000US50019951200", "NAME": "9512", "NAMELSAD": "Census Tract 9512" }, "geometry": { "type": "Polygon", "coordinates": [ [ [ -72.1493, 44.9273 ], [ -72.1248, 44.9642 ], [ -72.1245, 44.983 ], [ -72.142, 45.0059 ], [ -72.0512, 45.0063 ], [ -72.0658, 44.931 ], [ -72.0975, 44.9303 ], [ -72.0674, 44.9144 ], [ -72.1194, 44.8644 ], [ -72.1523, 44.8824 ], [ -72.1493, 44.9273 ] ] ] } },
{ "type": "Feature", "properties": { "GEOIDFQ": "1400000US50019951900", "NAME": "9519", "NAMELSAD": "Census Tract 9519" }, "geometry": { "type": "Polygon", "coordinates": [ [ [ -72.2618, 44.9405 ], [ -71.9393, 44.7694 ], [ -72.0115, 44.6988 ], [ -72.1144, 44.7498 ], [ -72.0824, 44.7817 ], [ -72.2004, 44.8254 ], [ -72.1948, 44.8331 ], [ -72.3085, 44.8755 ], [ -72.2618, 44.9405 ] ] ] } },
{ "type": "Feature", "properties": { "GEOIDFQ": "1400000US50019951600", "NAME": "9516", "NAMELSAD": "Census Tract 9516" }, "geometry": { "type": "Polygon", "coordinates": [ [ [ -72.2427, 45.0047 ], [ -72.2318, 44.9856 ], [ -72.2264, 44.9536 ], [ -72.2416, 44.9515 ], [ -72.2432, 44.9306 ], [ -72.2618, 44.9405 ], [ -72.3319, 44.8422 ], [ -72.4045, 44.8411 ], [ -72.4038, 44.8351 ], [ -72.5333, 44.8341 ], [ -72.5414, 44.926 ], [ -72.5365, 44.9261 ], [ -72.5539, 45.008 ], [ -72.2427, 45.0047 ] ] ] } },
{ "type": "Feature", "properties": { "GEOIDFQ": "1400000US50019951800", "NAME": "9518", "NAMELSAD": "Census Tract 9518" }, "geometry": { "type": "Polygon", "coordinates": [ [ [ -72.2004, 44.8254 ], [ -72.0824, 44.7817 ], [ -72.1144, 44.7498 ], [ -72.0893, 44.6851 ], [ -72.2585, 44.7446 ], [ -72.2004, 44.8254 ] ] ] } },
{ "type": "Feature", "properties": { "GEOIDFQ": "1400000US50015953200", "NAME": "9532", "NAMELSAD": "Census Tract 9532" }, "geometry": { "type": "Polygon", "coordinates": [ [ [ -72.7069, 44.7185 ], [ -72.5969, 44.6793 ], [ -72.6534, 44.5994 ], [ -72.6625, 44.6025 ], [ -72.6825, 44.5765 ], [ -72.7497, 44.5918 ], [ -72.7265, 44.6243 ], [ -72.7636, 44.6373 ], [ -72.7069, 44.7185 ] ] ] } },
{ "type": "Feature", "properties": { "GEOIDFQ": "1400000US50015953500", "NAME": "9535", "NAMELSAD": "Census Tract 9535" }, "geometry": { "type": "Polygon", "coordinates": [ [ [ -72.7497, 44.5918 ], [ -72.6825, 44.5765 ], [ -72.6625, 44.6025 ], [ -72.6534, 44.5994 ], [ -72.6502, 44.6039 ], [ -72.6373, 44.6006 ], [ -72.6325, 44.5936 ], [ -72.6275, 44.5979 ], [ -72.6257, 44.5866 ], [ -72.6118, 44.5894 ], [ -72.5679, 44.5734 ], [ -72.5589, 44.5844 ], [ -72.5256, 44.5726 ], [ -72.5973, 44.4794 ], [ -72.7076, 44.5236 ], [ -72.6924, 44.545 ], [ -72.7697, 44.5634 ], [ -72.7497, 44.5918 ] ] ] } },
{ "type": "Feature", "properties": { "GEOIDFQ": "1400000US50015953300", "NAME": "9533", "NAMELSAD": "Census Tract 9533" }, "geometry": { "type": "Polygon", "coordinates": [ [ [ -72.5932, 44.6846 ], [ -72.4769, 44.6421 ], [ -72.5256, 44.5726 ], [ -72.5589, 44.5844 ], [ -72.5679, 44.5734 ], [ -72.6118, 44.5894 ], [ -72.6257, 44.5866 ], [ -72.6275, 44.5979 ], [ -72.6325, 44.5936 ], [ -72.65, 44.6041 ], [ -72.5932, 44.6846 ] ] ] } },
{ "type": "Feature", "properties": { "GEOIDFQ": "1400000US50007002304", "NAME": "23.04", "NAMELSAD": "Census Tract 23.04" }, "geometry": { "type": "Polygon", "coordinates": [ [ [ -73.2282, 44.5625 ], [ -73.2033, 44.5625 ], [ -73.1964, 44.5554 ], [ -73.1848, 44.5545 ], [ -73.1992, 44.5394 ], [ -73.1933, 44.5234 ], [ -73.2032, 44.5238 ], [ -73.2028, 44.5136 ], [ -73.1925, 44.5055 ], [ -73.2024, 44.4924 ], [ -73.2033, 44.501 ], [ -73.215, 44.5096 ], [ -73.2279, 44.5083 ], [ -73.219, 44.5158 ], [ -73.2324, 44.5131 ], [ -73.2393, 44.5172 ], [ -73.242, 44.5323 ], [ -73.2282, 44.5625 ] ] ] } },
{ "type": "Feature", "properties": { "GEOIDFQ": "1400000US50007002201", "NAME": "22.01", "NAMELSAD": "Census Tract 22.01" }, "geometry": { "type": "Polygon", "coordinates": [ [ [ -73.1704, 44.5218 ], [ -73.1433, 44.5096 ], [ -73.1584, 44.4898 ], [ -73.1684, 44.4865 ], [ -73.1682, 44.5004 ], [ -73.1983, 44.5073 ], [ -73.2032, 44.5237 ], [ -73.1704, 44.5218 ] ] ] } },
{ "type": "Feature", "properties": { "GEOIDFQ": "1400000US50007003102", "NAME": "31.02", "NAMELSAD": "Census Tract 31.02" }, "geometry": { "type": "Polygon", "coordinates": [ [ [ -73.1446, 44.4121 ], [ -73.1462, 44.4283 ], [ -73.1353, 44.4424 ], [ -73.0434, 44.433 ], [ -73.0338, 44.4262 ], [ -73.0423, 44.422 ], [ -73.0518, 44.4248 ], [ -73.0814, 44.3703 ], [ -73.0893, 44.3695 ], [ -73.1165, 44.3951 ], [ -73.1548, 44.4064 ], [ -73.1446, 44.4121 ] ] ] } },
{ "type": "Feature", "properties": { "GEOIDFQ": "1400000US50007002303", "NAME": "23.03", "NAMELSAD": "Census Tract 23.03" }, "geometry": { "type": "Polygon", "coordinates": [ [ [ -73.2706, 44.5926 ], [ -73.2264, 44.5762 ], [ -73.2092, 44.5625 ], [ -73.2282, 44.5625 ], [ -73.2394, 44.544 ], [ -73.2399, 44.5288 ], [ -73.2501, 44.5227 ], [ -73.2655, 44.5251 ], [ -73.2641, 44.5375 ], [ -73.2701, 44.5398 ], [ -73.2707, 44.5313 ], [ -73.3212, 44.5149 ], [ -73.3388, 44.548 ], [ -73.3629, 44.5643 ], [ -73.2706, 44.5926 ] ] ] } },
{ "type": "Feature", "properties": { "GEOIDFQ": "1400000US50007002202", "NAME": "22.02", "NAMELSAD": "Census Tract 22.02" }, "geometry": { "type": "Polygon", "coordinates": [ [ [ -73.178, 44.5719 ], [ -73.1719, 44.5661 ], [ -73.1671, 44.5713 ], [ -73.1573, 44.5658 ], [ -73.1584, 44.5751 ], [ -73.1381, 44.5856 ], [ -73.0979, 44.5705 ], [ -73.1436, 44.5094 ], [ -73.1702, 44.5217 ], [ -73.1933, 44.5234 ], [ -73.1994, 44.5382 ], [ -73.178, 44.5719 ] ] ] } },
{ "type": "Feature", "properties": { "GEOIDFQ": "1400000US50007002502", "NAME": "25.02", "NAMELSAD": "Census Tract 25.02" }, "geometry": { "type": "Polygon", "coordinates": [ [ [ -73.1754, 44.4932 ], [ -73.1707, 44.4933 ], [ -73.1783, 44.4841 ], [ -73.1827, 44.489 ], [ -73.2017, 44.4911 ], [ -73.1754, 44.4932 ] ] ] } },
{ "type": "Feature", "properties": { "GEOIDFQ": "1400000US50007002501", "NAME": "25.01", "NAMELSAD": "Census Tract 25.01" }, "geometry": { "type": "Polygon", "coordinates": [ [ [ -73.1824, 44.5025 ], [ -73.1663, 44.4989 ], [ -73.1711, 44.4933 ], [ -73.1865, 44.4924 ], [ -73.1824, 44.5025 ] ] ] } },
{ "type": "Feature", "properties": { "GEOIDFQ": "1400000US50007004100", "NAME": "41", "NAMELSAD": "Census Tract 41" }, "geometry": { "type": "Polygon", "coordinates": [ [ [ -73.2034, 44.4807 ], [ -73.203, 44.4763 ], [ -73.211, 44.476 ], [ -73.2112, 44.4805 ], [ -73.2034, 44.4807 ] ] ] } },
{ "type": "Feature", "properties": { "GEOIDFQ": "1400000US50001960900", "NAME": "9609", "NAMELSAD": "Census Tract 9609" }, "geometry": { "type": "Polygon", "coordinates": [ [ [ -73.4076, 44.0211 ], [ -73.256, 44.0353 ], [ -73.2567, 44.012 ], [ -73.1905, 44.0189 ], [ -73.1898, 43.988 ], [ -73.1735, 43.9676 ], [ -73.1699, 43.9518 ], [ -73.1639, 43.9524 ], [ -73.1749, 43.9309 ], [ -73.1748, 43.9127 ], [ -73.1887, 43.8938 ], [ -73.1741, 43.8831 ], [ -73.1763, 43.8676 ], [ -73.1707, 43.8629 ], [ -73.1613, 43.8642 ], [ -73.1556, 43.8397 ], [ -73.219, 43.8373 ], [ -73.2063, 43.7668 ], [ -73.3628, 43.7531 ], [ -73.3508, 43.7714 ], [ -73.3925, 43.8213 ], [ -73.3726, 43.8454 ], [ -73.3823, 43.8561 ], [ -73.3742, 43.8762 ], [ -73.3962, 43.9033 ], [ -73.4081, 43.9304 ], [ -73.4057, 43.9559 ], [ -73.4125, 43.9822 ], [ -73.4076, 44.0211 ] ] ] } },
{ "type": "Feature", "properties": { "GEOIDFQ": "1400000US50001960500", "NAME": "9605", "NAMELSAD": "Census Tract 9605" }, "geometry": { "type": "Polygon", "coordinates": [ [ [ -73.0231, 44.1921 ], [ -73.017, 44.1576 ], [ -73.0373, 44.1551 ], [ -73.018, 44.0626 ], [ -73.0312, 44.0605 ], [ -73.0322, 44.045 ], [ -73.0633, 44.0422 ], [ -73.0647, 44.0576 ], [ -73.0954, 44.0543 ], [ -73.112, 44.1441 ], [ -73.1446, 44.1492 ], [ -73.1496, 44.1767 ], [ -73.0231, 44.1921 ] ] ] } },
{ "type": "Feature", "properties": { "GEOIDFQ": "1400000US50001961000", "NAME": "9610", "NAMELSAD": "Census Tract 9610" }, "geometry": { "type": "Polygon", "coordinates": [ [ [ -73.1748, 43.9127 ], [ -73.1749, 43.9309 ], [ -73.1639, 43.9524 ], [ -73.0445, 43.9644 ], [ -73.0483, 43.9222 ], [ -73.0378, 43.9228 ], [ -73.04, 43.8935 ], [ -73.0299, 43.8467 ], [ -73.1562, 43.8423 ], [ -73.1613, 43.8642 ], [ -73.1707, 43.8629 ], [ -73.1763, 43.8676 ], [ -73.1741, 43.8831 ], [ -73.1888, 43.8948 ], [ -73.1748, 43.9127 ] ] ] } },
{ "type": "Feature", "properties": { "GEOIDFQ": "1400000US50001960400", "NAME": "9604", "NAMELSAD": "Census Tract 9604" }, "geometry": { "type": "Polygon", "coordinates": [ [ [ -73.4297, 44.0786 ], [ -73.4115, 44.1119 ], [ -73.4161, 44.1324 ], [ -73.4009, 44.1527 ], [ -73.2706, 44.1653 ], [ -73.2683, 44.153 ], [ -73.2394, 44.1552 ], [ -73.2403, 44.1641 ], [ -73.1737, 44.1536 ], [ -73.1771, 44.1739 ], [ -73.1496, 44.1767 ], [ -73.1446, 44.1492 ], [ -73.112, 44.1441 ], [ -73.0954, 44.0543 ], [ -73.1804, 44.0463 ], [ -73.1771, 44.0199 ], [ -73.2567, 44.012 ], [ -73.256, 44.0353 ], [ -73.4076, 44.0211 ], [ -73.4377, 44.0461 ], [ -73.4297, 44.0786 ] ] ] } },
{ "type": "Feature", "properties": { "GEOIDFQ": "1400000US50007003304", "NAME": "33.04", "NAMELSAD": "Census Tract 33.04" }, "geometry": { "type": "Polygon", "coordinates": [ [ [ -73.2736, 44.5284 ], [ -73.269, 44.5162 ], [ -73.277, 44.5062 ], [ -73.2739, 44.4972 ], [ -73.2315, 44.4469 ], [ -73.2094, 44.4459 ], [ -73.2086, 44.4552 ], [ -73.1892, 44.4545 ], [ -73.1968, 44.4167 ], [ -73.2356, 44.4258 ], [ -73.2424, 44.4448 ], [ -73.2942, 44.436 ], [ -73.3067, 44.5003 ], [ -73.3212, 44.5149 ], [ -73.2736, 44.5284 ] ] ] } },
{ "type": "Feature", "properties": { "GEOIDFQ": "1400000US50007003402", "NAME": "34.02", "NAMELSAD": "Census Tract 34.02" }, "geometry": { "type": "Polygon", "coordinates": [ [ [ -73.315, 44.3885 ], [ -73.2942, 44.436 ], [ -73.2424, 44.4448 ], [ -73.2356, 44.4258 ], [ -73.2122, 44.4209 ], [ -73.2387, 44.3535 ], [ -73.327, 44.3434 ], [ -73.3349, 44.3644 ], [ -73.315, 44.3885 ] ] ] } },
{ "type": "Feature", "properties": { "GEOIDFQ": "1400000US50007002104", "NAME": "21.04", "NAMELSAD": "Census Tract 21.04" }, "geometry": { "type": "Polygon", "coordinates": [ [ [ -73.1957, 44.613 ], [ -73.178, 44.6152 ], [ -73.173, 44.6304 ], [ -73.1578, 44.6424 ], [ -73.1452, 44.6448 ], [ -73.1406, 44.637 ], [ -73.1299, 44.6363 ], [ -73.116, 44.6526 ], [ -73.1137, 44.6361 ], [ -73.131, 44.5925 ], [ -73.1283, 44.582 ], [ -73.1984, 44.6078 ], [ -73.1957, 44.613 ] ] ] } },
{ "type": "Feature", "properties": { "GEOIDFQ": "1400000US50007003101", "NAME": "31.01", "NAMELSAD": "Census Tract 31.01" }, "geometry": { "type": "Polygon", "coordinates": [ [ [ -73.1367, 44.4748 ], [ -73.1125, 44.4832 ], [ -73.1009, 44.4719 ], [ -73.0919, 44.4809 ], [ -73.0763, 44.4826 ], [ -73.0572, 44.4734 ], [ -73.0505, 44.4762 ], [ -73.048, 44.471 ], [ -73.0274, 44.4676 ], [ -73.019, 44.451 ], [ -73.0204, 44.4421 ], [ -73.0333, 44.4394 ], [ -73.0215, 44.4332 ], [ -73.0338, 44.4262 ], [ -73.0434, 44.433 ], [ -73.1314, 44.4412 ], [ -73.1399, 44.4497 ], [ -73.1367, 44.4748 ] ] ] } },
{ "type": "Feature", "properties": { "GEOIDFQ": "1400000US50007003401", "NAME": "34.01", "NAMELSAD": "Census Tract 34.01" }, "geometry": { "type": "Polygon", "coordinates": [ [ [ -73.2122, 44.4209 ], [ -73.1417, 44.4017 ], [ -73.1335, 44.3646 ], [ -73.2386, 44.3535 ], [ -73.2122, 44.4209 ] ] ] } },
{ "type": "Feature", "properties": { "GEOIDFQ": "1400000US50007002103", "NAME": "21.03", "NAMELSAD": "Census Tract 21.03" }, "geometry": { "type": "Polygon", "coordinates": [ [ [ -73.1044, 44.6767 ], [ -73.0379, 44.6511 ], [ -73.0979, 44.5705 ], [ -73.1283, 44.582 ], [ -73.131, 44.5923 ], [ -73.1044, 44.6767 ] ] ] } },
{ "type": "Feature", "properties": { "GEOIDFQ": "1400000US50007003600", "NAME": "36", "NAMELSAD": "Census Tract 36" }, "geometry": { "type": "Polygon", "coordinates": [ [ [ -73.1775, 44.4793 ], [ -73.1695, 44.457 ], [ -73.1578, 44.4479 ], [ -73.1884, 44.45 ], [ -73.1938, 44.4741 ], [ -73.1775, 44.4793 ] ] ] } },
{ "type": "Feature", "properties": { "GEOIDFQ": "1400000US50007003900", "NAME": "39", "NAMELSAD": "Census Tract 39" }, "geometry": { "type": "Polygon", "coordinates": [ [ [ -73.2034, 44.4807 ], [ -73.1931, 44.4856 ], [ -73.19, 44.4541 ], [ -73.2077, 44.4632 ], [ -73.2034, 44.4807 ] ] ] } },
{ "type": "Feature", "properties": { "GEOIDFQ": "1400000US50007002800", "NAME": "28", "NAMELSAD": "Census Tract 28" }, "geometry": { "type": "Polygon", "coordinates": [ [ [ -73.0204, 44.4421 ], [ -73.019, 44.451 ], [ -73.032, 44.4684 ], [ -72.9713, 44.5504 ], [ -72.8882, 44.4703 ], [ -72.9187, 44.4291 ], [ -73.0215, 44.4332 ], [ -73.0333, 44.4394 ], [ -73.0204, 44.4421 ] ] ] } },
{ "type": "Feature", "properties": { "GEOIDFQ": "1400000US50007003502", "NAME": "35.02", "NAMELSAD": "Census Tract 35.02" }, "geometry": { "type": "Polygon", "coordinates": [ [ [ -73.1335, 44.3646 ], [ -73.1417, 44.4017 ], [ -73.1165, 44.3951 ], [ -73.0893, 44.3695 ], [ -73.0354, 44.375 ], [ -73.0165, 44.2854 ], [ -73.07, 44.2799 ], [ -73.0706, 44.2839 ], [ -73.1452, 44.2734 ], [ -73.1653, 44.3622 ], [ -73.1335, 44.3646 ] ] ] } },
{ "type": "Feature", "properties": { "GEOIDFQ": "1400000US50007003503", "NAME": "35.03", "NAMELSAD": "Census Tract 35.03" }, "geometry": { "type": "Polygon", "coordinates": [ [ [ -72.8804, 44.3298 ], [ -72.906, 44.2806 ], [ -72.895, 44.2781 ], [ -72.9522, 44.1614 ], [ -72.9759, 44.295 ], [ -73.0204, 44.3037 ], [ -73.0328, 44.3625 ], [ -72.8804, 44.3298 ] ] ] } },
{ "type": "Feature", "properties": { "GEOIDFQ": "1400000US50007002900", "NAME": "29", "NAMELSAD": "Census Tract 29" }, "geometry": { "type": "Polygon", "coordinates": [ [ [ -73.0378, 44.6513 ], [ -72.91, 44.6312 ], [ -72.827, 44.5507 ], [ -72.81, 44.5467 ], [ -72.8308, 44.5164 ], [ -72.8036, 44.5063 ], [ -72.8383, 44.4593 ], [ -72.8049, 44.4519 ], [ -72.8398, 44.4035 ], [ -72.8024, 44.3886 ], [ -72.826, 44.359 ], [ -72.8613, 44.3669 ], [ -72.8804, 44.3298 ], [ -72.9521, 44.3454 ], [ -72.9187, 44.4291 ], [ -72.8882, 44.4703 ], [ -72.9714, 44.5504 ], [ -73.0976, 44.571 ], [ -73.0378, 44.6513 ] ] ] } },
{ "type": "Feature", "properties": { "GEOIDFQ": "1400000US50025967300", "NAME": "9673", "NAMELSAD": "Census Tract 9673" }, "geometry": { "type": "Polygon", "coordinates": [ [ [ -72.8621, 43.2052 ], [ -72.8516, 43.2048 ], [ -72.8481, 43.2628 ], [ -72.7302, 43.2333 ], [ -72.736, 43.2086 ], [ -72.7654, 43.1809 ], [ -72.7714, 43.1417 ], [ -72.8648, 43.1662 ], [ -72.8621, 43.2052 ] ] ] } },
{ "type": "Feature", "properties": { "GEOIDFQ": "1400000US50025968400", "NAME": "9684", "NAMELSAD": "Census Tract 9684" }, "geometry": { "type": "Polygon", "coordinates": [ [ [ -72.6774, 42.8997 ], [ -72.6004, 42.8978 ], [ -72.5894, 42.877 ], [ -72.5952, 42.8686 ], [ -72.5837, 42.8522 ], [ -72.5894, 42.8249 ], [ -72.6806, 42.8273 ], [ -72.6774, 42.8997 ] ] ] } },
{ "type": "Feature", "properties": { "GEOIDFQ": "1400000US50025968300", "NAME": "9683", "NAMELSAD": "Census Tract 9683" }, "geometry": { "type": "Polygon", "coordinates": [ [ [ -72.6762, 42.9224 ], [ -72.6514, 42.9216 ], [ -72.6355, 42.9692 ], [ -72.5198, 42.9637 ], [ -72.5343, 42.9512 ], [ -72.5241, 42.9174 ], [ -72.5328, 42.8959 ], [ -72.6773, 42.9024 ], [ -72.6762, 42.9224 ] ] ] } },
{ "type": "Feature", "properties": { "GEOIDFQ": "1400000US50025967900", "NAME": "9679", "NAMELSAD": "Census Tract 9679" }, "geometry": { "type": "Polygon", "coordinates": [ [ [ -72.9202, 42.9927 ], [ -72.7542, 42.9866 ], [ -72.777, 42.9223 ], [ -72.9238, 42.9274 ], [ -72.9202, 42.9927 ] ] ] } },
{ "type": "Feature", "properties": { "GEOIDFQ": "1400000US50025968600", "NAME": "9686", "NAMELSAD": "Census Tract 9686" }, "geometry": { "type": "Polygon", "coordinates": [ [ [ -72.5328, 42.8959 ], [ -72.5526, 42.8852 ], [ -72.5597, 42.8533 ], [ -72.5835, 42.8502 ], [ -72.5952, 42.8686 ], [ -72.5894, 42.877 ], [ -72.6004, 42.8978 ], [ -72.5328, 42.8959 ] ] ] } },
{ "type": "Feature", "properties": { "GEOIDFQ": "1400000US50025967200", "NAME": "9672", "NAMELSAD": "Census Tract 9672" }, "geometry": { "type": "Polygon", "coordinates": [ [ [ -72.7654, 43.1809 ], [ -72.736, 43.2086 ], [ -72.7302, 43.2333 ], [ -72.6763, 43.2227 ], [ -72.5555, 43.2353 ], [ -72.5568, 43.1278 ], [ -72.5856, 43.0232 ], [ -72.5994, 42.9903 ], [ -72.6073, 42.9864 ], [ -72.608, 42.9684 ], [ -72.6471, 42.9695 ], [ -72.6451, 42.9785 ], [ -72.6321, 42.9821 ], [ -72.6326, 42.9945 ], [ -72.6388, 42.9961 ], [ -72.6507, 43.0193 ], [ -72.7433, 43.0222 ], [ -72.7085, 43.1258 ], [ -72.7714, 43.1417 ], [ -72.7654, 43.1809 ] ] ] } },
{ "type": "Feature", "properties": { "GEOIDFQ": "1400000US50025967600", "NAME": "9676", "NAMELSAD": "Census Tract 9676" }, "geometry": { "type": "Polygon", "coordinates": [ [ [ -72.5568, 43.1278 ], [ -72.4368, 43.1242 ], [ -72.4327, 43.1127 ], [ -72.4432, 43.1017 ], [ -72.4341, 43.0838 ], [ -72.4678, 43.053 ], [ -72.4594, 43.0204 ], [ -72.5856, 43.0232 ], [ -72.5568, 43.1278 ] ] ] } },
{ "type": "Feature", "properties": { "GEOIDFQ": "1400000US50025967400", "NAME": "9674", "NAMELSAD": "Census Tract 9674" }, "geometry": { "type": "Polygon", "coordinates": [ [ [ -72.8648, 43.1662 ], [ -72.7085, 43.1258 ], [ -72.7339, 43.0504 ], [ -72.8723, 43.0536 ], [ -72.8648, 43.1662 ] ] ] } },
{ "type": "Feature", "properties": { "GEOIDFQ": "1400000US50025967100", "NAME": "9671", "NAMELSAD": "Census Tract 9671" }, "geometry": { "type": "Polygon", "coordinates": [ [ [ -72.5555, 43.2353 ], [ -72.4346, 43.2333 ], [ -72.441, 43.2182 ], [ -72.4385, 43.2016 ], [ -72.4505, 43.1926 ], [ -72.4442, 43.1789 ], [ -72.4521, 43.1739 ], [ -72.4631, 43.1832 ], [ -72.4628, 43.1646 ], [ -72.4745, 43.1525 ], [ -72.4774, 43.1354 ], [ -72.4717, 43.1258 ], [ -72.558, 43.1278 ], [ -72.5555, 43.2353 ] ] ] } },
{ "type": "Feature", "properties": { "GEOIDFQ": "1400000US50025967500", "NAME": "9675", "NAMELSAD": "Census Tract 9675" }, "geometry": { "type": "Polygon", "coordinates": [ [ [ -72.996, 43.1187 ], [ -72.8682, 43.1139 ], [ -72.8723, 43.0536 ], [ -72.7339, 43.0504 ], [ -72.7542, 42.9866 ], [ -72.9202, 42.9927 ], [ -72.9238, 42.9274 ], [ -73.0081, 42.9306 ], [ -72.996, 43.1187 ] ] ] } },
{ "type": "Feature", "properties": { "GEOIDFQ": "1400000US50025967800", "NAME": "9678", "NAMELSAD": "Census Tract 9678" }, "geometry": { "type": "Polygon", "coordinates": [ [ [ -72.7433, 43.0222 ], [ -72.6507, 43.0193 ], [ -72.6388, 42.9961 ], [ -72.6326, 42.9945 ], [ -72.6318, 42.9831 ], [ -72.6469, 42.9753 ], [ -72.6471, 42.9695 ], [ -72.6355, 42.9692 ], [ -72.6514, 42.9216 ], [ -72.7755, 42.9264 ], [ -72.7433, 43.0222 ] ] ] } },
{ "type": "Feature", "properties": { "GEOIDFQ": "1400000US50025968200", "NAME": "9682", "NAMELSAD": "Census Tract 9682" }, "geometry": { "type": "Polygon", "coordinates": [ [ [ -72.7977, 42.9223 ], [ -72.6762, 42.9224 ], [ -72.6858, 42.7332 ], [ -72.807, 42.7365 ], [ -72.7977, 42.9223 ] ] ] } },
{ "type": "Feature", "properties": { "GEOIDFQ": "1400000US50025968700", "NAME": "9687", "NAMELSAD": "Census Tract 9687" }, "geometry": { "type": "Polygon", "coordinates": [ [ [ -72.6806, 42.8273 ], [ -72.5463, 42.8242 ], [ -72.5415, 42.8071 ], [ -72.509, 42.78 ], [ -72.5155, 42.7656 ], [ -72.4905, 42.7727 ], [ -72.477, 42.7608 ], [ -72.4584, 42.7269 ], [ -72.6856, 42.735 ], [ -72.6806, 42.8273 ] ] ] } },
{ "type": "Feature", "properties": { "GEOIDFQ": "1400000US50025967000", "NAME": "9670", "NAMELSAD": "Census Tract 9670" }, "geometry": { "type": "Polygon", "coordinates": [ [ [ -72.474, 43.1535 ], [ -72.4628, 43.1646 ], [ -72.46, 43.183 ], [ -72.4521, 43.1739 ], [ -72.4572, 43.1465 ], [ -72.4521, 43.1386 ], [ -72.4408, 43.1366 ], [ -72.438, 43.125 ], [ -72.4717, 43.1258 ], [ -72.4774, 43.1361 ], [ -72.474, 43.1535 ] ] ] } },
{ "type": "Feature", "properties": { "GEOIDFQ": "1400000US50025967700", "NAME": "9677", "NAMELSAD": "Census Tract 9677" }, "geometry": { "type": "Polygon", "coordinates": [ [ [ -72.6059, 42.9908 ], [ -72.5994, 42.9903 ], [ -72.5883, 43.0235 ], [ -72.4594, 43.0204 ], [ -72.4432, 43.0091 ], [ -72.4484, 43.001 ], [ -72.4625, 42.9974 ], [ -72.4617, 42.9829 ], [ -72.4752, 42.9715 ], [ -72.4816, 42.974 ], [ -72.5207, 42.9617 ], [ -72.5218, 42.9658 ], [ -72.6079, 42.9708 ], [ -72.6059, 42.9908 ] ] ] } },
{ "type": "Feature", "properties": { "GEOIDFQ": "1400000US50025968500", "NAME": "9685", "NAMELSAD": "Census Tract 9685" }, "geometry": { "type": "Polygon", "coordinates": [ [ [ -72.5852, 42.8501 ], [ -72.5565, 42.8554 ], [ -72.5463, 42.8242 ], [ -72.5894, 42.826 ], [ -72.5852, 42.8501 ] ] ] } },
{ "type": "Feature", "properties": { "GEOIDFQ": "1400000US50025968000", "NAME": "9680", "NAMELSAD": "Census Tract 9680" }, "geometry": { "type": "Polygon", "coordinates": [ [ [ -72.9238, 42.9274 ], [ -72.7977, 42.9223 ], [ -72.8031, 42.8267 ], [ -72.9274, 42.83 ], [ -72.9238, 42.9274 ] ] ] } },
{ "type": "Feature", "properties": { "GEOIDFQ": "1400000US50025968100", "NAME": "9681", "NAMELSAD": "Census Tract 9681" }, "geometry": { "type": "Polygon", "coordinates": [ [ [ -72.9274, 42.8298 ], [ -72.8031, 42.8267 ], [ -72.807, 42.7365 ], [ -72.9301, 42.7394 ], [ -72.9274, 42.8298 ] ] ] } },
{ "type": "Feature", "properties": { "GEOIDFQ": "1400000US50003971600", "NAME": "9716", "NAMELSAD": "Census Tract 9716" }, "geometry": { "type": "Polygon", "coordinates": [ [ [ -73.2592, 43.2168 ], [ -73.1301, 43.2137 ], [ -73.135, 43.1205 ], [ -72.9973, 43.1154 ], [ -73.0032, 43.0215 ], [ -73.27, 43.0307 ], [ -73.2592, 43.2168 ] ] ] } },
{ "type": "Feature", "properties": { "GEOIDFQ": "1400000US50003970601", "NAME": "9706.01", "NAMELSAD": "Census Tract 9706.01" }, "geometry": { "type": "Polygon", "coordinates": [ [ [ -73.1406, 43.0258 ], [ -73.0032, 43.0215 ], [ -73.0081, 42.9306 ], [ -72.9238, 42.9274 ], [ -72.9301, 42.7393 ], [ -73.1427, 42.7435 ], [ -73.1371, 42.8356 ], [ -73.1523, 42.8366 ], [ -73.1406, 43.0258 ] ] ] } },
{ "type": "Feature", "properties": { "GEOIDFQ": "1400000US50003970402", "NAME": "9704.02", "NAMELSAD": "Census Tract 9704.02" }, "geometry": { "type": "Polygon", "coordinates": [ [ [ -73.0017, 43.2109 ], [ -73.003, 43.1871 ], [ -73.0222, 43.1739 ], [ -73.0571, 43.1762 ], [ -73.053, 43.1976 ], [ -73.0672, 43.2127 ], [ -73.0017, 43.2109 ] ] ] } },
{ "type": "Feature", "properties": { "GEOIDFQ": "1400000US50003971400", "NAME": "9714", "NAMELSAD": "Census Tract 9714" }, "geometry": { "type": "Polygon", "coordinates": [ [ [ -73.2546, 43.3145 ], [ -72.9876, 43.305 ], [ -72.9923, 43.2907 ], [ -72.9759, 43.2906 ], [ -72.9796, 43.2096 ], [ -73.2592, 43.2168 ], [ -73.2546, 43.3145 ] ] ] } },
{ "type": "Feature", "properties": { "GEOIDFQ": "1400000US50003970401", "NAME": "9704.01", "NAMELSAD": "Census Tract 9704.01" }, "geometry": { "type": "Polygon", "coordinates": [ [ [ -73.1301, 43.2137 ], [ -73.0672, 43.2127 ], [ -73.053, 43.1976 ], [ -73.0574, 43.1764 ], [ -73.047, 43.1728 ], [ -73.0217, 43.174 ], [ -73.003, 43.1871 ], [ -73.0075, 43.1166 ], [ -73.135, 43.1205 ], [ -73.1301, 43.2137 ] ] ] } },
{ "type": "Feature", "properties": { "GEOIDFQ": "1400000US50007003000", "NAME": "30", "NAMELSAD": "Census Tract 30" }, "geometry": { "type": "Polygon", "coordinates": [ [ [ -73.0518, 44.4248 ], [ -73.0423, 44.422 ], [ -73.0207, 44.4336 ], [ -72.9187, 44.4291 ], [ -72.9521, 44.3454 ], [ -73.0328, 44.3625 ], [ -73.0354, 44.375 ], [ -73.0811, 44.3709 ], [ -73.0518, 44.4248 ] ] ] } },
{ "type": "Feature", "properties": { "GEOIDFQ": "1400000US50007003501", "NAME": "35.01", "NAMELSAD": "Census Tract 35.01" }, "geometry": { "type": "Polygon", "coordinates": [ [ [ -73.1653, 44.3622 ], [ -73.1452, 44.2734 ], [ -73.2704, 44.2601 ], [ -73.3133, 44.2641 ], [ -73.327, 44.3434 ], [ -73.1653, 44.3622 ] ] ] } },
{ "type": "Feature", "properties": { "GEOIDFQ": "1400000US50027966000", "NAME": "9660", "NAMELSAD": "Census Tract 9660" }, "geometry": { "type": "Polygon", "coordinates": [ [ [ -72.4503, 43.525 ], [ -72.3964, 43.5196 ], [ -72.3978, 43.5097 ], [ -72.3799, 43.4912 ], [ -72.3825, 43.4759 ], [ -72.3926, 43.4669 ], [ -72.3961, 43.4286 ], [ -72.4549, 43.4355 ], [ -72.4503, 43.525 ] ] ] } },
{ "type": "Feature", "properties": { "GEOIDFQ": "1400000US50023954100", "NAME": "9541", "NAMELSAD": "Census Tract 9541" }, "geometry": { "type": "Polygon", "coordinates": [ [ [ -72.4343, 44.5061 ], [ -72.3214, 44.4632 ], [ -72.4397, 44.3045 ], [ -72.5506, 44.3456 ], [ -72.4343, 44.5061 ] ] ] } },
{ "type": "Feature", "properties": { "GEOIDFQ": "1400000US50023954300", "NAME": "9543", "NAMELSAD": "Census Tract 9543" }, "geometry": { "type": "Polygon", "coordinates": [ [ [ -72.8049, 44.4519 ], [ -72.7656, 44.4428 ], [ -72.6543, 44.3983 ], [ -72.6712, 44.3759 ], [ -72.6632, 44.3728 ], [ -72.6686, 44.3662 ], [ -72.6603, 44.3636 ], [ -72.6717, 44.3474 ], [ -72.6782, 44.3497 ], [ -72.6954, 44.3245 ], [ -72.7052, 44.3284 ], [ -72.7167, 44.3129 ], [ -72.7564, 44.3294 ], [ -72.7634, 44.3344 ], [ -72.7619, 44.3433 ], [ -72.7727, 44.3436 ], [ -72.7776, 44.3517 ], [ -72.803, 44.3601 ], [ -72.8257, 44.3586 ], [ -72.8024, 44.3886 ], [ -72.8398, 44.4035 ], [ -72.8049, 44.4519 ] ] ] } },
{ "type": "Feature", "properties": { "GEOIDFQ": "1400000US50023954400", "NAME": "9544", "NAMELSAD": "Census Tract 9544" }, "geometry": { "type": "Polygon", "coordinates": [ [ [ -72.8613, 44.3669 ], [ -72.8229, 44.3574 ], [ -72.803, 44.3601 ], [ -72.7763, 44.3512 ], [ -72.7727, 44.3436 ], [ -72.7619, 44.3433 ], [ -72.7634, 44.3344 ], [ -72.7564, 44.3294 ], [ -72.7441, 44.3277 ], [ -72.7248, 44.315 ], [ -72.7008, 44.3135 ], [ -72.6957, 44.2987 ], [ -72.6702, 44.2895 ], [ -72.6591, 44.2751 ], [ -72.6391, 44.272 ], [ -72.6837, 44.1853 ], [ -72.7895, 44.2396 ], [ -72.906, 44.2806 ], [ -72.8613, 44.3669 ] ] ] } },
{ "type": "Feature", "properties": { "GEOIDFQ": "1400000US50023955800", "NAME": "9558", "NAMELSAD": "Census Tract 9558" }, "geometry": { "type": "Polygon", "coordinates": [ [ [ -72.895, 44.2781 ], [ -72.7895, 44.2396 ], [ -72.8687, 44.1548 ], [ -72.8933, 44.1651 ], [ -72.9513, 44.1633 ], [ -72.895, 44.2781 ] ] ] } },
{ "type": "Feature", "properties": { "GEOIDFQ": "1400000US50023955400", "NAME": "9554", "NAMELSAD": "Census Tract 9554" }, "geometry": { "type": "Polygon", "coordinates": [ [ [ -72.5384, 44.205 ], [ -72.5323, 44.2034 ], [ -72.5339, 44.199 ], [ -72.5048, 44.1821 ], [ -72.4962, 44.1801 ], [ -72.4858, 44.1852 ], [ -72.4551, 44.1669 ], [ -72.4374, 44.1512 ], [ -72.4434, 44.1288 ], [ -72.5597, 44.1629 ], [ -72.5384, 44.205 ] ] ] } },
{ "type": "Feature", "properties": { "GEOIDFQ": "1400000US50023954600", "NAME": "9546", "NAMELSAD": "Census Tract 9546" }, "geometry": { "type": "Polygon", "coordinates": [ [ [ -72.574, 44.3133 ], [ -72.5718, 44.3126 ], [ -72.5793, 44.2955 ], [ -72.5688, 44.2655 ], [ -72.5774, 44.258 ], [ -72.5868, 44.262 ], [ -72.5939, 44.2561 ], [ -72.6123, 44.2588 ], [ -72.574, 44.3133 ] ] ] } },
{ "type": "Feature", "properties": { "GEOIDFQ": "1400000US50023954000", "NAME": "9540", "NAMELSAD": "Census Tract 9540" }, "geometry": { "type": "Polygon", "coordinates": [ [ [ -72.4293, 44.3006 ], [ -72.4397, 44.3045 ], [ -72.3214, 44.4632 ], [ -72.2238, 44.4249 ], [ -72.229, 44.4202 ], [ -72.2223, 44.4231 ], [ -72.2171, 44.4113 ], [ -72.27, 44.3405 ], [ -72.3168, 44.2988 ], [ -72.3167, 44.2722 ], [ -72.3689, 44.2039 ], [ -72.4783, 44.2365 ], [ -72.4293, 44.3006 ] ] ] } },
{ "type": "Feature", "properties": { "GEOIDFQ": "1400000US50023954700", "NAME": "9547", "NAMELSAD": "Census Tract 9547" }, "geometry": { "type": "Polygon", "coordinates": [ [ [ -72.5748, 44.3108 ], [ -72.5643, 44.3098 ], [ -72.5719, 44.2997 ], [ -72.5618, 44.2958 ], [ -72.5657, 44.2809 ], [ -72.5571, 44.2778 ], [ -72.5573, 44.2693 ], [ -72.5361, 44.2614 ], [ -72.5405, 44.2554 ], [ -72.5251, 44.2492 ], [ -72.5318, 44.2402 ], [ -72.5496, 44.2402 ], [ -72.5501, 44.2492 ], [ -72.5709, 44.2518 ], [ -72.5595, 44.2604 ], [ -72.572, 44.2632 ], [ -72.5711, 44.2839 ], [ -72.5794, 44.2984 ], [ -72.5748, 44.3108 ] ] ] } },
{ "type": "Feature", "properties": { "GEOIDFQ": "1400000US50023954900", "NAME": "9549", "NAMELSAD": "Census Tract 9549" }, "geometry": { "type": "Polygon", "coordinates": [ [ [ -72.5859, 44.2618 ], [ -72.5678, 44.2503 ], [ -72.5501, 44.2492 ], [ -72.5493, 44.2401 ], [ -72.5533, 44.2349 ], [ -72.5903, 44.2437 ], [ -72.588, 44.2486 ], [ -72.6018, 44.2539 ], [ -72.5859, 44.2618 ] ] ] } },
{ "type": "Feature", "properties": { "GEOIDFQ": "1400000US50023955000", "NAME": "9550", "NAMELSAD": "Census Tract 9550" }, "geometry": { "type": "Polygon", "coordinates": [ [ [ -72.5508, 44.3454 ], [ -72.4293, 44.3006 ], [ -72.4802, 44.2339 ], [ -72.5318, 44.2402 ], [ -72.5251, 44.2492 ], [ -72.5405, 44.2554 ], [ -72.5361, 44.2614 ], [ -72.5573, 44.2693 ], [ -72.5571, 44.2778 ], [ -72.5657, 44.2809 ], [ -72.5618, 44.2958 ], [ -72.5719, 44.2997 ], [ -72.5643, 44.3098 ], [ -72.5738, 44.3136 ], [ -72.5508, 44.3454 ] ] ] } },
{ "type": "Feature", "properties": { "GEOIDFQ": "1400000US50023955300", "NAME": "9553", "NAMELSAD": "Census Tract 9553" }, "geometry": { "type": "Polygon", "coordinates": [ [ [ -72.5186, 44.2414 ], [ -72.4192, 44.2208 ], [ -72.4374, 44.1512 ], [ -72.4698, 44.1781 ], [ -72.4845, 44.1836 ], [ -72.4828, 44.1995 ], [ -72.496, 44.2057 ], [ -72.4922, 44.2139 ], [ -72.5143, 44.2119 ], [ -72.5327, 44.2162 ], [ -72.5186, 44.2414 ] ] ] } },
{ "type": "Feature", "properties": { "GEOIDFQ": "1400000US50023955100", "NAME": "9551", "NAMELSAD": "Census Tract 9551" }, "geometry": { "type": "Polygon", "coordinates": [ [ [ -72.4922, 44.2139 ], [ -72.496, 44.2057 ], [ -72.4828, 44.1995 ], [ -72.483, 44.1852 ], [ -72.5161, 44.2108 ], [ -72.5335, 44.2142 ], [ -72.4922, 44.2139 ] ] ] } },
{ "type": "Feature", "properties": { "GEOIDFQ": "1400000US50023955200", "NAME": "9552", "NAMELSAD": "Census Tract 9552" }, "geometry": { "type": "Polygon", "coordinates": [ [ [ -72.5335, 44.2142 ], [ -72.5211, 44.2128 ], [ -72.4841, 44.1849 ], [ -72.5048, 44.1821 ], [ -72.5379, 44.2054 ], [ -72.5335, 44.2142 ] ] ] } },
{ "type": "Feature", "properties": { "GEOIDFQ": "1400000US50023955600", "NAME": "9556", "NAMELSAD": "Census Tract 9556" }, "geometry": { "type": "Polygon", "coordinates": [ [ [ -72.8933, 44.1651 ], [ -72.8919, 44.161 ], [ -72.7705, 44.1267 ], [ -72.819, 44.0519 ], [ -72.8969, 44.0737 ], [ -72.9168, 44.0719 ], [ -72.9341, 44.1628 ], [ -72.8933, 44.1651 ] ] ] } },
{ "type": "Feature", "properties": { "GEOIDFQ": "1400000US50015953000", "NAME": "9530", "NAMELSAD": "Census Tract 9530" }, "geometry": { "type": "Polygon", "coordinates": [ [ [ -72.7686, 44.765 ], [ -72.7585, 44.7636 ], [ -72.755, 44.777 ], [ -72.7458, 44.7759 ], [ -72.7468, 44.7901 ], [ -72.7291, 44.804 ], [ -72.6136, 44.8004 ], [ -72.6167, 44.7958 ], [ -72.5979, 44.7871 ], [ -72.5944, 44.7903 ], [ -72.4173, 44.7229 ], [ -72.4769, 44.6421 ], [ -72.5932, 44.6846 ], [ -72.5969, 44.6793 ], [ -72.7069, 44.7185 ], [ -72.74, 44.6712 ], [ -72.7931, 44.6912 ], [ -72.7686, 44.765 ] ] ] } },
{ "type": "Feature", "properties": { "GEOIDFQ": "1400000US50015953100", "NAME": "9531", "NAMELSAD": "Census Tract 9531" }, "geometry": { "type": "Polygon", "coordinates": [ [ [ -72.9226, 44.6501 ], [ -72.903, 44.6464 ], [ -72.8919, 44.6557 ], [ -72.8508, 44.7111 ], [ -72.74, 44.6712 ], [ -72.7636, 44.6373 ], [ -72.7265, 44.6243 ], [ -72.7844, 44.5411 ], [ -72.827, 44.5507 ], [ -72.91, 44.6312 ], [ -72.9264, 44.6351 ], [ -72.9226, 44.6501 ] ] ] } },
{ "type": "Feature", "properties": { "GEOIDFQ": "1400000US50015953400", "NAME": "9534", "NAMELSAD": "Census Tract 9534" }, "geometry": { "type": "Polygon", "coordinates": [ [ [ -72.4828, 44.6341 ], [ -72.3684, 44.5928 ], [ -72.4936, 44.424 ], [ -72.5973, 44.4794 ], [ -72.4828, 44.6341 ] ] ] } },
{ "type": "Feature", "properties": { "GEOIDFQ": "1400000US50015953600", "NAME": "9536", "NAMELSAD": "Census Tract 9536" }, "geometry": { "type": "Polygon", "coordinates": [ [ [ -72.8036, 44.5063 ], [ -72.8308, 44.5164 ], [ -72.81, 44.5467 ], [ -72.7844, 44.5411 ], [ -72.7697, 44.5634 ], [ -72.6924, 44.545 ], [ -72.7076, 44.5236 ], [ -72.5973, 44.4794 ], [ -72.6543, 44.3983 ], [ -72.7656, 44.4428 ], [ -72.8372, 44.4607 ], [ -72.8036, 44.5063 ] ] ] } },
{ "type": "Feature", "properties": { "GEOIDFQ": "1400000US50027965000", "NAME": "9650", "NAMELSAD": "Census Tract 9650" }, "geometry": { "type": "Polygon", "coordinates": [ [ [ -72.3393, 43.8105 ], [ -72.2052, 43.7713 ], [ -72.2189, 43.7652 ], [ -72.2342, 43.746 ], [ -72.2718, 43.7334 ], [ -72.2997, 43.7061 ], [ -72.3051, 43.6923 ], [ -72.4216, 43.7269 ], [ -72.3393, 43.8105 ] ] ] } },
{ "type": "Feature", "properties": { "GEOIDFQ": "1400000US50013020200", "NAME": "202", "NAMELSAD": "Census Tract 202" }, "geometry": { "type": "Polygon", "coordinates": [ [ [ -73.3868, 44.6364 ], [ -73.3786, 44.6415 ], [ -73.3845, 44.6467 ], [ -73.3697, 44.6635 ], [ -73.3701, 44.6849 ], [ -73.3613, 44.6945 ], [ -73.3658, 44.7411 ], [ -73.352, 44.761 ], [ -73.3436, 44.7537 ], [ -73.3167, 44.7512 ], [ -73.2852, 44.7725 ], [ -73.2573, 44.7819 ], [ -73.2571, 44.7614 ], [ -73.2289, 44.7229 ], [ -73.2283, 44.691 ], [ -73.2331, 44.6499 ], [ -73.2532, 44.6385 ], [ -73.2573, 44.6027 ], [ -73.2915, 44.5838 ], [ -73.3629, 44.5643 ], [ -73.3818, 44.5893 ], [ -73.3768, 44.5996 ], [ -73.39, 44.6196 ], [ -73.3868, 44.6364 ] ] ] } },
{ "type": "Feature", "properties": { "GEOIDFQ": "1400000US50013020100", "NAME": "201", "NAMELSAD": "Census Tract 201" }, "geometry": { "type": "Polygon", "coordinates": [ [ [ -73.3562, 44.9045 ], [ -73.339, 44.9177 ], [ -73.3382, 44.9648 ], [ -73.3546, 44.9874 ], [ -73.3432, 45.0107 ], [ -73.1923, 45.0134 ], [ -73.2409, 44.9489 ], [ -73.2249, 44.9185 ], [ -73.1913, 44.9056 ], [ -73.2087, 44.8237 ], [ -73.237, 44.8097 ], [ -73.2586, 44.7811 ], [ -73.2863, 44.7719 ], [ -73.3146, 44.7517 ], [ -73.3419, 44.7534 ], [ -73.352, 44.761 ], [ -73.3338, 44.7852 ], [ -73.335, 44.8041 ], [ -73.3795, 44.838 ], [ -73.3816, 44.8494 ], [ -73.3562, 44.9045 ] ] ] } },
{ "type": "Feature", "properties": { "GEOIDFQ": "1400000US50023955700", "NAME": "9557", "NAMELSAD": "Census Tract 9557" }, "geometry": { "type": "Polygon", "coordinates": [ [ [ -72.7895, 44.2396 ], [ -72.7378, 44.213 ], [ -72.7484, 44.2012 ], [ -72.7408, 44.1971 ], [ -72.7547, 44.1804 ], [ -72.7493, 44.1767 ], [ -72.771, 44.1538 ], [ -72.7639, 44.1498 ], [ -72.7831, 44.1303 ], [ -72.8687, 44.1548 ], [ -72.7895, 44.2396 ] ] ] } },
{ "type": "Feature", "properties": { "GEOIDFQ": "1400000US50023954200", "NAME": "9542", "NAMELSAD": "Census Tract 9542" }, "geometry": { "type": "Polygon", "coordinates": [ [ [ -72.7052, 44.3284 ], [ -72.6954, 44.3245 ], [ -72.6782, 44.3497 ], [ -72.6717, 44.3474 ], [ -72.6603, 44.3636 ], [ -72.6686, 44.3662 ], [ -72.6632, 44.3728 ], [ -72.6712, 44.3759 ], [ -72.5973, 44.4794 ], [ -72.4936, 44.424 ], [ -72.6124, 44.2586 ], [ -72.636, 44.2709 ], [ -72.6591, 44.2751 ], [ -72.6702, 44.2895 ], [ -72.6957, 44.2987 ], [ -72.7008, 44.3135 ], [ -72.7167, 44.3129 ], [ -72.7052, 44.3284 ] ] ] } },
{ "type": "Feature", "properties": { "GEOIDFQ": "1400000US50023954800", "NAME": "9548", "NAMELSAD": "Census Tract 9548" }, "geometry": { "type": "Polygon", "coordinates": [ [ [ -72.5721, 44.2627 ], [ -72.5595, 44.2604 ], [ -72.5671, 44.252 ], [ -72.5773, 44.2581 ], [ -72.5721, 44.2627 ] ] ] } },
{ "type": "Feature", "properties": { "GEOIDFQ": "1400000US50023954500", "NAME": "9545", "NAMELSAD": "Census Tract 9545" }, "geometry": { "type": "Polygon", "coordinates": [ [ [ -72.6391, 44.272 ], [ -72.6017, 44.2575 ], [ -72.6011, 44.252 ], [ -72.588, 44.2486 ], [ -72.5903, 44.2437 ], [ -72.5533, 44.2349 ], [ -72.5473, 44.2417 ], [ -72.5246, 44.2379 ], [ -72.5198, 44.2411 ], [ -72.564, 44.1548 ], [ -72.6837, 44.1853 ], [ -72.6391, 44.272 ] ] ] } },
{ "type": "Feature", "properties": { "GEOIDFQ": "1400000US50009950500", "NAME": "9505", "NAMELSAD": "Census Tract 9505" }, "geometry": { "type": "Polygon", "coordinates": [ [ [ -71.9033, 44.4547 ], [ -71.8567, 44.4963 ], [ -71.9089, 44.5479 ], [ -71.8424, 44.6109 ], [ -71.9102, 44.6468 ], [ -71.8371, 44.7164 ], [ -71.5568, 44.5705 ], [ -71.5621, 44.5632 ], [ -71.5912, 44.5653 ], [ -71.5986, 44.5548 ], [ -71.5719, 44.5379 ], [ -71.5807, 44.5246 ], [ -71.5941, 44.5216 ], [ -71.577, 44.5021 ], [ -71.5881, 44.5066 ], [ -71.5859, 44.4994 ], [ -71.5939, 44.501 ], [ -71.5986, 44.4868 ], [ -71.6178, 44.4858 ], [ -71.6262, 44.4745 ], [ -71.6345, 44.4756 ], [ -71.6247, 44.4817 ], [ -71.6328, 44.4838 ], [ -71.6468, 44.4732 ], [ -71.639, 44.4644 ], [ -71.6542, 44.4588 ], [ -71.6609, 44.4399 ], [ -71.678, 44.4353 ], [ -71.677, 44.4268 ], [ -71.7026, 44.4135 ], [ -71.7354, 44.41 ], [ -71.7437, 44.401 ], [ -71.762, 44.407 ], [ -71.7945, 44.399 ], [ -71.8035, 44.3919 ], [ -71.8006, 44.384 ], [ -71.8144, 44.3819 ], [ -71.8125, 44.3569 ], [ -71.8176, 44.3534 ], [ -71.8379, 44.348 ], [ -71.9332, 44.4411 ], [ -71.9033, 44.4547 ] ] ] } },
{ "type": "Feature", "properties": { "GEOIDFQ": "1400000US50007000200", "NAME": "2", "NAMELSAD": "Census Tract 2" }, "geometry": { "type": "Polygon", "coordinates": [ [ [ -73.269, 44.5157 ], [ -73.2731, 44.5307 ], [ -73.2369, 44.5011 ], [ -73.2307, 44.5023 ], [ -73.2233, 44.4831 ], [ -73.2318, 44.4815 ], [ -73.2267, 44.4615 ], [ -73.2371, 44.4536 ], [ -73.277, 44.5061 ], [ -73.269, 44.5157 ] ] ] } },
{ "type": "Feature", "properties": { "GEOIDFQ": "1400000US50007980000", "NAME": "9800", "NAMELSAD": "Census Tract 9800" }, "geometry": { "type": "Polygon", "coordinates": [ [ [ -73.1625, 44.4854 ], [ -73.1572, 44.4791 ], [ -73.1386, 44.4746 ], [ -73.1392, 44.4595 ], [ -73.1541, 44.463 ], [ -73.1707, 44.4807 ], [ -73.1625, 44.4854 ] ] ] } },
{ "type": "Feature", "properties": { "GEOIDFQ": "1400000US50007002701", "NAME": "27.01", "NAMELSAD": "Census Tract 27.01" }, "geometry": { "type": "Polygon", "coordinates": [ [ [ -73.0979, 44.5705 ], [ -73.0546, 44.5636 ], [ -73.0661, 44.517 ], [ -73.0576, 44.5105 ], [ -73.0718, 44.503 ], [ -73.0633, 44.4877 ], [ -73.067, 44.4795 ], [ -73.0757, 44.4826 ], [ -73.0882, 44.4792 ], [ -73.0815, 44.4975 ], [ -73.1127, 44.5075 ], [ -73.1292, 44.5001 ], [ -73.1374, 44.5042 ], [ -73.1479, 44.4938 ], [ -73.1436, 44.4902 ], [ -73.1584, 44.4898 ], [ -73.0979, 44.5705 ] ] ] } },
{ "type": "Feature", "properties": { "GEOIDFQ": "1400000US50007002702", "NAME": "27.02", "NAMELSAD": "Census Tract 27.02" }, "geometry": { "type": "Polygon", "coordinates": [ [ [ -73.0576, 44.5105 ], [ -73.0661, 44.517 ], [ -73.0546, 44.5636 ], [ -72.9713, 44.5504 ], [ -73.032, 44.4684 ], [ -73.0686, 44.4789 ], [ -73.0633, 44.4877 ], [ -73.0718, 44.503 ], [ -73.0576, 44.5105 ] ] ] } },
{ "type": "Feature", "properties": { "GEOIDFQ": "1400000US50007000100", "NAME": "1", "NAMELSAD": "Census Tract 1" }, "geometry": { "type": "Polygon", "coordinates": [ [ [ -73.2654, 44.5394 ], [ -73.2663, 44.5259 ], [ -73.245, 44.5206 ], [ -73.2307, 44.5023 ], [ -73.2369, 44.5011 ], [ -73.271, 44.5266 ], [ -73.2742, 44.5374 ], [ -73.2654, 44.5394 ] ] ] } },
{ "type": "Feature", "properties": { "GEOIDFQ": "1400000US50007000300", "NAME": "3", "NAMELSAD": "Census Tract 3" }, "geometry": { "type": "Polygon", "coordinates": [ [ [ -73.2503, 44.5226 ], [ -73.2418, 44.529 ], [ -73.2383, 44.5164 ], [ -73.219, 44.5158 ], [ -73.2286, 44.5095 ], [ -73.2244, 44.5059 ], [ -73.2154, 44.5098 ], [ -73.2036, 44.5014 ], [ -73.2059, 44.4849 ], [ -73.2233, 44.4831 ], [ -73.2352, 44.5139 ], [ -73.2555, 44.5248 ], [ -73.2503, 44.5226 ] ] ] } },
{ "type": "Feature", "properties": { "GEOIDFQ": "1400000US50007002601", "NAME": "26.01", "NAMELSAD": "Census Tract 26.01" }, "geometry": { "type": "Polygon", "coordinates": [ [ [ -73.1374, 44.5042 ], [ -73.1292, 44.5001 ], [ -73.1127, 44.5075 ], [ -73.0967, 44.5009 ], [ -73.1243, 44.4766 ], [ -73.1349, 44.4744 ], [ -73.1449, 44.4808 ], [ -73.1374, 44.5042 ] ] ] } },
{ "type": "Feature", "properties": { "GEOIDFQ": "1400000US50007001000", "NAME": "10", "NAMELSAD": "Census Tract 10" }, "geometry": { "type": "Polygon", "coordinates": [ [ [ -73.2222, 44.4843 ], [ -73.2112, 44.4805 ], [ -73.2142, 44.4554 ], [ -73.229, 44.4595 ], [ -73.2318, 44.4815 ], [ -73.2222, 44.4843 ] ] ] } }
]
}
